identification,supportedLanguages,atmServices,accessibility,supportedCurrencies,note,otherAccessibility,otherATMServices,locationCategory,otherLocationCategory,AddressLine,townName,countrySubDivision,country,postCode,latitude,longitude
11944612684838,,,,GBP,,,,,,(SOUTHERN END) PALACE OF WESTMINSTER SW1A 0PW;PALACE OF WESTMINSTER;LONDON;SW1A 0PW,PALACE OF WESTMINSTER,LONDON,UK,SW1A 0PW,051.49978600,-000.12464300
11144688545552,,,,GBP,,,,,,16 MARKET SQUARE GLOUCESTERSHIRE GL13 9BD;GLOUCESTERSHIRE;GLOUCESTERSHIRE;GL13 9BD,GLOUCESTERSHIRE,GLOUCESTERSHIRE,UK,GL13 9BD,051.69147500,-002.45866500
1125464724171,,,,GBP,,,,,,167 ST. JAMES ROAD NORTHAMPTON NN5 5LE;NORTHAMPTON;NORTHAMPTONSHIRE;NN5 5LE,NORTHAMPTON,NORTHAMPTONSHIRE,UK,NN5 5LE,052.23947300,-000.91419600
11214639633241,,,,GBP,,,,,,235 235 BEXLEY ROAD NORTHUMBERLAND HEATH DA8 3XX;NORTHUMBERLAND HEATH;KENT;DA8 3XX,NORTHUMBERLAND HEATH,KENT,UK,DA8 3XX,052.47808200,-002.11167700
11174611088608,,,,GBP,,,,,,290 WALWORTH ROAD LONDON SE17 2TE;LONDON;LONDON;SE17 2TE,LONDON,LONDON,UK,SE17 2TE,051.48681700,-000.09556100
11334683168406,,,,GBP,,,,,,85 HIGH ROAD LONDON N2 8AE;LONDON;LONDON;N2 8AE,LONDON,LONDON,UK,N2 8AE,051.59036300,-000.16465800
11924686091194,,,,GBP,,,,,,92 QUEENS ROAD LEICESTER LE2 1SY;LEICESTER;LEICESTERSHIRE;LE2 1SY,LEICESTER,LEICESTERSHIRE,UK,LE2 1SY,052.61708200,-001.11669200
11274639538686,,,,GBP,,,,,,95 HIGH STREET LONDON W3 6QX;LONDON;LONDON;W3 6QX,LONDON,LONDON,UK,W3 6QX,051.50684600,-000.26857100
11944666724918,,,,GBP,,,,,,1 ABBEY ROAD LONDON NW10 7RB;LONDON;LONDON;NW10 7RB,LONDON,LONDON,UK,NW10 7RB,051.52961300,-000.26963900
11944641147861,,,,GBP,,,,,,9 HIGH STREET ABERGAVENNY NP7 5SA;ABERGAVENNY;GWENT;NP7 5SA,ABERGAVENNY,GWENT,UK,NP7 5SA,051.82243800,-003.01892400
1154627437157,,,,GBP,,,,,,2 ABERGELE ROAD COLWYN BAY LL29 7WY;COLWYN BAY;GWYNEDD;LL29 7WY,COLWYN BAY,GWYNEDD,UK,LL29 7WY,053.29486000,-003.72760500
1124466952879,,,,GBP,,,,,,28 ADARE STREET BRIDGEND CF31 1EN;BRIDGEND;MID GLAMORGAN;CF31 1EN,BRIDGEND,MID GLAMORGAN,UK,CF31 1EN,051.50702800,-003.57770500
11864620336479,,,,GBP,,,,,,ADJACENT TO BOOTS CITY SQUARE LEEDS LS1 4PR;LEEDS;WEST YORKSHIRE;LS1 4PR,LEEDS,WEST YORKSHIRE,UK,LS1 4PR,053.79588400,-001.54864000
11124614168669,,,,GBP,,,,,,ALBERT ROAD WITHAM CM8 2BS;WITHAM;ESSEX;CM8 2BS,WITHAM,ESSEX,UK,CM8 2BS,051.80662000,000.63990400
11554634007747,,,,GBP,,,,,,134 ALDERSGATE STREET LONDON EC1A 4JA;LONDON;LONDON;EC1A 4JA,LONDON,LONDON,UK,EC1A 4JA,051.52016100,-000.09770100
11614674047632,,,,GBP,,,,,,ALEXANDRA SQUARE LANCASTER LA1 4WY;LANCASTER;CUMBRIA;LA1 4WY,LANCASTER,CUMBRIA,UK,LA1 4WY,054.01010700,-002.78502900
11914689622943,,,,GBP,,,,,,138 ALLERTON ROAD LIVERPOOL L18 2DH;LIVERPOOL;MERSEYSIDE;L18 2DH,LIVERPOOL,MERSEYSIDE,UK,L18 2DH,053.38620300,-002.90917200
11964650634375,,,,GBP,,,,,,30 ALLHALLOWS BEDFORD MK40 1LN;BEDFORD;BEDFORDSHIRE;MK40 1LN,BEDFORD,BEDFORDSHIRE,UK,MK40 1LN,052.13788200,-000.47048200
112461993078,,,,GBP,,,,,,38 HIGH STREET ALTON GU34 1BF;ALTON;HAMPSHIRE;GU34 1BF,ALTON,HAMPSHIRE,UK,GU34 1BF,051.14905300,-000.97569700
11504659818209,,,,GBP,,,,,,31 ALVERTON STREET PENZANCE TR18 2QQ;PENZANCE;CORNWALL;TR18 2QQ,PENZANCE,CORNWALL,UK,TR18 2QQ,050.11864000,-005.53855400
11724625895820,,,,GBP,,,,,,20 AMHURST ROAD HACKNEY E8 1JW;HACKNEY;LONDON;E8 1JW,HACKNEY,LONDON,UK,E8 1JW,051.54782600,-000.05623400
11724625895820200,,,,GBP,,,,,,20 AMHURST ROAD LONDON E8 1JW;LONDON;LONDON;E8 1JW,LONDON,LONDON,UK,E8 1JW,051.54782600,-000.05623400
11364667957439,,,,GBP,,,,,,30 ANCHOR ROAD ALDRIDGE WS9 8PJ;ALDRIDGE;WEST MIDLANDS;WS9 8PJ,ALDRIDGE,WEST MIDLANDS,UK,WS9 8PJ,052.60325700,-001.91891900
1194464589123,,,,GBP,,,,,,ARCADIAN CENTRE HURST STREET B5 4DT;HURST STREET;WEST MIDLANDS;B5 4DT,HURST STREET,WEST MIDLANDS,UK,B5 4DT,052.47587200,-001.90041100
11864618853211,,,,GBP,,,,,,ARIEL WAY LONDON W12 7GE;LONDON;LONDON;W12 7GE,LONDON,LONDON,UK,W12 7GE,051.50800000,-000.22365300
11444693809240,,,,GBP,,,,,,ARMTHORPE ROAD DONCASTER DN2 5LT;DONCASTER;SOUTH YORKSHIRE;DN2 5LT,DONCASTER,SOUTH YORKSHIRE,UK,DN2 5LT,053.53074000,-001.10921300
11134668324543,,,,GBP,,,,,,20 HIGH STREET ASHFORD TN24 8SH;ASHFORD;KENT;TN24 8SH,ASHFORD,KENT,UK,TN24 8SH,051.14905600,000.87471200
1195468195253,,,,GBP,,,,,,209 ASHLEY ROAD UPPER PARKSTONE BH14 9DL;UPPER PARKSTONE;DORSET;BH14 9DL,UPPER PARKSTONE,DORSET,UK,BH14 9DL,050.72828200,-001.93502100
11324684483796,,,,GBP,,,,,,ATM 11 LOWER MALL EAST BULLRING B5 4BA;BULLRING;BIRMINGHAM;B5 4BA,BULLRING,BIRMINGHAM,UK,B5 4BA,052.47678500,-001.89538800
11824661473323,,,,GBP,,,,,,145 ATTERCLIFFE COMMON SHEFFIELD S9 2FA;SHEFFIELD;SOUTH YORKSHIRE;S9 2FA,SHEFFIELD,SOUTH YORKSHIRE,UK,S9 2FA,053.39966100,-001.42515300
11284672947428,,,,GBP,,,,,,4 AVISFORD TERRACE ROSE GREEN PO21 3HB;ROSE GREEN;WEST SUSSEX;PO21 3HB,ROSE GREEN,WEST SUSSEX,UK,PO21 3HB,050.78326500,-000.67417900
11414622637659,,,,GBP,,,,,,69 BAKER STREET LONDON W1U 6AT;LONDON;LONDON;W1U 6AT,LONDON,LONDON,UK,W1U 6AT,051.51947700,-000.15680000
11464670487557,,,,GBP,,,,,,BAKERS LANE LICHFIELD WS13 6NG;LICHFIELD;STAFFORDSHIRE;WS13 6NG,LICHFIELD,STAFFORDSHIRE,UK,WS13 6NG,052.68276100,-001.82488400
1146466472820,,,,GBP,,,,,,128 BALHAM HIGH ROAD LONDON SW12 9AA;LONDON;LONDON;SW12 9AA,LONDON,LONDON,UK,SW12 9AA,051.44585300,-000.15045500
11944691974,,,,GBP,,,,,,247 HIGH STREET BANGOR LL57 1PA;BANGOR;GWYNEDD;LL57 1PA,BANGOR,GWYNEDD,UK,LL57 1PA,053.22673800,-004.12542600
1150469813811,,,,GBP,,,,,,9 BANK COURT HEMEL HEMPSTEAD HP1 1BZ;HEMEL HEMPSTEAD;HERTFORDSHIRE;HP1 1BZ,HEMEL HEMPSTEAD,HERTFORDSHIRE,UK,HP1 1BZ,051.74964300,-000.47372400
11134688672016,,,,GBP,,,,,,BANK SQUARE TIDESWELL SK17 8NL;TIDESWELL;DERBYSHIRE;SK17 8NL,TIDESWELL,DERBYSHIRE,UK,SK17 8NL,053.27783600,-001.77373500
11594646678197,,,,GBP,,,,,,BANK STREET MEXBOROUGH S64 9QE;MEXBOROUGH;SOUTH YORKSHIRE;S64 9QE,MEXBOROUGH,SOUTH YORKSHIRE,UK,S64 9QE,053.49302100,-001.28714700
1159468456318,,,,GBP,,,,,,BANK STREET NEWQUAY TR7 1AY;NEWQUAY;NEWQUAY;TR7 1AY,NEWQUAY,NEWQUAY,UK,TR7 1AY,050.41311900,-005.08525600
11894640413201,,,,GBP,,,,,,28 BANK STREET RAWTENSTALL BB4 8TS;RAWTENSTALL;LANCASHIRE;BB4 8TS,RAWTENSTALL,LANCASHIRE,UK,BB4 8TS,053.70219600,-002.28589300
11864699168787,,,,GBP,,,,,,10 BANKS ROAD WEST KIRBY CH48 4LG;WEST KIRBY;MERSEYSIDE;CH48 4LG,WEST KIRBY,MERSEYSIDE,UK,CH48 4LG,053.37233200,-003.18495100
11854672509405,,,,GBP,,,,,,BANKTOP STATION DARLINGTON DL1 4AA;DARLINGTON;COUNTY DURHAM;DL1 4AA,DARLINGTON,COUNTY DURHAM,UK,DL1 4AA,054.52102200,-001.54672000
11254673074254,,,,GBP,,,,,,386 BARKING ROAD LONDON E13 8HJ;LONDON;LONDON;E13 8HJ,LONDON,LONDON,UK,E13 8HJ,051.52257500,000.02399400
11504629044934,,,,GBP,,,,,,133 HIGH STREET BARKINGSIDE IG6 2AJ;BARKINGSIDE;ESSEX;IG6 2AJ,BARKINGSIDE,ESSEX,UK,IG6 2AJ,051.59263400,000.08384800
11534632318713,,,,GBP,,,,,,438 BARLOW MOOR ROAD CHORLTON CUM HARDY M21 0NW;CHORLTON CUM HARDY;LANCASHIRE;M21 0NW,CHORLTON CUM HARDY,LANCASHIRE,UK,M21 0NW,053.44269200,-002.27699700
1144657446639,,,,GBP,,,,,,120 HIGH STREET BARNET EN5 5XQ;BARNET;HERTFORDSHIRE;EN5 5XQ,BARNET,HERTFORDSHIRE,UK,EN5 5XQ,051.65456100,-000.20125900
11264644792403,,,,GBP,,,,,,41 HIGH STREET BARNSTAPLE EX31 1BZ;BARNSTAPLE;DEVON;EX31 1BZ,BARNSTAPLE,DEVON,UK,EX31 1BZ,051.08154300,-004.06091700
11544679235190,,,,GBP,,,,,,151 BATH ROAD CHELTENHAM GL53 7LT;CHELTENHAM;GLOS;GL53 7LT,CHELTENHAM,GLOS,UK,GL53 7LT,051.88997000,-002.07881200
11404634803846,,,,GBP,,,,,,BATH SPA RAILWAY STATION BATH BA1 1SU;BATH;AVON;BA1 1SU,BATH,AVON,UK,BA1 1SU,051.37765000,-002.35714400
11144629563123,,,,GBP,,,,,,42 BATH STREET ILKESTON DE7 8HF;ILKESTON;DERBYSHIRE;DE7 8HF,ILKESTON,DERBYSHIRE,UK,DE7 8HF,052.97325000,-001.30873000
11714689791476,,,,GBP,,,,,,BAWTRY ROAD WICKERSLEY S66 1JY;WICKERSLEY;SOUTH YORKSHIRE;S66 1JY,WICKERSLEY,SOUTH YORKSHIRE,UK,S66 1JY,053.42136800,-001.28216100
11264622228033,,,,GBP,,,,,,41 HIGH STREET BECKENHAM BR3 1DA;BECKENHAM;KENT;BR3 1DA,BECKENHAM,KENT,UK,BR3 1DA,051.40852500,-000.02492000
11744616085506,,,,GBP,,,,,,81 HIGH STREET BEDFORD MK40 1YN;BEDFORD;BEDFORDSHIRE;MK40 1YN,BEDFORD,BEDFORDSHIRE,UK,MK40 1YN,052.13732500,-000.46638100
11354646241467,,,,GBP,,,,,,BEDFORD SQUARE TAVISTOCK PL19 0AQ;TAVISTOCK;DEVON;PL19 0AQ,TAVISTOCK,DEVON,UK,PL19 0AQ,050.55039600,-004.14483900
11954619191458,,,,GBP,,,,,,BEDFORD WAY NORTH SHIELDS NE29 6YZ;NORTH SHIELDS;TYNE & WEAR;NE29 6YZ,NORTH SHIELDS,TYNE & WEAR,UK,NE29 6YZ,055.00942500,-001.44637800
11464659818408,,,,GBP,,,,,,199 HIGH STREET BERKHAMSTED HP4 1AW;BERKHAMSTED;HERTFORDSHIRE;HP4 1AW,BERKHAMSTED,HERTFORDSHIRE,UK,HP4 1AW,051.76070900,-000.56627800
11404666012970,,,,GBP,,,,,,403 BETHNAL GREEN ROAD LONDON E2 0AF;LONDON;LONDON;E2 0AF,LONDON,LONDON,UK,E2 0AF,051.52711000,-000.05969700
11624619331109,,,,GBP,,,,,,63 HIGH STREET BIDDULPH ST8 6UU;BIDDULPH;STAFFORDSHIRE;ST8 6UU,BIDDULPH,STAFFORDSHIRE,UK,ST8 6UU,053.11627100,-002.17567200
11444683605850,,,,GBP,,,,,,BIRMINGHAM CITY CENTRE ST PHILIPS PLACE B3 2PP;ST PHILIPS PLACE;BIRMINGHAM;B3 2PP,ST PHILIPS PLACE,BIRMINGHAM,UK,B3 2PP,052.48137100,-001.89736500
1144468360585020,,,,GBP,,,,,,BIRMINGHAM CITY CENTRE ST PHILIPS PLACE B3 2RD;ST PHILIPS PLACE;BIRMINGHAM;B3 2RD,ST PHILIPS PLACE,BIRMINGHAM,UK,B3 2RD,052.48137100,-001.89736500
11284648683826,,,,GBP,,,,,,216 BISHOPSGATE LONDON EC2M 4JH;LONDON;LONDON;EC2M 4JH,LONDON,LONDON,UK,EC2M 4JH,051.51828900,-000.07940200
11284648683826210,,,,GBP,,,,,,216 BISHOPSGATE LONDON EC2M 4QB;LONDON;LONDON;EC2M 4QB,LONDON,LONDON,UK,EC2M 4QB,051.51828900,-000.07940200
11624629797880,,,,GBP,,,,,,416 BITTERNE ROAD BITTERNE VILLAGE SO18 1DT;BITTERNE VILLAGE;HAMPSHIRE;SO18 1DT,BITTERNE VILLAGE,HAMPSHIRE,UK,SO18 1DT,050.91432400,-001.36020200
11624629797880210,,,,GBP,,,,,,416 BITTERNE ROAD SOUTHAMPTON SO18 1DT;SOUTHAMPTON;HANTS;SO18 1DT,SOUTHAMPTON,HANTS,UK,SO18 1DT,050.91432400,-001.36020200
11584669199216,,,,GBP,,,,,,48 BLUE BOAR ROW SALISBURY SP1 1DF;SALISBURY;WILTSHIRE;SP1 1DF,SALISBURY,WILTSHIRE,UK,SP1 1DF,051.06981100,-001.79477300
11584669199216960,,,,GBP,,,,,,48 BLUE BOAR ROW SALISBURY SP1 1DP;SALISBURY;WILTSHIRE;SP1 1DP,SALISBURY,WILTSHIRE,UK,SP1 1DP,051.06981100,-001.79477300
11834672947428,,,,GBP,,,,,,60 HIGH STREET BOGNOR REGIS PO21 1FB;BOGNOR REGIS;WEST SUSSEX;PO21 1FB,BOGNOR REGIS,WEST SUSSEX,UK,PO21 1FB,050.78326500,-000.67417900
11154698125085,,,,GBP,,,,,,313 BOLTON ROAD IRLAMS O TH HEIGHT M6 7LR;IRLAMS O TH HEIGHT;GREATER MANCHESTER;M6 7LR,IRLAMS O TH HEIGHT,GREATER MANCHESTER,UK,M6 7LR,053.49929200,-002.30676200
11224672326236,,,,GBP,,,,,,13 BOOTHFERRY ROAD GOOLE DN14 5DE;GOOLE;SOUTH YORKSHIRE;DN14 5DE,GOOLE,SOUTH YORKSHIRE,UK,DN14 5DE,053.70391600,-000.87219100
11474624458658,,,,GBP,,,,,,119 BOUNDARY ROAD NORWICH NR6 5JD;NORWICH;NORFOLK;NR6 5JD,NORWICH,NORFOLK,UK,NR6 5JD,052.65312600,001.26707600
11944677432224,,,,GBP,,,,,,161 BOW ROAD LONDON E3 2SG;LONDON;LONDON;E3 2SG,LONDON,LONDON,UK,E3 2SG,051.52848600,-000.01882300
11224674707579,,,,GBP,,,,,,5 HIGH STREET BRACKNELL RG12 1DH;BRACKNELL;BERKSHIRE;RG12 1DH,BRACKNELL,BERKSHIRE,UK,RG12 1DH,051.41607600,-000.74754400
1154654828912,,,,GBP,,,,,,12 BRADFORD HOUSE BRIGHOUSE HD6 1RW;BRIGHOUSE;WEST YORKSHIRE;HD6 1RW,BRIGHOUSE,WEST YORKSHIRE,UK,HD6 1RW,053.70206400,-001.77897900
11844663055561,,,,GBP,,,,,,47 HIGH STREET BRAINTREE CM7 1JT;BRAINTREE;ESSEX;CM7 1JT,BRAINTREE,ESSEX,UK,CM7 1JT,051.87850300,000.55071200
11344692795245,,,,GBP,,,,,,27 HIGH STREET BRECON LD3 7LF;BRECON;POWYS;LD3 7LF,BRECON,POWYS,UK,LD3 7LF,051.94834000,-003.39174800
11914616319913,,,,GBP,,,,,,46 HIGH STREET BRENTWOOD CM14 4AN;BRENTWOOD;ESSEX;CM14 4AN,BRENTWOOD,ESSEX,UK,CM14 4AN,051.61984000,000.30126200
1114619461975,,,,GBP,,,,,,9 BRIDGE STREET ANDOVER SP10 1BD;ANDOVER;HAMPSHIRE;SP10 1BD,ANDOVER,HAMPSHIRE,UK,SP10 1BD,051.20618000,-001.47943100
11184617994934,,,,GBP,,,,,,BRIDGE STREET BANBURY OX16 5JS;BANBURY;OXFORDSHIRE;OX16 5JS,BANBURY,OXFORDSHIRE,UK,OX16 5JS,052.06198300,-001.33429300
11184617994934200,,,,GBP,,,,,,BRIDGE STREET BANBURY OX16 5PX;BANBURY;OXFORDSHIRE;OX16 5PX,BANBURY,OXFORDSHIRE,UK,OX16 5PX,052.06198300,-001.33429300
1164461317988,,,,GBP,,,,,,6 BRIDGE STREET EARLESTOWN WA12 9BB;EARLESTOWN;MERSEYSIDE;WA12 9BB,EARLESTOWN,MERSEYSIDE,UK,WA12 9BB,053.45169100,-002.63966300
11244647702344,,,,GBP,,,,,,2 BRIDGE STREET EVESHAM WR11 4RS;EVESHAM;HEREFORDSHIRE;WR11 4RS,EVESHAM,HEREFORDSHIRE,UK,WR11 4RS,052.09241500,-001.94708500
1154467255673,,,,GBP,,,,,,4 BRIDGE STREET MORPETH NE61 1NG;MORPETH;NORTHUMBERLAND;NE61 1NG,MORPETH,NORTHUMBERLAND,UK,NE61 1NG,055.16728700,-001.68979000
11134624967497,,,,GBP,,,,,,69 BRIDGE STREET WORKSOP S80 1DG;WORKSOP;NOTTINGHAMSHIRE;S80 1DG,WORKSOP,NOTTINGHAMSHIRE,UK,S80 1DG,053.30282800,-001.12439300
11134624967497200,,,,GBP,,,,,,69 BRIDGE STREET WORKSOP S80 1DG;WORKSOP;NOTTS;S80 1DG,WORKSOP,NOTTS,UK,S80 1DG,053.30282800,-001.12439300
11354613407261,,,,GBP,,,,,,BRIDGE STREET CORNER FAKENHAM NR21 9BA;FAKENHAM;NORFOLK;NR21 9BA,FAKENHAM,NORFOLK,UK,NR21 9BA,052.82989800,000.84843200
1144668376198,,,,GBP,,,,,,BRINDLEY PLACE BIRMINGHAM B1 2JB;BIRMINGHAM;WEST MIDLANDS;B1 2JB,BIRMINGHAM,WEST MIDLANDS,UK,B1 2JB,052.47799500,-001.91359800
1134696075430,,,,GBP,,,,,,HIGH STREET BRISTOL BS49 4EG;BRISTOL;AVON;BS49 4EG,BRISTOL,AVON,UK,BS49 4EG,051.38709900,-002.81962300
1152464932146,,,,GBP,,,,,,817 BRISTOL ROAD SOUTH NORTHFIELD B31 2NQ;NORTHFIELD;WEST MIDLANDS;B31 2NQ,NORTHFIELD,WEST MIDLANDS,UK,B31 2NQ,052.41449800,-001.97216500
1145466787505,,,,GBP,,,,,,504 BRIXTON ROAD BRIXTON SW9 8EW;BRIXTON;LONDON;SW9 8EW,BRIXTON,LONDON,UK,SW9 8EW,051.46167600,-000.11574000
1145466787505220,,,,GBP,,,,,,504 BRIXTON ROAD LONDON SW9 8EW;LONDON;LONDON;SW9 8EW,LONDON,LONDON,UK,SW9 8EW,051.46167600,-000.11574000
11764613357129,,,,GBP,,,,,,12 BROAD STREET HEREFORD HR4 9AH;HEREFORD;HEREFORDSHIRE;HR4 9AH,HEREFORD,HEREFORDSHIRE,UK,HR4 9AH,052.05547600,-002.71727900
1174469861800,,,,GBP,,,,,,18 BROAD STREET MARCH PE15 8TN;MARCH;CAMBRIDGESHIRE;PE15 8TN,MARCH,CAMBRIDGESHIRE,UK,PE15 8TN,052.55065000,000.08778100
11734698708830,,,,GBP,,,,,,BROAD STREET NEWTOWN SY16 2LY;NEWTOWN;POWYS;SY16 2LY,NEWTOWN,POWYS,UK,SY16 2LY,052.51561600,-003.31595000
11734644844151,,,,GBP,,,,,,BROAD STREET READING RG1 2AD;READING;BERKSHIRE;RG1 2AD,READING,BERKSHIRE,UK,RG1 2AD,051.45581600,-000.97263100
1184676443438,,,,GBP,,,,,,5 BROAD STREET WOKINGHAM RG40 1AU;WOKINGHAM;BERKSHIRE;RG40 1AU,WOKINGHAM,BERKSHIRE,UK,RG40 1AU,051.41077400,-000.83417900
119465463624,,,,GBP,,,,,,24 BROADGATE COVENTRY CV1 1NE;COVENTRY;WEST MIDLANDS;CV1 1NE,COVENTRY,WEST MIDLANDS,UK,CV1 1NE,052.40754600,-001.51047700
11204623811426,,,,GBP,,,,,,BROADMEAD SHOPPING CENTRE BRISTOL BS1 3EU;BRISTOL;BRISTOL;BS1 3EU,BRISTOL,BRISTOL,UK,BS1 3EU,051.45769000,-002.58829000
11744674742086,,,,GBP,,,,,,5 BROADWATER STREET EAST BROADWATER BN14 9AA;BROADWATER;WEST SUSSEX;BN14 9AA,BROADWATER,WEST SUSSEX,UK,BN14 9AA,050.82828000,-000.37377400
11704614092107,,,,GBP,,,,,,58 BROADWAY LEIGH-ON-SEA SS9 1AF;LEIGH-ON-SEA;ESSEX;SS9 1AF,LEIGH-ON-SEA,ESSEX,UK,SS9 1AF,051.54132300,000.65840900
1151468295327,,,,GBP,,,,,,44866 BROADWAY STRATFORD E15 4BQ;STRATFORD;LONDON;E15 4BQ,STRATFORD,LONDON,UK,E15 4BQ,051.54087400,000.00262600
11754690367340,,,,GBP,,,,,,143 HIGH STREET BROMLEY BR1 1JH;BROMLEY;KENT;BR1 1JH,BROMLEY,KENT,UK,BR1 1JH,051.40444900,000.01533600
1132466250602,,,,GBP,,,,,,124 HIGH STREET BROMSGROVE B61 8HJ;BROMSGROVE;WORCESTERSHIRE;B61 8HJ,BROMSGROVE,WORCESTERSHIRE,UK,B61 8HJ,052.33609200,-002.05899700
11594673381607,,,,GBP,,,,,,BROWELL LANE FELTHAM TW13 7EQ;FELTHAM;LONDON;TW13 7EQ,FELTHAM,LONDON,UK,TW13 7EQ,051.44255300,-000.40642500
1184619669371,,,,GBP,,,,,,BRUNEL ARCADE READING RG1 1LT;READING;BERKSHIRE;RG1 1LT,READING,BERKSHIRE,UK,RG1 1LT,051.45831500,-000.97152400
11234640292717,,,,GBP,,,,,,BRUNEL WAY SLOUGH SL1 1XW;SLOUGH;BERKSHIRE;SL1 1XW,SLOUGH,BERKSHIRE,UK,SL1 1XW,051.52337700,-000.64616500
11484668376198,,,,GBP,,,,,,BRUNSWICK ARCADE CANALSIDE CAR PARK B1 2JB;CANALSIDE CAR PARK;WEST MIDLANDS;B1 2JB,CANALSIDE CAR PARK,WEST MIDLANDS,UK,B1 2JB,052.47799500,-001.91359800
11904652745365,,,,GBP,,,,,,177 BUCKINGHAM AVENUE SLOUGH SL1 4RD;SLOUGH;BERKSHIRE;SL1 4RD,SLOUGH,BERKSHIRE,UK,SL1 4RD,051.52129600,-000.62570100
11824665906597,,,,GBP,,,,,,5 BULKELEY TERRACE BEAUMARIS LL58 8AY;BEAUMARIS;ANGLESEY;LL58 8AY,BEAUMARIS,ANGLESEY,UK,LL58 8AY,053.26260200,-004.09294200
11134659838587,,,,GBP,,,,,,15 BULL RING LUDLOW SY8 1AG;LUDLOW;SHROPSHIRE;SY8 1AG,LUDLOW,SHROPSHIRE,UK,SY8 1AG,052.36869100,-002.71796500
1162465925533,,,,GBP,,,,,,63 HIGH STREET BURNHAM SL1 7JX;BURNHAM;BUCKINGHAMSHIRE;SL1 7JX,BURNHAM,BUCKINGHAMSHIRE,UK,SL1 7JX,051.53366500,-000.65876400
11464637378524,,,,GBP,,,,,,159 HIGH STREET BURTON-ON-TRENT DE14 1JG;BURTON-ON-TRENT;STAFFORDSHIRE;DE14 1JG,BURTON-ON-TRENT,STAFFORDSHIRE,UK,DE14 1JG,052.80264900,-001.62968700
11574696786345,,,,GBP,,,,,,463 BURY NEW ROAD PRESTWICH M25 1AB;PRESTWICH;LANCASHIRE;M25 1AB,PRESTWICH,LANCASHIRE,UK,M25 1AB,053.53269300,-002.28550500
11814692986297,,,,GBP,,,,,,64 BURY OLD ROAD MANCHESTER M8 5BN;MANCHESTER;LANCASHIRE;M8 5BN,MANCHESTER,LANCASHIRE,UK,M8 5BN,053.51373400,-002.24603300
11944653121012,,,,GBP,,,,,,CAMBERWELL ROAD CAMBERWELL SE5 0EG;CAMBERWELL;LONDON;SE5 0EG,CAMBERWELL,LONDON,UK,SE5 0EG,051.48164600,-000.09498400
112465524249,,,,GBP,,,,,,3 CAMBRIDGE CRESCENT HARROGATE HG1 1PE;HARROGATE;NORTH YORKSHIRE;HG1 1PE,HARROGATE,NORTH YORKSHIRE,UK,HG1 1PE,053.99304000,-001.54201000
11144683352855,,,,GBP,,,,,,166 CAMDEN HIGH STREET LONDON NW1 0NS;LONDON;LONDON;NW1 0NS,LONDON,LONDON,UK,NW1 0NS,051.53884100,-000.14213100
11744695861160,,,,GBP,,,,,,103 CAMERON WALK METROCENTRE NE11 9GA;METROCENTRE;TYNE & WEAR;NE11 9GA,METROCENTRE,TYNE & WEAR,UK,NE11 9GA,054.95547300,-001.66645500
11424633127912,,,,GBP,,,,,,CANNON STREET LONDON EC4N 6AP;LONDON;LONDON;EC4N 6AP,LONDON,LONDON,UK,EC4N 6AP,051.51120900,-000.09026300
1154684141197,,,,GBP,,,,,,19 CARDIFF ROAD CAERPHILLY CF83 1WF;CAERPHILLY;MID GLAMORGAN;CF83 1WF,CAERPHILLY,MID GLAMORGAN,UK,CF83 1WF,051.57454400,-003.21998900
11184667116519,,,,GBP,,,,,,47 CARFAX HORSHAM RH12 1FD;HORSHAM;WEST SUSSEX;RH12 1FD,HORSHAM,WEST SUSSEX,UK,RH12 1FD,051.06285000,-000.32780500
1156464395336,,,,GBP,,,,,,CAROLINE STREET CARDIFF CF10 1FG;CARDIFF;MID GLAMORGAN;CF10 1FG,CARDIFF,MID GLAMORGAN,UK,CF10 1FG,051.47805200,-003.17668800
11974654732553,,,,GBP,,,,,,CASTLE LANE WEST BOURNEMOUTH BH8 9US;BOURNEMOUTH;DORSET;BH8 9US,BOURNEMOUTH,DORSET,UK,BH8 9US,050.75123600,-001.84436600
11384619474826,,,,GBP,,,,,,267 CASTLE STREET DUDLEY DY1 1LJ;DUDLEY;WEST MIDLANDS;DY1 1LJ,DUDLEY,WEST MIDLANDS,UK,DY1 1LJ,052.51213400,-002.08098200
11884651813365,,,,GBP,,,,,,38 CASTLE STREET LLANGOLLEN LL20 8NH;LLANGOLLEN;DENBEIGHSHIRE;LL20 8NH,LLANGOLLEN,DENBEIGHSHIRE,UK,LL20 8NH,052.96923400,-003.17075500
11594631395022,,,,GBP,,,,,,CATHEDRAL SQUARE PETERBOROUGH PE1 1XH;PETERBOROUGH;CAMBRIDGESHIRE;PE1 1XH,PETERBOROUGH,CAMBRIDGESHIRE,UK,PE1 1XH,052.57223500,-000.24248300
11514628749809,,,,GBP,,,,,,13 CECIL SQUARE MARGATE CT9 1XY;MARGATE;KENT;CT9 1XY,MARGATE,KENT,UK,CT9 1XY,051.38783800,001.38117500
11934626859297,,,,GBP,,,,,,CEDAR ROAD AINTREE L9 0EG;AINTREE;MERSEYSIDE;L9 0EG,AINTREE,MERSEYSIDE,UK,L9 0EG,053.46409500,-002.95724500
1155462574627,,,,GBP,,,,,,5 CENTRAL CIRCUS LONDON NW4 3JS;LONDON;LONDON;NW4 3JS,LONDON,LONDON,UK,NW4 3JS,051.58243600,-000.22753500
11994636401248,,,,GBP,,,,,,93 CENTRAL ROAD WORCESTER PARK KT4 8DZ;WORCESTER PARK;SURREY;KT4 8DZ,WORCESTER PARK,SURREY,UK,KT4 8DZ,051.37815000,-000.24121500
11564677339862,,,,GBP,,,,,,CENTRAL SQUARE CARDIFF CF10 1EP;CARDIFF;SOUTH GLAMORGAN;CF10 1EP,CARDIFF,SOUTH GLAMORGAN,UK,CF10 1EP,051.47661200,-003.17865300
11344677993573,,,,GBP,,,,,,27 HIGH STREET CHADWELL HEATH RM6 6QD;CHADWELL HEATH;ESSEX;RM6 6QD,CHADWELL HEATH,ESSEX,UK,RM6 6QD,051.57100800,000.13128900
11284661607173,,,,GBP,,,,,,CHAPEL STREET SOUTHPORT PR8 1BE;SOUTHPORT;MERSEYSIDE;PR8 1BE,SOUTHPORT,MERSEYSIDE,UK,PR8 1BE,053.64667500,-003.00255500
1144641672563,,,,GBP,,,,,,CHARING CROSS LONDON WC2N 5HS;LONDON;LONDON;WC2N 5HS,LONDON,LONDON,UK,WC2N 5HS,051.50830400,-000.12478300
11864664101749,,,,GBP,,,,,,148 HIGH STREET CHATHAM ME4 4DB;CHATHAM;KENT;ME4 4DB,CHATHAM,KENT,UK,ME4 4DB,051.38300400,000.52387400
11304675393759,,,,GBP,,,,,,34 HIGH STREET CHEADLE SK8 1AF;CHEADLE;CHESHIRE;SK8 1AF,CHEADLE,CHESHIRE,UK,SK8 1AF,053.39490000,-002.21540500
11304675393759340,,,,GBP,,,,,,34 HIGH STREET CHEADLE SK8 1AP;CHEADLE;CHESHIRE;SK8 1AP,CHEADLE,CHESHIRE,UK,SK8 1AP,053.39490000,-002.21540500
11424696631972,,,,GBP,,,,,,CHEAPSIDE AMBLESIDE LA22 0BL;AMBLESIDE;AMBLESIDE;LA22 0BL,AMBLESIDE,AMBLESIDE,UK,LA22 0BL,054.43119000,-002.96193800
11604680231353,,,,GBP,,,,,,44685 HIGH STREET CHELMSFORD CM1 1FZ;CHELMSFORD;ESSEX;CM1 1FZ,CHELMSFORD,ESSEX,UK,CM1 1FZ,051.73414600,000.47361400
11504618449941,,,,GBP,,,,,,42 CHESHIRE STREET MARKET DRAYTON TF9 1PG;MARKET DRAYTON;SHROPSHIRE;TF9 1PG,MARKET DRAYTON,SHROPSHIRE,UK,TF9 1PG,052.90489700,-002.48517300
1134674049631,,,,GBP,,,,,,15 CHESTER ROAD WEST SHOTTON CH5 1DF;SHOTTON;CLWYD;CH5 1DF,SHOTTON,CLWYD,UK,CH5 1DF,053.21219100,-003.03983800
11614620655645,,,,GBP,,,,,,1 CHESTERFIELD ROAD ALFRETON DE55 7ZR;ALFRETON;DERBYSHIRE;DE55 7ZR,ALFRETON,DERBYSHIRE,UK,DE55 7ZR,053.09783000,-001.39008500
1174663668887,,,,GBP,,,,,,2 CHESTERGATE MACCLESFIELD SK11 6BA;MACCLESFIELD;CHESHIRE;SK11 6BA,MACCLESFIELD,CHESHIRE,UK,SK11 6BA,053.26067000,-002.12692700
1138462289364,,,,GBP,,,,,,30 HIGH STREET CHIPPENHAM SN15 3HB;CHIPPENHAM;WILTSHIRE;SN15 3HB,CHIPPENHAM,WILTSHIRE,UK,SN15 3HB,051.45899100,-002.11603800
11534642919798,,,,GBP,,,,,,314 CHISWICK HIGH ROAD LONDON W4 5TA;LONDON;LONDON;W4 5TA,LONDON,LONDON,UK,W4 5TA,051.49257400,-000.26244200
11284668203047,,,,GBP,,,,,,548 CHORLEY OLD ROAD BOLTON BL1 6BT;BOLTON;LANCASHIRE;BL1 6BT,BOLTON,LANCASHIRE,UK,BL1 6BT,053.58890100,-002.46269700
11414668659244,,,,GBP,,,,,,57 HIGH STREET CHRISTCHURCH BH23 1AS;CHRISTCHURCH;DORSET;BH23 1AS,CHRISTCHURCH,DORSET,UK,BH23 1AS,050.73383300,-001.77681700
11564654454825,,,,GBP,,,,,,CHRISTCHURCH ROAD READING RG2 7AZ;READING;BERKSHIRE;RG2 7AZ,READING,BERKSHIRE,UK,RG2 7AZ,051.44271900,-000.95584500
11394618553082,,,,GBP,,,,,,CHURCH GREEN EAST REDDITCH B98 8DG;REDDITCH;WORCESTERSHIRE;B98 8DG,REDDITCH,WORCESTERSHIRE,UK,B98 8DG,052.30669200,-001.93968700
1193468933230,,,,GBP,,,,,,CHURCH ROAD BRISTOL BS5 9HN;BRISTOL;AVON;BS5 9HN,BRISTOL,AVON,UK,BS5 9HN,051.45938100,-002.55490400
1125465122978,,,,GBP,,,,,,4 CHURCH ROAD FILTON BS34 7BL;FILTON;AVON;BS34 7BL,FILTON,AVON,UK,BS34 7BL,051.50969100,-002.57344000
1125465122978910,,,,GBP,,,,,,4 CHURCH ROAD FILTON BS34 7BL;FILTON;BRISTOL;BS34 7BL,FILTON,BRISTOL,UK,BS34 7BL,051.50969100,-002.57344000
1121467855578,,,,GBP,,,,,,103 CHURCH ROAD HOVE BN3 2BF;HOVE;EAST SUSSEX;BN3 2BF,HOVE,EAST SUSSEX,UK,BN3 2BF,050.82771000,-000.16960000
11514696564401,,,,GBP,,,,,,25 CHURCH STREET CONISBROUGH DN12 3HP;CONISBROUGH;SOUTH YORKSHIRE;DN12 3HP,CONISBROUGH,SOUTH YORKSHIRE,UK,DN12 3HP,053.48281100,-001.23079100
1199469515378,,,,GBP,,,,,,61 CHURCH STREET CROMER NR27 9HH;CROMER;NORFOLK;NR27 9HH,CROMER,NORFOLK,UK,NR27 9HH,052.93112900,001.29982500
11264667866982,,,,GBP,,,,,,68 CHURCH STREET LANCASTER LA1 1LN;LANCASTER;CUMBRIA;LA1 1LN,LANCASTER,CUMBRIA,UK,LA1 1LN,054.04815500,-002.80384600
11294647409033,,,,GBP,,,,,,44775 CHURCH STREET LIVERPOOL L1 3BG;LIVERPOOL;LIVERPOOL;L1 3BG,LIVERPOOL,LIVERPOOL,UK,L1 3BG,053.40519600,-002.98518000
11654688799656,,,,GBP,,,,,,9 CHURCH STREET MANSFIELD NG18 1AF;MANSFIELD;NOTTINGHAMSHIRE;NG18 1AF,MANSFIELD,NOTTINGHAMSHIRE,UK,NG18 1AF,053.14404100,-001.19448700
11504633141472,,,,GBP,,,,,,17 CHURCH STREET OSWESTRY SY11 2SX;OSWESTRY;SHROPSHIRE;SY11 2SX,OSWESTRY,SHROPSHIRE,UK,SY11 2SX,052.85843900,-003.05594300
11154682271024,,,,GBP,,,,,,1 CHURCH STREET ST AUSTELL PL25 4AW;ST AUSTELL;CORNWALL;PL25 4AW,ST AUSTELL,CORNWALL,UK,PL25 4AW,050.33823300,-004.79127600
11784626679517,,,,GBP,,,,,,56 CHURCHHILL SQUARE BRIGHTON BN1 2ES;BRIGHTON;EAST SUSSEX;BN1 2ES,BRIGHTON,EAST SUSSEX,UK,BN1 2ES,050.82295500,-000.14641500
11674657476209,,,,GBP,,,,,,CITY ROAD CHESTER CH1 3NT;CHESTER;CHESHIRE;CH1 3NT,CHESTER,CHESHIRE,UK,CH1 3NT,053.19661600,-002.87985700
11344620336479,,,,GBP,,,,,,CITY SQUARE LEEDS LS1 4PR;LEEDS;WEST YORKSHIRE;LS1 4PR,LEEDS,WEST YORKSHIRE,UK,LS1 4PR,053.79588400,-001.54864000
11354673945432,,,,GBP,,,,,,145 CLAPHAM HIGH STREET CLAPHAM SW4 7SZ;CLAPHAM;LONDON;SW4 7SZ,CLAPHAM,LONDON,UK,SW4 7SZ,051.46215600,-000.13619200
11354673945432930,,,,GBP,,,,,,145 CLAPHAM HIGH STREET LONDON SW4 7SZ;LONDON;LONDON;SW4 7SZ,LONDON,LONDON,UK,SW4 7SZ,051.46215600,-000.13619200
11134631905912,,,,GBP,,,,,,280 CLAREMONT ROAD MANCHESTER M14 4NW;MANCHESTER;LANCASHIRE;M14 4NW,MANCHESTER,LANCASHIRE,UK,M14 4NW,053.45310500,-002.23711400
11234657723634,,,,GBP,,,,,,48 HIGH STREET CLAY CROSS S45 9EE;CLAY CROSS;DERBYSHIRE;S45 9EE,CLAY CROSS,DERBYSHIRE,UK,S45 9EE,053.16650200,-001.41564800
11484685397297,,,,GBP,,,,,,25 HIGH STREET COLCHESTER CO1 1DG;COLCHESTER;ESSEX;CO1 1DG,COLCHESTER,ESSEX,UK,CO1 1DG,051.88937300,000.89861500
11354621773374,,,,GBP,,,,,,COLDHARBOUR LANE FRENCHAY BS16 1QY;FRENCHAY;FRENCHAY;BS16 1QY,FRENCHAY,FRENCHAY,UK,BS16 1QY,051.50103000,-002.54748600
1195468922610,,,,GBP,,,,,,6 COLDHARBOUR LANE HAYES UB3 3EW;HAYES;MIDDLESEX;UB3 3EW,HAYES,MIDDLESEX,UK,UB3 3EW,051.50720400,-000.41734100
11404667902405,,,,GBP,,,,,,130 COMMERCIAL ROAD PORTSMOUTH PO1 1EJ;PORTSMOUTH;HAMPSHIRE;PO1 1EJ,PORTSMOUTH,HAMPSHIRE,UK,PO1 1EJ,050.79927200,-001.09082700
11594635581444,,,,GBP,,,,,,4 COMMERCIAL SQUARE CAMBORNE TR14 8EB;CAMBORNE;CORNWALL;TR14 8EB,CAMBORNE,CORNWALL,UK,TR14 8EB,050.21370800,-005.29915800
11244685492539,,,,GBP,,,,,,44 COPY NOOK EANAM BB1 3DZ;EANAM;LANCASHIRE;BB1 3DZ,EANAM,LANCASHIRE,UK,BB1 3DZ,053.74877200,-002.46662100
11944644131808,,,,GBP,,,,,,7 CORNHILL BURY ST EDMUNDS IP33 1BQ;BURY ST EDMUNDS;SUFFOLK;IP33 1BQ,BURY ST EDMUNDS,SUFFOLK,UK,IP33 1BQ,052.24530400,000.71173500
11354666699556,,,,GBP,,,,,,3 CORNMARKET THAME OX9 3YS;THAME;OXFORDSHIRE;OX9 3YS,THAME,OXFORDSHIRE,UK,OX9 3YS,051.74723100,-000.97775200
11824627535989,,,,GBP,,,,,,43 CORNMARKET STREET OXFORD OX1 3HA;OXFORD;OXFORD;OX1 3HA,OXFORD,OXFORD,UK,OX1 3HA,053.19196500,-002.87658900
11824639336972,,,,GBP,,,,,,43 CORNMARKET STREET OXFORD OX1 3HA;OXFORD;OXFORD;OX1 3HA,OXFORD,OXFORD,UK,OX1 3HA,051.75333200,-001.25878400
11424644386585,,,,GBP,,,,,,25 CORPERATION STREET CORBY NN17 1NR;CORBY;NORTHAMPTONSHIRE;NN17 1NR,CORBY,NORTHAMPTONSHIRE,UK,NN17 1NR,052.48741800,-000.70085200
11134650664394,,,,GBP,,,,,,20 CORPORATION STREET BLACKPOOL FY1 1EJ;BLACKPOOL;LANCASHIRE;FY1 1EJ,BLACKPOOL,LANCASHIRE,UK,FY1 1EJ,053.81771300,-003.05369100
1134623463387,,,,GBP,,,,,,HIGH STREET COSHAM PO6 3DA;COSHAM;HAMPSHIRE;PO6 3DA,COSHAM,HAMPSHIRE,UK,PO6 3DA,050.84413700,-001.06684600
11944665291869,,,,GBP,,,,,,COTTINGHAM ROAD HULL HU6 7RX;HULL;HUMBERSIDE;HU6 7RX,HULL,HUMBERSIDE,UK,HU6 7RX,053.77177100,-000.36635400
11474614956964,,,,GBP,,,,,,48 COURTENAY STREET NEWTON ABBOT TQ12 2EE;NEWTON ABBOT;DEVON;TQ12 2EE,NEWTON ABBOT,DEVON,UK,TQ12 2EE,050.53028000,-003.60972900
1117469595513,,,,GBP,,,,,,277 COWBRIDGE ROAD EAST CARDIFF CF5 1JB;CARDIFF;SOUTH GLAMORGAN;CF5 1JB,CARDIFF,SOUTH GLAMORGAN,UK,CF5 1JB,051.48146200,-003.20226600
1134618118080,,,,GBP,,,,,,HIGH STREET CRANBROOK TN17 3EA;CRANBROOK;KENT;TN17 3EA,CRANBROOK,KENT,UK,TN17 3EA,051.09606200,000.53339300
11844613339555,,,,GBP,,,,,,CRANMER TERRACE LONDON SW17 0RE;LONDON;LONDON;SW17 0RE,LONDON,LONDON,UK,SW17 0RE,051.42774300,-000.17521000
11724646093961,,,,GBP,,,,,,CREWE ROAD ALSAGER ST7 2ER;ALSAGER;STAFFORDSHIRE;ST7 2ER,ALSAGER,STAFFORDSHIRE,UK,ST7 2ER,053.09592800,-002.30494600
11274646014567,,,,GBP,,,,,,131 CROCKHAMWELL ROAD WOODLEY RG5 3JX;WOODLEY;BERKSHIRE;RG5 3JX,WOODLEY,BERKSHIRE,UK,RG5 3JX,051.45300300,-000.90626000
1184663362504,,,,GBP,,,,,,9 CROFTS BANK ROAD URMSTON M41 0NA;URMSTON;LANCASHIRE;M41 0NA,URMSTON,LANCASHIRE,UK,M41 0NA,053.44900700,-002.35342400
1184663362504530,,,,GBP,,,,,,9 CROFTS BANK ROAD URMSTON M41 0TZ;URMSTON;LANCASHIRE;M41 0TZ,URMSTON,LANCASHIRE,UK,M41 0TZ,053.44900700,-002.35342400
11894656268245,,,,GBP,,,,,,18 CROMWELL PLACE LONDON SW7 2LB;LONDON;LONDON;SW7 2LB,LONDON,LONDON,UK,SW7 2LB,051.49425000,-000.17503300
11284658436821,,,,GBP,,,,,,1 CROSS RAIL PLACE CANARY WHARF E14 5AR;CANARY WHARF;LONDON;E14 5AR,CANARY WHARF,LONDON,UK,E14 5AR,051.50610900,-000.01812300
11364659317940,,,,GBP,,,,,,CROWN STREET HEBDEN BRIDGE HX7 8ER;HEBDEN BRIDGE;WEST YORKSHIRE;HX7 8ER,HEBDEN BRIDGE,WEST YORKSHIRE,UK,HX7 8ER,053.74104200,-002.01305100
11464653811747,,,,GBP,,,,,,1 HIGH STREET CROYDON CR9 1PD;CROYDON;SURREY;CR9 1PD,CROYDON,SURREY,UK,CR9 1PD,051.37352500,-000.09995000
11234621836669,,,,GBP,,,,,,1 CROYDON ROAD CATERHAM CR3 6XB;CATERHAM;SURREY;CR3 6XB,CATERHAM,SURREY,UK,CR3 6XB,051.28250400,-000.07778300
1173466932566,,,,GBP,,,,,,CYAN BUILDING ROTHERHAM S63 5NB;ROTHERHAM;SOUTH YORKSHIRE;S63 5NB,ROTHERHAM,SOUTH YORKSHIRE,UK,S63 5NB,053.49939600,-001.31346700
11854671765979,,,,GBP,,,,,,113 DALTON ROAD BARROW-IN-FURNESS LA14 1HZ;BARROW-IN-FURNESS;CUMBRIA;LA14 1HZ,BARROW-IN-FURNESS,CUMBRIA,UK,LA14 1HZ,054.11267300,-003.22573100
11744663909224,,,,GBP,,,,,,181 DARKES LANE POTTERS BAR EN6 1DL;POTTERS BAR;HERTFORDSHIRE;EN6 1DL,POTTERS BAR,HERTFORDSHIRE,UK,EN6 1DL,051.69897400,-000.19010600
1124668083106,,,,GBP,,,,,,12 HIGH STREET DARTFORD DA1 1DD;DARTFORD;KENT;DA1 1DD,DARTFORD,KENT,UK,DA1 1DD,051.44456700,000.21751400
11974615219706,,,,GBP,,,,,,DE HAVILLAND WAY BOLTON BL6 4YU;BOLTON;LANCASHIRE;BL6 4YU,BOLTON,LANCASHIRE,UK,BL6 4YU,053.58819600,-002.53893500
11454610453859,,,,GBP,,,,,,31 HIGH STREET DEAL CT14 6EW;DEAL;KENT;CT14 6EW,DEAL,KENT,UK,CT14 6EW,051.22329400,001.40259900
1141466665587,,,,GBP,,,,,,20 DEAN STREET LONDON W1D 3RU;LONDON;LONDON;W1D 3RU,LONDON,LONDON,UK,W1D 3RU,051.51460200,-000.13282600
11474637667423,,,,GBP,,,,,,217 DEAN STREET TELFORD TF3 4BT;TELFORD;SHROPSHIRE;TF3 4BT,TELFORD,SHROPSHIRE,UK,TF3 4BT,052.67631900,-002.44761300
1182462226118,,,,GBP,,,,,,24 DEANSGATE BOLTON BL1 1BR;BOLTON;LANCASHIRE;BL1 1BR,BOLTON,LANCASHIRE,UK,BL1 1BR,053.58011400,-002.42796800
11824663751742,,,,GBP,,,,,,70 DENMARK HILL CAMBERWELL SE5 8RZ;CAMBERWELL;LONDON;SE5 8RZ,CAMBERWELL,LONDON,UK,SE5 8RZ,051.47234000,-000.09344200
11994629019760,,,,GBP,,,,,,DENMARK HILL LONDON SE5 9RS;LONDON;LONDON;SE5 9RS,LONDON,LONDON,UK,SE5 9RS,051.46802200,-000.09389600
11824663751742390,,,,GBP,,,,,,70 DENMARK HILL LONDON SE5 8RZ;LONDON;LONDON;SE5 8RZ,LONDON,LONDON,UK,SE5 8RZ,051.47234000,-000.09344200
11394633839630,,,,GBP,,,,,,8 DENTON PARK CENTRE WESTERHOP NE5 2QZ;WESTERHOP;NEWCASTLE UPON TYNE;NE5 2QZ,WESTERHOP,NEWCASTLE UPON TYNE,UK,NE5 2QZ,054.99313000,-001.69912200
11534685631113,,,,GBP,,,,,,24 DERBY STREET LEEK ST13 5AF;LEEK;STAFFORDSHIRE;ST13 5AF,LEEK,STAFFORDSHIRE,UK,ST13 5AF,053.10549400,-002.02358300
116461201049,,,,GBP,,,,,,9 DEVONSHIRE ROAD BEXHILL-ON-SEA TN40 1AS;BEXHILL-ON-SEA;KENT;TN40 1AS,BEXHILL-ON-SEA,KENT,UK,TN40 1AS,050.84000300,000.47393800
11464635788346,,,,GBP,,,,,,24 DEVONSHIRE STREET PENRITH CA11 7ST;PENRITH;CUMBRIA;CA11 7ST,PENRITH,CUMBRIA,UK,CA11 7ST,054.66415500,-002.75205500
1124698322869,,,,GBP,,,,,,12 HIGH STREET DONCASTER DN1 1ED;DONCASTER;SOUTH YORKSHIRE;DN1 1ED,DONCASTER,SOUTH YORKSHIRE,UK,DN1 1ED,053.52353600,-001.13435900
11164629226598,,,,GBP,,,,,,14 HIGH STREET DORKING RH4 1AX;DORKING;SURREY;RH4 1AX,DORKING,SURREY,UK,RH4 1AX,051.23126700,-000.33259300
11244648183072,,,,GBP,,,,,,DU CANE ROAD SHEPHERDS BUSH W12 0HS;SHEPHERDS BUSH;LONDON;W12 0HS,SHEPHERDS BUSH,LONDON,UK,W12 0HS,051.51736600,-000.23470400
11354660041347,,,,GBP,,,,,,EAST PARK ROAD LEICESTER LE5 4QD;LEICESTER;LEICESTERSHIRE;LE5 4QD,LEICESTER,LEICESTERSHIRE,UK,LE5 4QD,052.63530400,-001.10336500
11674665282513,,,,GBP,,,,,,32 EAST STREET BARKING IG11 8EU;BARKING;ESSEX;IG11 8EU,BARKING,ESSEX,UK,IG11 8EU,051.53620800,000.07749100
11584646604749,,,,GBP,,,,,,22 EAST STREET BRIDPORT DT6 3LG;BRIDPORT;DORSET;DT6 3LG,BRIDPORT,DORSET,UK,DT6 3LG,050.73314500,-002.75703100
11894633471256,,,,GBP,,,,,,5 EAST STREET CHICHESTER PO19 1HH;CHICHESTER;WEST SUSSEX;PO19 1HH,CHICHESTER,WEST SUSSEX,UK,PO19 1HH,050.83650200,-000.77854700
1197469405832,,,,GBP,,,,,,10 EAST STREET ILMINSTER TA19 0AA;ILMINSTER;SOMERSET;TA19 0AA,ILMINSTER,SOMERSET,UK,TA19 0AA,050.92662600,-002.90947100
11654688595392,,,,GBP,,,,,,21 EAST STREET SHOREHAM BY SEA BN43 5ZP;SHOREHAM BY SEA;WEST SUSSEX;BN43 5ZP,SHOREHAM BY SEA,WEST SUSSEX,UK,BN43 5ZP,050.83242700,-000.27433500
11454641016132,,,,GBP,,,,,,29 EAST WALK BASILDON SS14 1HD;BASILDON;ESSEX;SS14 1HD,BASILDON,ESSEX,UK,SS14 1HD,051.57061000,000.46127300
11914662735970,,,,GBP,,,,,,33 EASTGATE STREET CHESTER CH1 1LG;CHESTER;CHESHIRE;CH1 1LG,CHESTER,CHESHIRE,UK,CH1 1LG,053.19067800,-002.89012300
11504685767594,,,,GBP,,,,,,21 EASTGATE STREET GLOUCESTER GL1 1NH;GLOUCESTER;GLOUCESTERSHIRE;GL1 1NH,GLOUCESTER,GLOUCESTERSHIRE,UK,GL1 1NH,051.86492700,-002.24464700
11194612487978,,,,GBP,,,,,,669 ECCLESALL ROAD SHEFFIELD S11 8PW;SHEFFIELD;SOUTH YORKSHIRE;S11 8PW,SHEFFIELD,SOUTH YORKSHIRE,UK,S11 8PW,053.36741100,-001.50176800
11804665291869,,,,GBP,,,,,,40 ECCLESTONE STREET PRESCOT L34 5TE;PRESCOT;MERSEYSIDE;L34 5TE,PRESCOT,MERSEYSIDE,UK,L34 5TE,053.77177100,-000.36635400
1199465022127,,,,GBP,,,,,,27 EFFINGHAM STREET ROTHERHAM S65 1AJ;ROTHERHAM;SOUTH YORKSHIRE;S65 1AJ,ROTHERHAM,SOUTH YORKSHIRE,UK,S65 1AJ,053.43234800,-001.35551900
1152462748920,,,,GBP,,,,,,EGERTON ROAD GUILDFORD GU2 7XX;GUILDFORD;SURREY;GU2 7XX,GUILDFORD,SURREY,UK,GU2 7XX,051.24095800,-000.60745400
118466667291,,,,GBP,,,,,,50 HIGH STREET EGHAM TW20 9EU;EGHAM;SURREY;TW20 9EU,EGHAM,SURREY,UK,TW20 9EU,051.43178700,-000.54815800
1119469569510,,,,GBP,,,,,,EGHAM HILL EGHAM TW20 0EX;EGHAM;SURREY;TW20 0EX,EGHAM,SURREY,UK,TW20 0EX,051.42475900,-000.56673400
11934634803846,,,,GBP,,,,,,ELDER GATE MILTON KEYNES MK9 1EN;MILTON KEYNES;MILTON KEYNES;MK9 1EN,MILTON KEYNES,MILTON KEYNES,UK,MK9 1EN,051.37765000,-002.35714400
11864641299539,,,,GBP,,,,,,302 ELDERGATE MILTON KEYNES MK9 1LA;MILTON KEYNES;BUCKINGHAMSHIRE;MK9 1LA,MILTON KEYNES,BUCKINGHAMSHIRE,UK,MK9 1LA,052.03452100,-000.77386600
11364671727553,,,,GBP,,,,,,ELDON STREET NORTH BARNSLEY S70 1SE;BARNSLEY;SOUTH YORKSHIRE;S70 1SE,BARNSLEY,SOUTH YORKSHIRE,UK,S70 1SE,053.55388100,-001.47817600
11884684772305,,,,GBP,,,,,,10 ELEPHANT YARD KENDAL LA9 4LZ;KENDAL;CUMBRIA;LA9 4LZ,KENDAL,CUMBRIA,UK,LA9 4LZ,054.32907500,-002.74855800
11584631361536,,,,GBP,,,,,,ELM PARK AVENUE HORNCHURCH RM12 4RX;HORNCHURCH;ESSEX;RM12 4RX,HORNCHURCH,ESSEX,UK,RM12 4RX,051.55109200,000.19837200
11694638055879,,,,GBP,,,,,,65 ELTHAM HIGH ST ELTHAM SE9 1YS;ELTHAM;LONDON;SE9 1YS,ELTHAM,LONDON,UK,SE9 1YS,051.45095000,000.05274800
11234638055879,,,,GBP,,,,,,65 ELTHAM HIGH STREET LONDON SE9 1YS;LONDON;LONDON;SE9 1YS,LONDON,LONDON,UK,SE9 1YS,051.45095000,000.05274800
11344657028003,,,,GBP,,,,,,92 ENGLISH STREET CARLISLE CA3 8NF;CARLISLE;CUMBRIA;CA3 8NF,CARLISLE,CUMBRIA,UK,CA3 8NF,054.89282500,-002.93491100
11134682901142,,,,GBP,,,,,,279 HIGH STREET EPPING CM16 4BT;EPPING;ESSEX;CM16 4BT,EPPING,ESSEX,UK,CM16 4BT,051.70060100,000.11306100
11144642449366,,,,GBP,,,,,,115 HIGH STREET EPSOM KT19 8DX;EPSOM;SURREY;KT19 8DX,EPSOM,SURREY,UK,KT19 8DX,051.33287400,-000.26798400
11964652796789,,,,GBP,,,,,,EUSTON LONDON NW1 2DU;LONDON;LONDON;NW1 2DU,LONDON,LONDON,UK,NW1 2DU,051.52861000,-000.13327700
1144627939155,,,,GBP,,,,,,EUSTON ROAD LONDON N1 9AL;LONDON;LONDON;N1 9AL,LONDON,LONDON,UK,N1 9AL,051.53032200,-000.12387900
11964652796789540,,,,GBP,,,,,,EUSTON STATION LONDON NW1 2DS;LONDON;LONDON;NW1 2DS,LONDON,LONDON,UK,NW1 2DS,051.52861000,-000.13327700
11374652796789,,,,GBP,,,,,,EUSTON TRAVEL CENTRE EUSTON ROAD NW1 2RT;EUSTON ROAD;LONDON;NW1 2RT,EUSTON ROAD,LONDON,UK,NW1 2RT,051.52861000,-000.13327700
11554686562636,,,,GBP,,,,,,59 HIGH STREET EXETER EX4 3DL;EXETER;DEVON;EX4 3DL,EXETER,DEVON,UK,EX4 3DL,050.72301500,-003.53161500
1134650224464,,,,GBP,,,,,,HIGH STREET EXETER EX4 3NZ;EXETER;DEVON;EX4 3NZ,EXETER,DEVON,UK,EX4 3NZ,050.72468300,-003.52927500
1184661415585,,,,GBP,,,,,,234 FARNHAM ROAD SLOUGH SL1 4XH;SLOUGH;BERKSHIRE;SL1 4XH,SLOUGH,BERKSHIRE,UK,SL1 4XH,051.52304900,-000.61496700
11404687893279,,,,GBP,,,,,,52 FAWCETT STREET SUNDERLAND SR1 1SB;SUNDERLAND;TYNE & WEAR;SR1 1SB,SUNDERLAND,TYNE & WEAR,UK,SR1 1SB,054.90611000,-001.38198000
11634612792578,,,,GBP,,,,,,FENCHURCH STREET LONDON EC3M 5BA;LONDON;LONDON;EC3M 5BA,LONDON,LONDON,UK,EC3M 5BA,051.51203800,-000.08097600
11944689596900,,,,GBP,,,,,,FERENS WAY HULL HU1 3QX;HULL;HUMBERSIDE;HU1 3QX,HULL,HUMBERSIDE,UK,HU1 3QX,053.74419200,-000.34605800
11774660778431,,,,GBP,,,,,,118 FIELD END ROAD EASTCOTE HA5 1RP;EASTCOTE;MIDDLESEX;HA5 1RP,EASTCOTE,MIDDLESEX,UK,HA5 1RP,051.57965400,-000.40001700
1111464274383,,,,GBP,,,,,,106 FINCHLEY ROAD LONDON NW3 5JN;LONDON;LONDON;NW3 5JN,LONDON,LONDON,UK,NW3 5JN,051.54613400,-000.17828000
1111464274383700,,,,GBP,,,,,,106 FINCHLEY ROAD SWISS COTTAGE NW3 5JN;SWISS COTTAGE;LONDON;NW3 5JN,SWISS COTTAGE,LONDON,UK,NW3 5JN,051.54613400,-000.17828000
11534684843485,,,,GBP,,,,,,260 FINNEY LANE HEALD GREEN SK8 3QF;HEALD GREEN;CHESHIRE;SK8 3QF,HEALD GREEN,CHESHIRE,UK,SK8 3QF,053.37042100,-002.23539200
11644692981130,,,,GBP,,,,,,FISHERGATE PRESTON PR1 8HJ;PRESTON;LANCASHIRE;PR1 8HJ,PRESTON,LANCASHIRE,UK,PR1 8HJ,053.75676400,-002.70544500
11624610098143,,,,GBP,,,,,,35 FISHERGATE PRESTON PR1 2AD;PRESTON;LANCASHIRE;PR1 2AD,PRESTON,LANCASHIRE,UK,PR1 2AD,053.75773500,-002.70235200
112467644962,,,,GBP,,,,,,778 FISHPONDS ROAD FISHPONDS BS16 3TX;FISHPONDS;AVON;BS16 3TX,FISHPONDS,AVON,UK,BS16 3TX,051.48004600,-002.52919100
11804664731859,,,,GBP,,,,,,FITZROY STREET CAMBRIDGE CB1 1ER;CAMBRIDGE;CAMBRIDGESHIRE;CB1 1ER,CAMBRIDGE,CAMBRIDGESHIRE,UK,CB1 1ER,052.20656700,000.13062300
11344630062400,,,,GBP,,,,,,176 FLEET ROAD FLEET GU51 4DE;FLEET;SURREY;GU51 4DE,FLEET,SURREY,UK,GU51 4DE,051.28066000,-000.84286800
11394663552800,,,,GBP,,,,,,156 FLEET STREET LONDON EC4A 2DX;LONDON;LONDON;EC4A 2DX,LONDON,LONDON,UK,EC4A 2DX,051.51426900,-000.10815100
115846258804,,,,GBP,,,,,,FLIXTON ROAD FLIXTON M41 6QT;FLIXTON;MANCHESTER;M41 6QT,FLIXTON,MANCHESTER,UK,M41 6QT,053.44447100,-002.38440200
1171463156112,,,,GBP,,,,,,FORE ST BRIXHAM TQ5 8AZ;BRIXHAM;DEVON;TQ5 8AZ,BRIXHAM,DEVON,UK,TQ5 8AZ,050.39477300,-003.51432900
11574675752017,,,,GBP,,,,,,55 FORE STREET HEAVITREE EX1 2RJ;HEAVITREE;DEVON;EX1 2RJ,HEAVITREE,DEVON,UK,EX1 2RJ,050.72145000,-003.50475900
11124622491437,,,,GBP,,,,,,104 FORE STREET HERTFORD SG14 1YY;HERTFORD;HERTFORDSHIRE;SG14 1YY,HERTFORD,HERTFORDSHIRE,UK,SG14 1YY,051.79630200,-000.07548400
1134652796789,,,,GBP,,,,,,40 FORE STREET SALTASH PL12 6JL;SALTASH;CORNWALL;PL12 6JL,SALTASH,CORNWALL,UK,PL12 6JL,051.52861000,-000.13327700
11964613949313,,,,GBP,,,,,,27 FORE STREET SEATON EX12 2LE;SEATON;DEVON;EX12 2LE,SEATON,DEVON,UK,EX12 2LE,050.70521200,-003.07035100
11254630774948,,,,GBP,,,,,,11 FORE STREET TIVERTON EX16 6LN;TIVERTON;DEVON;EX16 6LN,TIVERTON,DEVON,UK,EX16 6LN,050.90234300,-003.48778600
11614676581859,,,,GBP,,,,,,62 FORE STREET TROWBRIDGE BA14 8ET;TROWBRIDGE;WILTSHIRE;BA14 8ET,TROWBRIDGE,WILTSHIRE,UK,BA14 8ET,051.32146800,-002.20839500
11334679967063,,,,GBP,,,,,,FORE STREET UPPER EDMONTON N18 2XA;UPPER EDMONTON;LONDON;N18 2XA,UPPER EDMONTON,LONDON,UK,N18 2XA,051.61248600,-000.06450800
11134660818687,,,,GBP,,,,,,FOUNTAIN STREET ASHTON UNDER LYNE OL6 9RW;ASHTON UNDER LYNE;LANCS;OL6 9RW,ASHTON UNDER LYNE,LANCS,UK,OL6 9RW,053.49152100,-002.07144100
11934676067513,,,,GBP,,,,,,FREDRICK STREET ROTHERHAM S60 1QN;ROTHERHAM;SOUTH YORKSHIRE;S60 1QN,ROTHERHAM,SOUTH YORKSHIRE,UK,S60 1QN,053.43260600,-001.35662900
11724672896516,,,,GBP,,,,,,134 FRONT STREET ARNOLD NG5 7BF;ARNOLD;NOTTINGHAMSHIRE;NG5 7BF,ARNOLD,NOTTINGHAMSHIRE,UK,NG5 7BF,053.00521500,-001.12676200
1154634725361,,,,GBP,,,,,,45 FULHAM BROADWAY FULAHM SW6 1AG;FULAHM;LONDON;SW6 1AG,FULAHM,LONDON,UK,SW6 1AG,051.48030500,-000.19614100
1154634725361440,,,,GBP,,,,,,45 FULHAM BROADWAY LONDON SW6 1AG;LONDON;LONDON;SW6 1AG,LONDON,LONDON,UK,SW6 1AG,051.48030500,-000.19614100
11474615619749,,,,GBP,,,,,,FULHAM ROAD LONDON SW10 9NH;LONDON;LONDON;SW10 9NH,LONDON,LONDON,UK,SW10 9NH,051.48425400,-000.18162600
11744692651027,,,,GBP,,,,,,292 GARSTANG ROAD FULWOOD PR2 9RQ;FULWOOD;LANCASHIRE;PR2 9RQ,FULWOOD,LANCASHIRE,UK,PR2 9RQ,053.79155700,-002.71316400
1184463996566,,,,GBP,,,,,,GATWICK ROAD CRAWLEY RH10 1XX;CRAWLEY;WEST SUSSEX;RH10 1XX,CRAWLEY,WEST SUSSEX,UK,RH10 1XX,051.12900600,-000.16951800
11224675718510,,,,GBP,,,,,,21 GENTLEMANS WALK NORWICH NR2 1NA;NORWICH;NORFOLK;NR2 1NA,NORWICH,NORFOLK,UK,NR2 1NA,052.62826200,001.29355600
11704634776875,,,,GBP,,,,,,109 GEORGE STREET EDINBURGH EH2 4JW;EDINBURGH;EDINBURGH;EH2 4JW,EDINBURGH,EDINBURGH,UK,EH2 4JW,055.95266100,-003.20394500
11584689143110,,,,GBP,,,,,,31 GEORGE STREET LUTON LU1 2YN;LUTON;BEDFORDSHIRE;LU1 2YN,LUTON,BEDFORDSHIRE,UK,LU1 2YN,051.87826600,-000.41544300
11284628326045,,,,GBP,,,,,,22 GEORGE STREET RICHMOND TW9 1JW;RICHMOND;SURREY;TW9 1JW,RICHMOND,SURREY,UK,TW9 1JW,051.46031600,-000.30469400
11964666497321,,,,GBP,,,,,,GEORGE STREET STROUD GL5 3DT;STROUD;GLOUCESTERSHIRE;GL5 3DT,STROUD,GLOUCESTERSHIRE,UK,GL5 3DT,051.74486600,-002.21792700
1174696784566,,,,GBP,,,,,,65 GERARD STREET ASHTON-IN-MAKERFIELD WN4 9AH;ASHTON-IN-MAKERFIELD;LANCASHIRE;WN4 9AH,ASHTON-IN-MAKERFIELD,LANCASHIRE,UK,WN4 9AH,053.48601700,-002.63843100
11914671328619,,,,GBP,,,,,,GIBRALTAR BARRACKS BLACKWATER GU17 9LP;BLACKWATER;SURREY;GU17 9LP,BLACKWATER,SURREY,UK,GU17 9LP,051.31794400,-000.81955800
11884629475228,,,,GBP,,,,,,GLANHWFA ROAD LLANGEFNI LL77 7WY;LLANGEFNI;ISLE OF ANGLESEY;LL77 7WY,LLANGEFNI,ISLE OF ANGLESEY,UK,LL77 7WY,053.25446200,-004.31199900
11634687436711,,,,GBP,,,,,,GLOSSOP ROAD SHEFFIELD S10 2JF;SHEFFIELD;SOUTH YORKSHIRE;S10 2JF,SHEFFIELD,SOUTH YORKSHIRE,UK,S10 2JF,053.37834200,-001.49332700
11914668401526,,,,GBP,,,,,,77 HIGH STREET GODALMING GU7 1AR;GODALMING;SURREY;GU7 1AR,GODALMING,SURREY,UK,GU7 1AR,051.18523900,-000.61424200
11304639303417,,,,GBP,,,,,,2 GOLDEN HILL LANE LEYLAND PR25 3LP;LEYLAND;LANCASHIRE;PR25 3LP,LEYLAND,LANCASHIRE,UK,PR25 3LP,053.69818200,-002.68922800
1192466867740,,,,GBP,,,,,,21 GOLDERS GREEN ROAD GOLDERS GREEN NW11 8EB;GOLDERS GREEN;LONDON;NW11 8EB,GOLDERS GREEN,LONDON,UK,NW11 8EB,051.57173000,-000.19650700
1192466867740970,,,,GBP,,,,,,21 GOLDERS GREEN ROAD LONDON NW11 8EB;LONDON;LONDON;NW11 8EB,LONDON,LONDON,UK,NW11 8EB,051.57173000,-000.19650700
11224667075137,,,,GBP,,,,,,5 HIGH STREET GOSPORT PO12 1DA;GOSPORT;HAMPSHIRE;PO12 1DA,GOSPORT,HAMPSHIRE,UK,PO12 1DA,050.79529500,-001.12467400
11654650436123,,,,GBP,,,,,,1 GRANBY STREET LEICESTER LE1 6EJ;LEICESTER;LEICESTERSHIRE;LE1 6EJ,LEICESTER,LEICESTERSHIRE,UK,LE1 6EJ,052.63403800,-001.13139300
1181467671921,,,,GBP,,,,,,6 GRANGE ROAD WEST CHARING CROSS CH41 4DF;CHARING CROSS;MERSEYSIDE;CH41 4DF,CHARING CROSS,MERSEYSIDE,UK,CH41 4DF,053.38913900,-003.03130400
11104616703440,,,,GBP,,,,,,GRANGER DRIVE TELFORD TF1 6TF;TELFORD;SHROPSHIRE;TF1 6TF,TELFORD,SHROPSHIRE,UK,TF1 6TF,052.71208300,-002.51151100
11594670023832,,,,GBP,,,,,,17 HIGH STREET GRAYS RM17 6NP;GRAYS;ESSEX;RM17 6NP,GRAYS,ESSEX,UK,RM17 6NP,051.47745900,000.32319200
11934668879704,,,,GBP,,,,,,GREAT ORMOND STREET LONDON WC1N 3JH;LONDON;LONDON;WC1N 3JH,LONDON,LONDON,UK,WC1N 3JH,051.52215600,-000.11990400
11204660797862,,,,GBP,,,,,,10 GREAT UNDERBANK STOCKPORT SK1 1LL;STOCKPORT;CHESHIRE;SK1 1LL,STOCKPORT,CHESHIRE,UK,SK1 1LL,053.41170800,-002.15832200
1184615091080,,,,GBP,,,,,,288 GREEN LANES PALMERS GREEN N13 5GA;PALMERS GREEN;LONDON;N13 5GA,PALMERS GREEN,LONDON,UK,N13 5GA,051.61838700,-000.10763700
11224678134323,,,,GBP,,,,,,35 GREEN STREET NEATH SA11 1DB;NEATH;WEST GLAMORGAN;SA11 1DB,NEATH,WEST GLAMORGAN,UK,SA11 1DB,051.66238100,-003.80595800
1140467258100,,,,GBP,,,,,,GREENBRIDGE ROAD SWINDON SN3 3RX;SWINDON;WILTS;SN3 3RX,SWINDON,WILTS,UK,SN3 3RX,051.56932500,-001.74978100
11614685702985,,,,GBP,,,,,,93 GREENDALE ROAD PORT SUNLIGHT CH62 4YU;PORT SUNLIGHT;MERSEYSIDE;CH62 4YU,PORT SUNLIGHT,MERSEYSIDE,UK,CH62 4YU,053.34905000,-002.99710500
11804640516477,,,,GBP,,,,,,41 GREENGATE STREET STAFFORD ST16 2JA;STAFFORD;STAFFORDSHIRE;ST16 2JA,STAFFORD,STAFFORDSHIRE,UK,ST16 2JA,052.80586600,-002.11705400
11124639594241,,,,GBP,,,,,,2 GREENWICH CHURCH STREET LONDON SE10 9BQ;LONDON;LONDON;SE10 9BQ,LONDON,LONDON,UK,SE10 9BQ,051.48043300,-000.00898200
1131463446760,,,,GBP,,,,,,39 GRIMSBY ROAD CLEETHORPES DN35 7AQ;CLEETHORPES;LINCONSHIRE;DN35 7AQ,CLEETHORPES,LINCONSHIRE,UK,DN35 7AQ,053.57129800,-000.05508900
11734664864274,,,,GBP,,,,,,GROBY ROAD LEICESTER LE3 9QP;LEICESTER;LEICESTERSHIRE;LE3 9QP,LEICESTER,LEICESTERSHIRE,UK,LE3 9QP,052.65433400,-001.18001200
11494659262045,,,,GBP,,,,,,GROUND FLOOR STRATFORD E20 1EL;STRATFORD;LONDON;E20 1EL,STRATFORD,LONDON,UK,E20 1EL,051.54189400,000.00137300
1184691609114,,,,GBP,,,,,,4 GROVE STREET WILMSLOW SK9 1EJ;WILMSLOW;CHESHIRE;SK9 1EJ,WILMSLOW,CHESHIRE,UK,SK9 1EJ,053.32745400,-002.23095100
11864660872793,,,,GBP,,,,,,151 HIGH STREET GUILDFORD GU1 3AH;GUILDFORD;SURREY;GU1 3AH,GUILDFORD,SURREY,UK,GU1 3AH,051.23600300,-000.57163400
11144613283204,,,,GBP,,,,,,GUILDFORD ROAD CHERTSEY KT16 0PZ;CHERTSEY;SURREY;KT16 0PZ,CHERTSEY,SURREY,UK,KT16 0PZ,051.37777600,-000.52704900
11734664287335,,,,GBP,,,,,,GWENDOLEN ROAD LEICESTER LE5 4PW;LEICESTER;LEICESTERSHIRE;LE5 4PW,LEICESTER,LEICESTERSHIRE,UK,LE5 4PW,052.62989700,-001.08175600
11824619025167,,,,GBP,,,,,,GWENT SQUARE CWMBRAN NP44 1PS;CWMBRAN;GWENT;NP44 1PS,CWMBRAN,GWENT,UK,NP44 1PS,051.65356300,-003.02036500
1184636144770,,,,GBP,,,,,,2 HAGLEY ROAD HALESOWEN B63 4RQ;HALESOWEN;WEST MIDLANDS;B63 4RQ,HALESOWEN,WEST MIDLANDS,UK,B63 4RQ,052.44777200,-002.05124500
1174644044983,,,,GBP,,,,,,317 HALE LANE EDGWARE HA8 7AX;EDGWARE;MIDDLESEX;HA8 7AX,EDGWARE,MIDDLESEX,UK,HA8 7AX,051.61590900,-000.27480800
1116462372562,,,,GBP,,,,,,14 HIGH STREET HALSTEAD CO9 2AG;HALSTEAD;ESSEX;CO9 2AG,HALSTEAD,ESSEX,UK,CO9 2AG,051.94446000,000.63792400
11734651961221,,,,GBP,,,,,,HAMILTON STREET LIVERPOOL CH41 1AL;LIVERPOOL;MERSEYSIDE;CH41 1AL,LIVERPOOL,MERSEYSIDE,UK,CH41 1AL,053.39438200,-003.01425600
11514699047176,,,,GBP,,,,,,HARBORNE ROAD EDGBASTON B15 3AA;EDGBASTON;BIRMINGHAM;B15 3AA,EDGBASTON,BIRMINGHAM,UK,B15 3AA,052.47078200,-001.92225400
11584637379332,,,,GBP,,,,,,52 HARROGATE ROAD LEEDS LS7 4LA;LEEDS;WEST YORKSHIRE;LS7 4LA,LEEDS,WEST YORKSHIRE,UK,LS7 4LA,053.82621000,-001.53450400
1134663835679,,,,GBP,,,,,,HIGH STREET HARROW ON THE HILL HA1 3LW;HARROW ON THE HILL;MIDDLESEX;HA1 3LW,HARROW ON THE HILL,MIDDLESEX,UK,HA1 3LW,051.57066200,-000.33982700
11174695765664,,,,GBP,,,,,,HATCHET LANE STOKE GIFFORD BRISTOL BS34 8PU;BRISTOL;GLOUS;BS34 8PU,BRISTOL,GLOUS,UK,BS34 8PU,051.51411000,-002.54229600
111946727203,,,,GBP,,,,,,HAVELOCK ROAD HASTINGS TN34 1GW;HASTINGS;EAST SUSSEX;TN34 1GW,HASTINGS,EAST SUSSEX,UK,TN34 1GW,050.85587600,000.57987500
11524673356976,,,,GBP,,,,,,18 HIGH STREET HAVERFORDWEST SA61 2DE;HAVERFORDWEST;DYFED;SA61 2DE,HAVERFORDWEST,DYFED,UK,SA61 2DE,051.80155100,-004.97052300
1164646458752,,,,GBP,,,,,,44 HEATON MOOR ROAD HEATON CHAPEL SK4 4NP;HEATON CHAPEL;CHESHIRE;SK4 4NP,HEATON CHAPEL,CHESHIRE,UK,SK4 4NP,053.42432200,-002.18152900
11444693486550,,,,GBP,,,,,,2 HENDFORD YEOVIL BA20 1TN;YEOVIL;SOMERSET;BA20 1TN,YEOVIL,SOMERSET,UK,BA20 1TN,050.94133100,-002.63447000
11264642842876,,,,GBP,,,,,,34 HENRIETTA STREET COVENT GARDEN WC2E 8NL;COVENT GARDEN;LONDON;WC2E 8NL,COVENT GARDEN,LONDON,UK,WC2E 8NL,051.51129700,-000.12352200
11544690477853,,,,GBP,,,,,,140 HIGH STREET HERNE BAY CT6 5JX;HERNE BAY;KENT;CT6 5JX,HERNE BAY,KENT,UK,CT6 5JX,051.37114900,001.12829200
1124639838682,,,,GBP,,,,,,HERRIES ROAD SHEFFIELD S5 7AU;SHEFFIELD;SOUTH YORKSHIRE;S5 7AU,SHEFFIELD,SOUTH YORKSHIRE,UK,S5 7AU,053.40979200,-001.45596100
11174678068574,,,,GBP,,,,,,214 HIGH HOLBORN LONDON WC1V 7BW;LONDON;LONDON;WC1V 7BW,LONDON,LONDON,UK,WC1V 7BW,051.51720300,-000.12113200
11224630403088,,,,GBP,,,,,,332 HIGH HOLBORN LONDON WC1V 7PX;LONDON;LONDON;WC1V 7PX,LONDON,LONDON,UK,WC1V 7PX,051.51795400,-000.11191900
11104633868603,,,,GBP,,,,,,19 HIGH ROAD BEESTON NG9 2JX;BEESTON;NOTTINGHAMSHIRE;NG9 2JX,BEESTON,NOTTINGHAMSHIRE,UK,NG9 2JX,052.92716400,-001.21529900
1124696116099,,,,GBP,,,,,,330 HIGH ROAD HARROW HA3 6HF;HARROW;MIDDLESEX;HA3 6HF,HARROW,MIDDLESEX,UK,HA3 6HF,051.60418900,-000.34006300
11244646314027,,,,GBP,,,,,,127 HIGH ROAD KILBURN NW6 6JL;KILBURN;KILBURN;NW6 6JL,KILBURN,KILBURN,UK,NW6 6JL,051.53943000,-000.19541900
11934621518793,,,,GBP,,,,,,786 HIGH ROAD LONDON N12 9QT;LONDON;LONDON;N12 9QT,LONDON,LONDON,UK,N12 9QT,051.61603200,-000.17645000
11594676161331,,,,GBP,,,,,,102 HIGH ROAD LOUGHTON IG10 4AS;LOUGHTON;ESSEX;IG10 4AS,LOUGHTON,ESSEX,UK,IG10 4AS,051.64434300,000.05168700
11934621518793840,,,,GBP,,,,,,786 HIGH ROAD NORTH FINCHLEY N12 9QT;NORTH FINCHLEY;LONDON;N12 9QT,NORTH FINCHLEY,LONDON,UK,N12 9QT,051.61603200,-000.17645000
1122462714280,,,,GBP,,,,,,HIGH ROAD SEVEN KINGS IG3 8RD;SEVEN KINGS;ESSEX;IG3 8RD,SEVEN KINGS,ESSEX,UK,IG3 8RD,051.56450200,000.09811600
11694672102448,,,,GBP,,,,,,520 HIGH ROAD WEMBLEY HA9 7BZ;WEMBLEY;MIDDLESEX;HA9 7BZ,WEMBLEY,MIDDLESEX,UK,HA9 7BZ,051.55266900,-000.29663200
111146102661,,,,GBP,,,,,,25 HIGH ROW DARLINGTON DL3 7QP;DARLINGTON;COUNTY DURHAM;DL3 7QP,DARLINGTON,COUNTY DURHAM,UK,DL3 7QP,054.52522600,-001.55596000
1104665907502,,,,GBP,,,,,,37 HIGH ST NORTH EAST HAM E6 1HS;EAST HAM;LONDON;E6 1HS,EAST HAM,LONDON,UK,E6 1HS,051.53425500,000.05307700
11434659046997,,,,GBP,,,,,,5 HIGH STREET EAST REDCAR TS10 3BY;REDCAR;CLEVELAND;TS10 3BY,REDCAR,CLEVELAND,UK,TS10 3BY,054.61875000,-001.06806400
11584619685788,,,,GBP,,,,,,4 HIGH STREET NORTH DUNSTABLE LU6 1JU;DUNSTABLE;BEDFORDSHIRE;LU6 1JU,DUNSTABLE,BEDFORDSHIRE,UK,LU6 1JU,051.88621000,-000.52073000
11304665907502,,,,GBP,,,,,,37 HIGH STREET NORTH LONDON E6 1HS;LONDON;LONDON;E6 1HS,LONDON,LONDON,UK,E6 1HS,051.53425500,000.05307700
11374675591561,,,,GBP,,,,,,33 HIGH STREET HIGH WYCOMBE HP11 2AG;HIGH WYCOMBE;BUCKINGHAMSHIRE;HP11 2AG,HIGH WYCOMBE,BUCKINGHAMSHIRE,UK,HP11 2AG,051.62859100,-000.74967500
1132462574848,,,,GBP,,,,,,HIGHTOWN SANDBACH CW11 1AG;SANDBACH;CHESHIRE;CW11 1AG,SANDBACH,CHESHIRE,UK,CW11 1AG,053.14413000,-002.36479100
1189468626767,,,,GBP,,,,,,HILL AVENUE AMERSHAM HP6 5BU;AMERSHAM;BUCKINGHAMSHIRE;HP6 5BU,AMERSHAM,BUCKINGHAMSHIRE,UK,HP6 5BU,051.67636900,-000.60783500
1114648519291,,,,GBP,,,,,,192 HILLDENE AVENUE HAROLD HILL RM3 8DD;HAROLD HILL;ESSEX;RM3 8DD,HAROLD HILL,ESSEX,UK,RM3 8DD,051.60728200,000.21974600
11674623525080,,,,GBP,,,,,,HILLFOOT ROAD HUNTS CROSS L25 0ND;HUNTS CROSS;MERSEYSIDE;L25 0ND,HUNTS CROSS,MERSEYSIDE,UK,L25 0ND,053.35917500,-002.85917500
11804629779796,,,,GBP,,,,,,7 HINCKLEY ROAD LEICESTER LE3 0TQ;LEICESTER;LEICESTERSHIRE;LE3 0TQ,LEICESTER,LEICESTERSHIRE,UK,LE3 0TQ,052.63114700,-001.14807200
1124632937398,,,,GBP,,,,,,12 HIGH STREET HITCHIN SG5 1YY;HITCHIN;HERTFORDSHIRE;SG5 1YY,HITCHIN,HERTFORDSHIRE,UK,SG5 1YY,051.94800600,-000.27895600
11124639605898,,,,GBP,,,,,,43 HIGH STREET HODDESDON EN11 8HE;HODDESDON;HERTFORDSHIRE;EN11 8HE,HODDESDON,HERTFORDSHIRE,UK,EN11 8HE,051.75905000,-000.01249800
11664610433532,,,,GBP,,,,,,302 HOLDERNESS ROAD HULL HU9 2LH;HULL;HUMBERSIDE;HU9 2LH,HULL,HUMBERSIDE,UK,HU9 2LH,053.75541000,-000.31057700
11474638904414,,,,GBP,,,,,,HOLINWOOD AVENUE NEW MOSTON M40 0NW;NEW MOSTON;ENGLAND;M40 0NW,NEW MOSTON,ENGLAND,UK,M40 0NW,053.52395100,-002.16997800
11444671914603,,,,GBP,,,,,,490 HOLLOWAY ROAD LONDON N7 6JB;LONDON;LONDON;N7 6JB,LONDON,LONDON,UK,N7 6JB,051.55872500,-000.12021400
11694669282364,,,,GBP,,,,,,117 HOLTON ROAD BARRY CF63 4TD;BARRY;SOUTH GLAMORGAN;CF63 4TD,BARRY,SOUTH GLAMORGAN,UK,CF63 4TD,051.40639500,-003.26633400
11204660538150,,,,GBP,,,,,,94 HIGH STREET HONITON EX14 1JL;HONITON;DEVON;EX14 1JL,HONITON,DEVON,UK,EX14 1JL,050.79916700,-003.18972400
1144692065241,,,,GBP,,,,,,120 HIGH STREET HORNCHURCH RM12 4UL;HORNCHURCH;ESSEX;RM12 4UL,HORNCHURCH,ESSEX,UK,RM12 4UL,051.56235700,000.21905700
1134692065241,,,,GBP,,,,,,HIGH STREET HORNCHURCH RM12 4UL;HORNCHURCH;ESSEX;RM12 4UL,HORNCHURCH,ESSEX,UK,RM12 4UL,051.56235700,000.21905700
11354649052987,,,,GBP,,,,,,HORSEFERRY ROAD LONDON SW1P 2AY;LONDON;LONDON;SW1P 2AY,LONDON,LONDON,UK,SW1P 2AY,051.49461800,-000.12991200
11784663771848,,,,GBP,,,,,,2 HOULDSWORTH SQUARE STOCKPORT SK5 7AG;STOCKPORT;GREATER MANCHESTER;SK5 7AG,STOCKPORT,GREATER MANCHESTER,UK,SK5 7AG,053.43739500,-002.16060100
1134697809370,,,,GBP,,,,,,HIGH STREET HOUNSLOW TW3 1ZA;HOUNSLOW;MIDDLESEX;TW3 1ZA,HOUNSLOW,MIDDLESEX,UK,TW3 1ZA,051.46779400,-000.36520400
1134689784852,,,,GBP,,,,,,HIGH STREET HOUNSLOW TW3 1LR;HOUNSLOW;MIDDLESEX;TW3 1LR,HOUNSLOW,MIDDLESEX,UK,TW3 1LR,051.46941000,-000.36049600
11564657743164,,,,GBP,,,,,,HOWARD CENTRE WELWYN GARDEN CITY AL8 6HA;WELWYN GARDEN CITY;HERTFORDSHIRE;AL8 6HA,WELWYN GARDEN CITY,HERTFORDSHIRE,UK,AL8 6HA,051.80115900,-000.20455200
1124633689501,,,,GBP,,,,,,2 HOWE WALK BURNLEY BB11 1QB;BURNLEY;LANCASHIRE;BB11 1QB,BURNLEY,LANCASHIRE,UK,BB11 1QB,053.78945700,-002.24375700
11864689596900,,,,GBP,,,,,,HULL RAILWAY STATION HULL HU1 3QX;HULL;HUMBERSIDE;HU1 3QX,HULL,HUMBERSIDE,UK,HU1 3QX,053.74419200,-000.34605800
1164637541064,,,,GBP,,,,,,92 HIGH STREET HUNTINGDON PE29 3DP;HUNTINGDON;CAMBRIDGESHIRE;PE29 3DP,HUNTINGDON,CAMBRIDGESHIRE,UK,PE29 3DP,052.33157800,-000.18562700
11484665945214,,,,GBP,,,,,,HUTTON ROAD SHENFIELD CM15 8JD;SHENFIELD;ESSEX;CM15 8JD,SHENFIELD,ESSEX,UK,CM15 8JD,051.63023700,000.32856400
11504629044934680,,,,GBP,,,,,,133 HIGH STREET ILFORD IG6 2AJ;ILFORD;ESSEX;IG6 2AJ,ILFORD,ESSEX,UK,IG6 2AJ,051.59263400,000.08384800
11224613853502,,,,GBP,,,,,,50 ILFORD HILL ILFORD IG1 2AT;ILFORD;ESSEX;IG1 2AT,ILFORD,ESSEX,UK,IG1 2AT,051.55790600,000.06897300
11474673184012,,,,GBP,,,,,,2 INSTITUTE ROAD SWANAGE BH19 1BY;SWANAGE;DORSET;BH19 1BY,SWANAGE,DORSET,UK,BH19 1BY,050.60910900,-001.95743000
11984682166833,,,,GBP,,,,,,INTU DERBY DERBY DE1 2PL;DERBY;DERBY;DE1 2PL,DERBY,DERBY,UK,DE1 2PL,052.91956600,-001.47426200
1194465717959,,,,GBP,,,,,,JANSEL SQUARE AYELSBURY HP21 7ET;AYELSBURY;AYELSBURY;HP21 7ET,AYELSBURY,AYELSBURY,UK,HP21 7ET,051.80653600,-000.78455900
11504615455926,,,,GBP,,,,,,53 JUNCTION ROAD LONDON N19 5QU;LONDON;LONDON;N19 5QU,LONDON,LONDON,UK,N19 5QU,051.56460600,-000.13541000
1154643981043,,,,GBP,,,,,,KEDLESTON ROAD DERBY DE22 1ZS;DERBY;DERBYSHIRE;DE22 1ZS,DERBY,DERBYSHIRE,UK,DE22 1ZS,052.93836200,-001.49672600
11494673581776,,,,GBP,,,,,,55 KENSINGTON HIGH STREET LONDON W8 5EQ;LONDON;LONDON;W8 5EQ,LONDON,LONDON,UK,W8 5EQ,051.50201500,-000.18978000
1166465626696,,,,GBP,,,,,,16 HIGH STREET KETTERING NN16 8SZ;KETTERING;NORTHAMPTONSHIRE;NN16 8SZ,KETTERING,NORTHAMPTONSHIRE,UK,NN16 8SZ,052.39844200,-000.72785100
11554699993526,,,,GBP,,,,,,24 HIGH STREET KIDDERMINSTER DY10 2DL;KIDDERMINSTER;WORCESTERSHIRE;DY10 2DL,KIDDERMINSTER,WORCESTERSHIRE,UK,DY10 2DL,052.38773700,-002.24854100
11144623634045,,,,GBP,,,,,,34 KING EDWARD STREET HULL HU1 3SS;HULL;HUMBERSIDE;HU1 3SS,HULL,HUMBERSIDE,UK,HU1 3SS,053.74462600,-000.33976200
1126469889674,,,,GBP,,,,,,2 KING STREET BRIDLINGTON YO15 2DB;BRIDLINGTON;NORTH YORKSHIRE;YO15 2DB,BRIDLINGTON,NORTH YORKSHIRE,UK,YO15 2DB,054.08227900,-000.19162600
11724648846820,,,,GBP,,,,,,59 KING STREET CAMARTHEN SA31 1AN;CAMARTHEN;CARMARTHENSHIRE;SA31 1AN,CAMARTHEN,CARMARTHENSHIRE,UK,SA31 1AN,051.85653300,-004.30596900
11724648846820220,,,,GBP,,,,,,59 KING STREET CARMARTHEN SA31 1AN;CARMARTHEN;CARMARTHENSHIRE;SA31 1AN,CARMARTHEN,CARMARTHENSHIRE,UK,SA31 1AN,051.85653300,-004.30596900
11894682974577,,,,GBP,,,,,,30 KING STREET GRAVESEND DA12 2DU;GRAVESEND;KENT;DA12 2DU,GRAVESEND,KENT,UK,DA12 2DU,051.44221900,000.36962700
11464661819141,,,,GBP,,,,,,82 KING STREET KNUTSFORD WA16 6EG;KNUTSFORD;CHESHIRE;WA16 6EG,KNUTSFORD,CHESHIRE,UK,WA16 6EG,053.30492500,-002.37394800
11364664258300,,,,GBP,,,,,,40 KING STREET SOUTH SHIELDS NE33 1HF;SOUTH SHIELDS;TYNE & WEAR;NE33 1HF,SOUTH SHIELDS,TYNE & WEAR,UK,NE33 1HF,054.99849400,-001.43407000
11634655232533,,,,GBP,,,,,,35 KING WILLIAM STREET BLACKBURN BB1 7DJ;BLACKBURN;LANCASHIRE;BB1 7DJ,BLACKBURN,LANCASHIRE,UK,BB1 7DJ,053.74876600,-002.48418100
1134664477968,,,,GBP,,,,,,HIGH STREET KING.S HEATH B14 7LG;KING.S HEATH;WEST MIDLANDS;B14 7LG,KING.S HEATH,WEST MIDLANDS,UK,B14 7LG,052.43398000,-001.89319500
11924675425442,,,,GBP,,,,,,22 KINGS MALL HAMMERSMITH W6 0PZ;HAMMERSMITH;LONDON;W6 0PZ,HAMMERSMITH,LONDON,UK,W6 0PZ,051.49305000,-000.22750400
1160462199573,,,,GBP,,,,,,567 KINGSBURY ROAD LONDON NW9 9EP;LONDON;LONDON;NW9 9EP,LONDON,LONDON,UK,NW9 9EP,051.58453100,-000.28066000
11614654911729,,,,GBP,,,,,,74 KINGSLAND HIGH STREET LONDON E8 2NT;LONDON;LONDON;E8 2NT,LONDON,LONDON,UK,E8 2NT,051.54827200,-000.07509600
11184672618788,,,,GBP,,,,,,59 KIRKGATE SILSDEN KEIGHLEY BD20 0PD;SILSDEN KEIGHLEY;WEST YORKSHIRE;BD20 0PD,SILSDEN KEIGHLEY,WEST YORKSHIRE,UK,BD20 0PD,053.91359800,-001.93785300
11314689242936,,,,GBP,,,,,,LAMBETH PALACE ROAD LONDON SE1 7EH;LONDON;LONDON;SE1 7EH,LONDON,LONDON,UK,SE1 7EH,051.49790400,-000.11888500
1111465463611,,,,GBP,,,,,,27 LEE LANE HORWICH BL6 7TG;HORWICH;LANCASHIRE;BL6 7TG,HORWICH,LANCASHIRE,UK,BL6 7TG,053.59958100,-002.54559200
11344696179375,,,,GBP,,,,,,27 HIGH STREET LEIGHTON BUZZARD LU7 1DX;LEIGHTON BUZZARD;BEDFORDSHIRE;LU7 1DX,LEIGHTON BUZZARD,BEDFORDSHIRE,UK,LU7 1DX,051.91632100,-000.66337000
11954670214218,,,,GBP,,,,,,11 HIGH STREET LEWES BN7 2LH;LEWES;EAST SUSSEX;BN7 2LH,LEWES,EAST SUSSEX,UK,BN7 2LH,050.87384800,000.01431900
1185469057847,,,,GBP,,,,,,80 LEWISHAM HIGH STREET LONDON SE13 5JJ;LONDON;LONDON;SE13 5JJ,LONDON,LONDON,UK,SE13 5JJ,051.46285500,-000.01075500
11424628817679,,,,GBP,,,,,,LIME STREET LIVERPOOL L1 1JD;LIVERPOOL;LIVERPOOL;L1 1JD,LIVERPOOL,LIVERPOOL,UK,L1 1JD,053.40793200,-002.97826300
11304687365572,,,,GBP,,,,,,225 HIGH STREET LINCOLN LN2 1AZ;LINCOLN;LINCOLNSHIRE;LN2 1AZ,LINCOLN,LINCOLNSHIRE,UK,LN2 1AZ,053.22941300,-000.54070000
11404659051779,,,,GBP,,,,,,210 LINCOLN ROAD PETERBOROUGH PE1 2NE;PETERBOROUGH;CAMBS;PE1 2NE,PETERBOROUGH,CAMBS,UK,PE1 2NE,052.58575300,-000.24644500
11444648943836,,,,GBP,,,,,,LINCOLN STREET NEWARK NG24 1LS;NEWARK;NOTTINGHAMSHIRE;NG24 1LS,NEWARK,NOTTINGHAMSHIRE,UK,NG24 1LS,053.08085800,-000.80101200
11454660927110,,,,GBP,,,,,,LINDLEY HUDDERSFIELD HD3 3EA;HUDDERSFIELD;WEST YORKSHIRE;HD3 3EA,HUDDERSFIELD,WEST YORKSHIRE,UK,HD3 3EA,053.65546800,-001.81633900
11724669755706,,,,GBP,,,,,,106 LINTHORPE ROAD MIDDLESBROUGH TS1 2JZ;MIDDLESBROUGH;CLEVELAND;TS1 2JZ,MIDDLESBROUGH,CLEVELAND,UK,TS1 2JZ,054.57461900,-001.23699600
11304646642725,,,,GBP,,,,,,1 LINTOT SQUARE SOUTHWATER RH13 9LA;SOUTHWATER;WEST SUSSEX;RH13 9LA,SOUTHWATER,WEST SUSSEX,UK,RH13 9LA,051.02477500,-000.35012300
11974656714200,,,,GBP,,,,,,1 LIVERPOOL ROAD CROSBY L23 2TD;CROSBY;MERSEYSIDE;L23 2TD,CROSBY,MERSEYSIDE,UK,L23 2TD,053.49247900,-003.02693600
1173461642695,,,,GBP,,,,,,LIVERPOOL STREET LONDON EC2M 7PY;LONDON;LONDON;EC2M 7PY,LONDON,LONDON,UK,EC2M 7PY,051.51843300,-000.08217700
11134616254227,,,,GBP,,,,,,LLANTWIT ROAD TREFOREST CF37 1DL;TREFOREST;PONTYPRIDD;CF37 1DL,TREFOREST,PONTYPRIDD,UK,CF37 1DL,051.58915700,-003.32603300
1160466418270,,,,GBP,,,,,,LONDON ROAD BENFLEET SS7 5SQ;BENFLEET;BENFLEET;SS7 5SQ,BENFLEET,BENFLEET,UK,SS7 5SQ,051.56695500,000.55235000
11164613968838,,,,GBP,,,,,,15 LONDON ROAD EAST GRINSTEAD RH19 1AJ;EAST GRINSTEAD;WEST SUSSEX;RH19 1AJ,EAST GRINSTEAD,WEST SUSSEX,UK,RH19 1AJ,051.12451700,-000.00823500
11154653326539,,,,GBP,,,,,,180 LONDON ROAD HAZEL GROVE SK7 4DH;HAZEL GROVE;CHESHIRE;SK7 4DH,HAZEL GROVE,CHESHIRE,UK,SK7 4DH,053.38004700,-002.12265200
11564625198148,,,,GBP,,,,,,91 LONDON ROAD HEADINGTON OX3 9AF;HEADINGTON;OXFORDSHIRE;OX3 9AF,HEADINGTON,OXFORDSHIRE,UK,OX3 9AF,051.76009400,-001.21197400
11904651087267,,,,GBP,,,,,,468 LONDON ROAD ISLEWORTH TW7 4DD;ISLEWORTH;MIDDLESEX;TW7 4DD,ISLEWORTH,MIDDLESEX,UK,TW7 4DD,051.47510900,-000.33991500
11664694601017,,,,GBP,,,,,,718 LONDON ROAD LARKFIELD ME20 6BL;LARKFIELD;KENT;ME20 6BL,LARKFIELD,KENT,UK,ME20 6BL,051.29911700,000.44469500
1136467301402,,,,GBP,,,,,,1393 LONDON ROAD NORBURY SW16 4AL;NORBURY;LONDON;SW16 4AL,NORBURY,LONDON,UK,SW16 4AL,051.40844400,-000.12227200
11274637601547,,,,GBP,,,,,,74 LONDON ROAD STOCKTON HEATH WA4 6HS;STOCKTON HEATH;CHESHIRE;WA4 6HS,STOCKTON HEATH,CHESHIRE,UK,WA4 6HS,053.37063100,-002.58144000
1126467234635,,,,GBP,,,,,,93 LONDON ROAD WATERLOOVILLE PO7 7EG;WATERLOOVILLE;HAMPSHIRE;PO7 7EG,WATERLOOVILLE,HAMPSHIRE,UK,PO7 7EG,050.87945800,-001.03219600
1126467234635620,,,,GBP,,,,,,93 LONDON ROAD WATERLOOVILLE PO7 7EG;WATERLOOVILLE;HANTS;PO7 7EG,WATERLOOVILLE,HANTS,UK,PO7 7EG,050.87945800,-001.03219600
1154618368489,,,,GBP,,,,,,53 LONDON ROAD NORTH LOWESTOFT NR32 1BJ;LOWESTOFT;SUFFOLK;NR32 1BJ,LOWESTOFT,SUFFOLK,UK,NR32 1BJ,052.47525900,001.75124400
11864626451656,,,,GBP,,,,,,3 LONDON STREET BASINGSTOKE RG21 7NS;BASINGSTOKE;HAMPSHIRE;RG21 7NS,BASINGSTOKE,HAMPSHIRE,UK,RG21 7NS,051.26218600,-001.08642500
11864626451656990,,,,GBP,,,,,,3 LONDON STREET BASINGSTOKE RG21 7NS;BASINGSTOKE;HANTS;RG21 7NS,BASINGSTOKE,HANTS,UK,RG21 7NS,051.26218600,-001.08642500
1146467871106,,,,GBP,,,,,,1 HIGH STREET LONG BUCKBY NN6 7RE;LONG BUCKBY;NORTHAMPTONSHIRE;NN6 7RE,LONG BUCKBY,NORTHAMPTONSHIRE,UK,NN6 7RE,052.30297200,-001.08109900
11724639538302,,,,GBP,,,,,,95 LONG LANE SOUTHAMPTON SO45 2ND;SOUTHAMPTON;HAMPSHIRE;SO45 2ND,SOUTHAMPTON,HAMPSHIRE,UK,SO45 2ND,050.83245400,-001.38191200
1165462133689,,,,GBP,,,,,,LONG STREET MIDDLETON M24 6NW;MIDDLETON;LANCASHIRE;M24 6NW,MIDDLETON,LANCASHIRE,UK,M24 6NW,053.54997600,-002.19759700
11604612415945,,,,GBP,,,,,,130 LORD STREET SOUTHPORT PR9 0AE;SOUTHPORT;MERSEYSIDE;PR9 0AE,SOUTHPORT,MERSEYSIDE,UK,PR9 0AE,053.64853400,-003.00379400
1164620816375,,,,GBP,,,,,,33 LORD STREET WREXHAM LL11 1LS;WREXHAM;CLWYD;LL11 1LS,WREXHAM,CLWYD,UK,LL11 1LS,053.04720500,-002.99466000
11874660859834,,,,GBP,,,,,,659 LOUGHBOROUGH ROAD BIRSTALL LE4 4NL;BIRSTALL;LEICESTERSHIRE;LE4 4NL,BIRSTALL,LEICESTERSHIRE,UK,LE4 4NL,052.68066900,-001.12520200
1156462914970,,,,GBP,,,,,,3 LOW STREET SHERBURN IN ELMET LS25 6BG;SHERBURN IN ELMET;YORKSHIRE;LS25 6BG,SHERBURN IN ELMET,YORKSHIRE,UK,LS25 6BG,053.79569100,-001.25123600
11174682507758,,,,GBP,,,,,,209 LOWER ADDISCOMBE ROAD CROYDON CR0 6RB;CROYDON;SURREY;CR0 6RB,CROYDON,SURREY,UK,CR0 6RB,051.37996400,-000.07410400
11754615308824,,,,GBP,,,,,,208 LOWER BLANDFORD ROAD BROADSTONE BH18 8DT;BROADSTONE;DORSET;BH18 8DT,BROADSTONE,DORSET,UK,BH18 8DT,050.76074600,-001.99478000
11914682287533,,,,GBP,,,,,,3 LOWER NORTHAM ROAD HEDGE END SO30 4PA;HEDGE END;HAMPSHIRE;SO30 4PA,HEDGE END,HAMPSHIRE,UK,SO30 4PA,050.91392600,-001.30330800
11724690005774,,,,GBP,,,,,,71 LOWTHER STREET WHITEHAVEN CA28 7AH;WHITEHAVEN;CUMBRIA;CA28 7AH,WHITEHAVEN,CUMBRIA,UK,CA28 7AH,054.54764300,-003.58705000
11304619409693,,,,GBP,,,,,,97 LUMLEY ROAD SKEGNESS PE25 3LY;SKEGNESS;LINCOLNSHIRE;PE25 3LY,SKEGNESS,LINCOLNSHIRE,UK,PE25 3LY,053.14261900,000.34156500
1130461940969360,,,,GBP,,,,,,97 LUMLEY ROAD SKEGNESS PE25 3LY;SKEGNESS;LINCS;PE25 3LY,SKEGNESS,LINCS,UK,PE25 3LY,053.14261900,000.34156500
1124610208096,,,,GBP,,,,,,38 HIGH STREET LYMINGTON SO41 9SY;LYMINGTON;HAMPSHIRE;SO41 9SY,LYMINGTON,HAMPSHIRE,UK,SO41 9SY,050.75814500,-001.54136900
11104698066953,,,,GBP,,,,,,344 LYTHAM ROAD BLACKPOOL FY4 1DY;BLACKPOOL;LANCASHIRE;FY4 1DY,BLACKPOOL,LANCASHIRE,UK,FY4 1DY,053.79823100,-003.05006000
11594647421949,,,,GBP,,,,,,66 HIGH STREET MAIDENHEAD SL6 1PY;MAIDENHEAD;BERKSHIRE;SL6 1PY,MAIDENHEAD,BERKSHIRE,UK,SL6 1PY,051.52286000,-000.72112100
11594647421949500,,,,GBP,,,,,,66 HIGH STREET MAIDENHEAD SL6 1QA;MAIDENHEAD;BERKSHIRE;SL6 1QA,MAIDENHEAD,BERKSHIRE,UK,SL6 1QA,051.52286000,-000.72112100
113646675725,,,,GBP,,,,,,3 HIGH STREET MAIDSTONE ME14 1HJ;MAIDSTONE;KENT;ME14 1HJ,MAIDSTONE,KENT,UK,ME14 1HJ,051.27379300,000.52255600
1198461642695,,,,GBP,,,,,,MAIN CONCOURSE LIVERPOOL STREET EC2M 7PY;LIVERPOOL STREET;LONDON;EC2M 7PY,LIVERPOOL STREET,LONDON,UK,EC2M 7PY,051.51843300,-000.08217700
11744653599765,,,,GBP,,,,,,MAIN STREET HESLINGTON YO10 5ZB;HESLINGTON;NORTH YORKSHIRE;YO10 5ZB,HESLINGTON,NORTH YORKSHIRE,UK,YO10 5ZB,053.94484200,-001.04466500
11984650389349,,,,GBP,,,,,,55 MAIN STREET KIRKBY LONSDALE LA6 2AH;KIRKBY LONSDALE;LANCASHIRE;LA6 2AH,KIRKBY LONSDALE,LANCASHIRE,UK,LA6 2AH,054.20268300,-002.59690700
1191462679954,,,,GBP,,,,,,54 MAIN STREET SEDBERGH LA10 5AB;SEDBERGH;CUMBRIA;LA10 5AB,SEDBERGH,CUMBRIA,UK,LA10 5AB,054.32374200,-002.52631800
11164651454678,,,,GBP,,,,,,36 HIGH STREET MALDON CM9 5PW;MALDON;ESSEX;CM9 5PW,MALDON,ESSEX,UK,CM9 5PW,051.73134500,000.67683500
1136467747892,,,,GBP,,,,,,MANCHESTER ROAD MANCHESTER M34 3NW;MANCHESTER;ENGLAND;M34 3NW,MANCHESTER,ENGLAND,UK,M34 3NW,053.45598200,-002.11487400
11434677976206,,,,GBP,,,,,,2 HIGH STREET MANNINGTREE CO11 1AE;MANNINGTREE;ESSEX;CO11 1AE,MANNINGTREE,ESSEX,UK,CO11 1AE,051.94522000,001.06240600
119746290783,,,,GBP,,,,,,1 MANORSFIELD ROAD BICESTER OX26 6DA;BICESTER;OXFORDSHIRE;OX26 6DA,BICESTER,OXFORDSHIRE,UK,OX26 6DA,051.89667100,-001.15219500
11734632578311,,,,GBP,,,,,,8 MARDOL HEAD SHREWSBURY SY1 1HE;SHREWSBURY;SHROPSHIRE;SY1 1HE,SHREWSBURY,SHROPSHIRE,UK,SY1 1HE,052.70780700,-002.75491200
11674614582292,,,,GBP,,,,,,262 MARINE ROAD CENTRAL MORECAMBE LA4 4BJ;MORECAMBE;LANCASHIRE;LA4 4BJ,MORECAMBE,LANCASHIRE,UK,LA4 4BJ,054.07259800,-002.86777100
11534645675369,,,,GBP,,,,,,26 MARKET HILL BARNSLEY S70 2QE;BARNSLEY;SOUTH YORKSHIRE;S70 2QE,BARNSLEY,SOUTH YORKSHIRE,UK,S70 2QE,053.55324800,-001.48130800
1140465733730,,,,GBP,,,,,,32 MARKET HILL SUDBURY CO10 2EN;SUDBURY;SUFFOLK;CO10 2EN,SUDBURY,SUFFOLK,UK,CO10 2EN,052.03808400,000.73045000
11114670429807,,,,GBP,,,,,,8 MARKET PALCE HUDDERSFIELD HD1 2AL;HUDDERSFIELD;WEST YORKSHIRE;HD1 2AL,HUDDERSFIELD,WEST YORKSHIRE,UK,HD1 2AL,053.64646900,-001.78278000
11934633258230,,,,GBP,,,,,,11 MARKET PLACE ABINGDON OX14 3HH;ABINGDON;OXFORDSHIRE;OX14 3HH,ABINGDON,OXFORDSHIRE,UK,OX14 3HH,051.67019600,-001.28190500
11214635384313,,,,GBP,,,,,,MARKET PLACE BAWTRY DN10 6TJ;BAWTRY;DONCASTER;DN10 6TJ,BAWTRY,DONCASTER,UK,DN10 6TJ,053.42975400,-001.02127500
11154675132180,,,,GBP,,,,,,60 MARKET PLACE BEVERLEY HU17 8AA;BEVERLEY;HUMBERSIDE;HU17 8AA,BEVERLEY,HUMBERSIDE,UK,HU17 8AA,053.84236800,-000.43209800
1184463345466,,,,GBP,,,,,,25 MARKET PLACE BLANFORD FORUM DT11 7AF;BLANFORD FORUM;DORSET;DT11 7AF,BLANFORD FORUM,DORSET,UK,DT11 7AF,050.85615900,-002.16511300
11324686743922,,,,GBP,,,,,,10 MARKET PLACE BOSTON PE21 6EJ;BOSTON;LINCOLNSHIRE;PE21 6EJ,BOSTON,LINCOLNSHIRE,UK,PE21 6EJ,052.97821700,-000.02338300
11914660514621,,,,GBP,,,,,,22 MARKET PLACE CANNOCK WS11 1BU;CANNOCK;STAFFORDSHIRE;WS11 1BU,CANNOCK,STAFFORDSHIRE,UK,WS11 1BU,052.68967400,-002.03099200
11944692274737,,,,GBP,,,,,,5 MARKET PLACE CHESTERFIELD S40 1TW;CHESTERFIELD;DERBYSHIRE;S40 1TW,CHESTERFIELD,DERBYSHIRE,UK,S40 1TW,053.23580300,-001.42953800
11214692274737,,,,GBP,,,,,,MARKET PLACE CHESTERFIELD S40 1TW;CHESTERFIELD;DERBYSHIRE;S40 1TW,CHESTERFIELD,DERBYSHIRE,UK,S40 1TW,053.23580300,-001.42953800
1104654809550,,,,GBP,,,,,,32 MARKET PLACE CIRENCESTER GL7 2NU;CIRENCESTER;GLOUCESTERSHIRE;GL7 2NU,CIRENCESTER,GLOUCESTERSHIRE,UK,GL7 2NU,051.71674100,-001.96669000
1124658345131,,,,GBP,,,,,,1 MARKET PLACE DEVIZES SN10 1HR;DEVIZES;WILTSHIRE;SN10 1HR,DEVIZES,WILTSHIRE,UK,SN10 1HR,051.35200100,-001.99558900
111846290393,,,,GBP,,,,,,12 MARKET PLACE DURHAM DH1 3NG;DURHAM;DURHAM;DH1 3NG,DURHAM,DURHAM,UK,DH1 3NG,054.77674200,-001.57562700
1104651381024,,,,GBP,,,,,,32 MARKET PLACE EAST DEREHAM NR19 2AR;EAST DEREHAM;NORFOLK;NR19 2AR,EAST DEREHAM,NORFOLK,UK,NR19 2AR,052.68183800,000.94094200
1121462929595,,,,GBP,,,,,,MARKET PLACE EGREMONT CA22 2WY;EGREMONT;CUMBRIA;CA22 2WY,EGREMONT,CUMBRIA,UK,CA22 2WY,054.48150900,-003.52914900
11434674424499,,,,GBP,,,,,,13 MARKET PLACE FAVERSHAM ME13 7AF;FAVERSHAM;KENT;ME13 7AF,FAVERSHAM,KENT,UK,ME13 7AF,051.31537000,000.89091500
11194634974429,,,,GBP,,,,,,4 MARKET PLACE FROME BA11 1AE;FROME;AVON;BA11 1AE,FROME,AVON,UK,BA11 1AE,051.23121900,-002.32185000
11214645546200,,,,GBP,,,,,,MARKET PLACE GARSTANG PR3 1ZA;GARSTANG;LANCASHIRE;PR3 1ZA,GARSTANG,LANCASHIRE,UK,PR3 1ZA,053.90011700,-002.77427600
11934625109649,,,,GBP,,,,,,11 MARKET PLACE GREAT YARMOUTH NR30 1LY;GREAT YARMOUTH;NORFOLK;NR30 1LY,GREAT YARMOUTH,NORFOLK,UK,NR30 1LY,052.60872300,001.72635000
11934625109649630,,,,GBP,,,,,,11 MARKET PLACE GREAT YARMOUTH NR30 1LY;GREAT YARMOUTH;SUFFOLK;NR30 1LY,GREAT YARMOUTH,SUFFOLK,UK,NR30 1LY,052.60872300,001.72635000
1128465758977,,,,GBP,,,,,,18 MARKET PLACE HENLEY ON THAMES RG9 2AP;HENLEY ON THAMES;OXFORDSHIRE;RG9 2AP,HENLEY ON THAMES,OXFORDSHIRE,UK,RG9 2AP,051.53772000,-000.90557100
11814670429807,,,,GBP,,,,,,8 MARKET PLACE HUDDERSFIELD HD1 2AL;HUDDERSFIELD;WEST YORKSHIRE;HD1 2AL,HUDDERSFIELD,WEST YORKSHIRE,UK,HD1 2AL,053.64646900,-001.78278000
11214634356464,,,,GBP,,,,,,MARKET PLACE HYDE SK14 2LX;HYDE;CHESHIRE;SK14 2LX,HYDE,CHESHIRE,UK,SK14 2LX,053.45167000,-002.07837600
11944669607750,,,,GBP,,,,,,5 MARKET PLACE KINGSTON UPON THAMES KT1 1JX;KINGSTON UPON THAMES;SURREY;KT1 1JX,KINGSTON UPON THAMES,SURREY,UK,KT1 1JX,051.40927400,-000.30654000
11474621271515,,,,GBP,,,,,,51 MARKET PLACE LONG EATON NG10 1JP;LONG EATON;NOTTINGHAMSHIRE;NG10 1JP,LONG EATON,NOTTINGHAMSHIRE,UK,NG10 1JP,052.89853900,-001.27153500
11844682813966,,,,GBP,,,,,,25 MARKET PLACE LONG SUTTON PE12 9JE;LONG SUTTON;LINCOLNSHIRE;PE12 9JE,LONG SUTTON,LINCOLNSHIRE,UK,PE12 9JE,052.78464500,000.12159800
11214686286770,,,,GBP,,,,,,MARKET PLACE LOUGHBOROUGH LE11 3NZ;LOUGHBOROUGH;LEICESTERSHIRE;LE11 3NZ,LOUGHBOROUGH,LEICESTERSHIRE,UK,LE11 3NZ,052.77042300,-001.20663300
11214618093336,,,,GBP,,,,,,MARKET PLACE LOUTH LN11 9NX;LOUTH;LINCOLNSHIRE;LN11 9NX,LOUTH,LINCOLNSHIRE,UK,LN11 9NX,053.36636600,-000.00494600
1124650468801,,,,GBP,,,,,,1 MARKET PLACE NEWARK NG24 1DY;NEWARK;NOTTINGHAMSHIRE;NG24 1DY,NEWARK,NOTTINGHAMSHIRE,UK,NG24 1DY,053.07612000,-000.80995100
11464690147594,,,,GBP,,,,,,30 MARKET PLACE NEWBURY RG14 5AJ;NEWBURY;BERKSHIRE;RG14 5AJ,NEWBURY,BERKSHIRE,UK,RG14 5AJ,051.40128300,-001.32327100
1124627005317,,,,GBP,,,,,,1 MARKET PLACE NUNEATON CV11 4EA;NUNEATON;WARWICKSHIRE;CV11 4EA,NUNEATON,WARWICKSHIRE,UK,CV11 4EA,052.52255700,-001.46648600
1124627005317630,,,,GBP,,,,,,1 MARKET PLACE NUNEATON CV11 4YY;NUNEATON;WARWICKSHIRE;CV11 4YY,NUNEATON,WARWICKSHIRE,UK,CV11 4YY,052.52255700,-001.46648600
11344654596374,,,,GBP,,,,,,27 MARKET PLACE ROMSEY SO51 8ZH;ROMSEY;HAMPSHIRE;SO51 8ZH,ROMSEY,HAMPSHIRE,UK,SO51 8ZH,050.98889700,-001.49967500
11974682923894,,,,GBP,,,,,,19 MARKET PLACE SHIPLEY BD18 3PW;SHIPLEY;WEST YORKSHIRE;BD18 3PW,SHIPLEY,WEST YORKSHIRE,UK,BD18 3PW,053.83245100,-001.77654600
1121463517880,,,,GBP,,,,,,MARKET PLACE SPALDING PE11 1ST;SPALDING;LINCOLNSHIRE;PE11 1ST,SPALDING,LINCOLNSHIRE,UK,PE11 1ST,052.78695500,-000.15070500
11214671726146,,,,GBP,,,,,,MARKET PLACE SWAFFHAM PE37 7LD;SWAFFHAM;NORFOLK;PE37 7LD,SWAFFHAM,NORFOLK,UK,PE37 7LD,052.64740800,000.68766500
1194625654557,,,,GBP,,,,,,26 MARKET PLACE UTTOXETER ST14 8HX;UTTOXETER;STAFFORDSHIRE;ST14 8HX,UTTOXETER,STAFFORDSHIRE,UK,ST14 8HX,052.89824100,-001.86405000
1124654991391,,,,GBP,,,,,,1 MARKET PLACE WISBECH PE13 1DT;WISBECH;CAMBRIDGESHIRE;PE13 1DT,WISBECH,CAMBRIDGESHIRE,UK,PE13 1DT,052.66456600,000.16132600
11784684299237,,,,GBP,,,,,,16 MARKET PLACE WOODSTOCK OX20 1TB;WOODSTOCK;OXFORDSHIRE;OX20 1TB,WOODSTOCK,OXFORDSHIRE,UK,OX20 1TB,051.84767600,-001.35612800
11944618596435,,,,GBP,,,,,,5 MARKET PLACE WYMONDHAM NR18 0AG;WYMONDHAM;NORFOLK;NR18 0AG,WYMONDHAM,NORFOLK,UK,NR18 0AG,052.57036900,001.11353100
116464938838,,,,GBP,,,,,,23 MARKET SQUARE ASPATRIA CA7 3ZZ;ASPATRIA;CUMBERLAND;CA7 3ZZ,ASPATRIA,CUMBERLAND,UK,CA7 3ZZ,054.76380300,-003.33254000
1134646999686,,,,GBP,,,,,,22 MARKET SQUARE AYLESBURY HP20 1TW;AYLESBURY;BUCKINGHAMSHIRE;HP20 1TW,AYLESBURY,BUCKINGHAMSHIRE,UK,HP20 1TW,051.81627600,-000.81212300
11724630588787,,,,GBP,,,,,,25 MARKET SQUARE DOVER CT16 1NG;DOVER;KENT;CT16 1NG,DOVER,KENT,UK,CT16 1NG,051.12509200,001.31300400
11354623553599,,,,GBP,,,,,,MARKET SQUARE PETWORTH GU28 0AL;PETWORTH;WEST SUSSEX;GU28 0AL,PETWORTH,WEST SUSSEX,UK,GU28 0AL,050.98644000,-000.61024000
11304691522911,,,,GBP,,,,,,54 MARKET STREET ASHBY-DE-LA-ZOUCH LE65 1BB;ASHBY-DE-LA-ZOUCH;LEICESTERSHIRE;LE65 1BB,ASHBY-DE-LA-ZOUCH,LEICESTERSHIRE,UK,LE65 1BB,052.74702200,-001.47099300
1144629853306,,,,GBP,,,,,,1 MARKET STREET BRADFORD BD1 1EG;BRADFORD;BRADFORD;BD1 1EG,BRADFORD,BRADFORD,UK,BD1 1EG,053.79457000,-001.75136500
114464861330,,,,GBP,,,,,,1 MARKET STREET BRADFORD BD1 1EG;BRADFORD;WEST YORKSHIRE;BD1 1EG,BRADFORD,WEST YORKSHIRE,UK,BD1 1EG,053.79437600,-001.75286900
1104631532608,,,,GBP,,,,,,44621 MARKET STREET CHAPEL EN LE FRITH SK23 0HL;CHAPEL EN LE FRITH;DERBYSHIRE;SK23 0HL,CHAPEL EN LE FRITH,DERBYSHIRE,UK,SK23 0HL,053.32331500,-001.91554900
11714610012168,,,,GBP,,,,,,46 MARKET STREET CHORLEY PR7 2RZ;CHORLEY;LANCASHIRE;PR7 2RZ,CHORLEY,LANCASHIRE,UK,PR7 2RZ,053.65304700,-002.63275200
1189468387674,,,,GBP,,,,,,MARKET STREET COUNTY DURHAM DL17 8JW;COUNTY DURHAM;COUNTY DURHAM;DL17 8JW,COUNTY DURHAM,COUNTY DURHAM,UK,DL17 8JW,054.68913000,-001.55573900
1189467114028,,,,GBP,,,,,,MARKET STREET CREWE CW1 2HN;CREWE;CHESHIRE;CW1 2HN,CREWE,CHESHIRE,UK,CW1 2HN,053.09739600,-002.44147200
11604659138747,,,,GBP,,,,,,16 MARKET STREET ELY CB7 4YY;ELY;CAMBRIDGESHIRE;CB7 4YY,ELY,CAMBRIDGESHIRE,UK,CB7 4YY,052.40004500,000.26518300
1189468498404,,,,GBP,,,,,,MARKET STREET FALMOUTH TR11 3AH;FALMOUTH;CORNWALL;TR11 3AH,FALMOUTH,CORNWALL,UK,TR11 3AH,050.15525100,-005.06864300
11534686516,,,,GBP,,,,,,121 MARKET STREET FARNWORTH BL4 8EY;FARNWORTH;LANCASHIRE;BL4 8EY,FARNWORTH,LANCASHIRE,UK,BL4 8EY,053.54873800,-002.39298300
11344697732961,,,,GBP,,,,,,32 MARKET STREET LEIGH WN7 1DX;LEIGH;LANCASHIRE;WN7 1DX,LEIGH,LANCASHIRE,UK,WN7 1DX,053.49667000,-002.51930700
11384614083382,,,,GBP,,,,,,47 MARKET STREET LICHFIELD WS13 6LE;LICHFIELD;STAFFORDSHIRE;WS13 6LE,LICHFIELD,STAFFORDSHIRE,UK,WS13 6LE,052.68382600,-001.82798600
11894649173148,,,,GBP,,,,,,MARKET STREET LONGTON ST3 2HW;LONGTON;STAFFORDSHIRE;ST3 2HW,LONGTON,STAFFORDSHIRE,UK,ST3 2HW,052.98917000,-002.13547000
11894661875082,,,,GBP,,,,,,MARKET STREET MARPLE SK6 7AE;MARPLE;CHESHIRE;SK6 7AE,MARPLE,CHESHIRE,UK,SK6 7AE,052.24160400,-000.83952200
11214676986803,,,,GBP,,,,,,8 MARKET STREET TAMWORTH B79 7LS;TAMWORTH;STAFFORDSHIRE;B79 7LS,TAMWORTH,STAFFORDSHIRE,UK,B79 7LS,052.63319100,-001.69613300
11334686385339,,,,GBP,,,,,,40 MARKET STREET WELLINGBOROUGH NN8 1AD;WELLINGBOROUGH;NORTHAMPTONSHIRE;NN8 1AD,WELLINGBOROUGH,NORTHAMPTONSHIRE,UK,NN8 1AD,052.30129400,-000.69231500
11104657976079,,,,GBP,,,,,,50 MARKET STREET WESTHOUGHTON BL5 3AZ;WESTHOUGHTON;LANCASHIRE;BL5 3AZ,WESTHOUGHTON,LANCASHIRE,UK,BL5 3AZ,053.54907000,-002.52239400
1124648433147,,,,GBP,,,,,,43 MARKET STREET WREXHAM LL14 2LA;WREXHAM;CLWYD;LL14 2LA,WREXHAM,CLWYD,UK,LL14 2LA,053.00975300,-003.05830600
1144648337778,,,,GBP,,,,,,1 MARKET STREET YORK YO1 8SR;YORK;NORTH YORKSHIRE;YO1 8SR,YORK,NORTH YORKSHIRE,UK,YO1 8SR,053.95848300,-001.08241000
11294696776736,,,,GBP,,,,,,MARLBOROUGH STREET BRISTOL BS2 8HW;BRISTOL;SOMERSET;BS2 8HW,BRISTOL,SOMERSET,UK,BS2 8HW,051.45913400,-002.59616800
11294614436353,,,,GBP,,,,,,MARLBOROUGH STREET DEVONPORT PL1 4AE;DEVONPORT;DEVON;PL1 4AE,DEVONPORT,DEVON,UK,PL1 4AE,050.37376700,-004.17897100
11484646655026,,,,GBP,,,,,,15 MARY ROSE MALL FROBISHER ROAD E6 5LX;FROBISHER ROAD;LONDON;E6 5LX,FROBISHER ROAD,LONDON,UK,E6 5LX,051.51457300,000.05697700
11646422513,,,,GBP,,,,,,10 MARYLEBONE HIGH STREET LONDON W1U 4BT;LONDON;LONDON;W1U 4BT,LONDON,LONDON,UK,W1U 4BT,051.51890500,-000.15131700
11684629664719,,,,GBP,,,,,,MEADOWHALL INTERCHANGE SHEFFIELD S9 1EP;SHEFFIELD;SOUTH YORKSHIRE;S9 1EP,SHEFFIELD,SOUTH YORKSHIRE,UK,S9 1EP,053.41405500,-001.41278700
11284614213841,,,,GBP,,,,,,20 MELBOURNE STREET STALYBRIDGE SK15 2JQ;STALYBRIDGE;CHESHIRE;SK15 2JQ,STALYBRIDGE,CHESHIRE,UK,SK15 2JQ,053.48283700,-002.05705000
1184646581336,,,,GBP,,,,,,7 HIGH STREET MELTON MOWBRAY LE13 0TT;MELTON MOWBRAY;LEICESTERSHIRE;LE13 0TT,MELTON MOWBRAY,LEICESTERSHIRE,UK,LE13 0TT,052.76479800,-000.88795300
1154627888673,,,,GBP,,,,,,2 MELTON ROAD LEICESTER LE4 5EA;LEICESTER;LEICESTERSHIRE;LE4 5EA,LEICESTER,LEICESTERSHIRE,UK,LE4 5EA,052.65196900,-001.12104400
1117463506588,,,,GBP,,,,,,MERMAID QUAY CARDIFF BAY CF10 5BZ;CARDIFF BAY;SOUTH GLAMORGAN;CF10 5BZ,CARDIFF BAY,SOUTH GLAMORGAN,UK,CF10 5BZ,051.46339600,-003.16575900
11734648005355,,,,GBP,,,,,,MERRY HILL CENTRE DUDLEY DY5 1SW;DUDLEY;WEST MIDLANDS;DY5 1SW,DUDLEY,WEST MIDLANDS,UK,DY5 1SW,052.48313500,-002.11033500
11184686904679,,,,GBP,,,,,,122 HIGH STREET MERTHYR TYDFIL CF47 8BN;MERTHYR TYDFIL;SOUTH GLAMORGAN;CF47 8BN,MERTHYR TYDFIL,SOUTH GLAMORGAN,UK,CF47 8BN,051.74607300,-003.37857000
1150467529216,,,,GBP,,,,,,MEYNELL AVENUE ROTHWELL LS26 0NY;ROTHWELL;LEEDS;LS26 0NY,ROTHWELL,LEEDS,UK,LS26 0NY,053.74878600,-001.47788700
11504636139260,,,,GBP,,,,,,MEYNELL AVENUE ROTHWELL LS26 0NY;ROTHWELL;LEEDS;LS26 0NY,ROTHWELL,LEEDS,UK,LS26 0NY,051.43666400,-000.10554700
11544692032283,,,,GBP,,,,,,MIDDLEWOOD ROAD SOUTH YORKSHIRE S6 4PB;SOUTH YORKSHIRE;SOUTH YORKSHIRE;S6 4PB,SOUTH YORKSHIRE,SOUTH YORKSHIRE,UK,S6 4PB,053.40447000,-001.50324500
11364639262648,,,,GBP,,,,,,3 HIGH STREET MIDSOMER NORTON BA3 2LE;MIDSOMER NORTON;AVON;BA3 2LE,MIDSOMER NORTON,AVON,UK,BA3 2LE,051.28592900,-002.48346500
11234651008845,,,,GBP,,,,,,48 HIGH STREET MOLD CH7 1BA;MOLD;CLWYD;CH7 1BA,MOLD,CLWYD,UK,CH7 1BA,053.16826500,-003.14317900
115746784272,,,,GBP,,,,,,196 MONTON ROAD MONTON M30 9PY;MONTON;LANCASHIRE;M30 9PY,MONTON,LANCASHIRE,UK,M30 9PY,053.49131200,-002.35187700
11534635582953,,,,GBP,,,,,,34 MOOR STREET ORMSKIRK L39 2AL;ORMSKIRK;LANCASHIRE;L39 2AL,ORMSKIRK,LANCASHIRE,UK,L39 2AL,053.56680800,-002.88420000
11214621606519,,,,GBP,,,,,,94 MOORGATE LONDON EC2M 6UR;LONDON;LONDON;EC2M 6UR,LONDON,LONDON,UK,EC2M 6UR,051.51874900,-000.08771400
11214672384715,,,,GBP,,,,,,62 MOSTYN STREET LLANDUDNO LL30 2WY;LLANDUDNO;GWYNEDD;LL30 2WY,LLANDUDNO,GWYNEDD,UK,LL30 2WY,053.32423500,-003.83040100
1182461487043,,,,GBP,,,,,,89 MOUNT PLEASANT ROAD TUNBRIDGE WELLS TN1 1QJ;TUNBRIDGE WELLS;KENT;TN1 1QJ,TUNBRIDGE WELLS,KENT,UK,TN1 1QJ,051.13319400,000.26315400
11694681259626,,,,GBP,,,,,,MULBERRY WAY WAKEFIELD WF1 2QN;WAKEFIELD;WEST YORKSHIRE;WF1 2QN,WAKEFIELD,WEST YORKSHIRE,UK,WF1 2QN,053.68165600,-001.50433500
1144662702095,,,,GBP,,,,,,1 MUSTER GREEN HAYWARDS HEATH RH16 4AP;HAYWARDS HEATH;WEST SUSSEX;RH16 4AP,HAYWARDS HEATH,WEST SUSSEX,UK,RH16 4AP,050.99910000,-000.10700800
11554622303041,,,,GBP,,,,,,190 MUSWELL HILL BROADWAY LONDON N10 3SD;LONDON;LONDON;N10 3SD,LONDON,LONDON,UK,N10 3SD,051.59068000,-000.14247000
11164654949668,,,,GBP,,,,,,36 HIGH STREET NANTWICH CW5 5AS;NANTWICH;CHESHIRE;CW5 5AS,NANTWICH,CHESHIRE,UK,CW5 5AS,053.06704300,-002.52269100
11924650358822,,,,GBP,,,,,,NEVILLE STREET NEWCASTLE UPON TYNE NE1 5DL;NEWCASTLE UPON TYNE;TYNE & WEAR;NE1 5DL,NEWCASTLE UPON TYNE,TYNE & WEAR,UK,NE1 5DL,054.96888800,-001.61704500
11454646813739,,,,GBP,,,,,,64 HIGH STREET NEW MALDEN KT3 4HB;NEW MALDEN;SURREY;KT3 4HB,NEW MALDEN,SURREY,UK,KT3 4HB,051.40156900,-000.25577200
11414636144693,,,,GBP,,,,,,NEW STATION STREET LEEDS LS1 4DY;LEEDS;YORKSHIRE;LS1 4DY,LEEDS,YORKSHIRE,UK,LS1 4DY,053.79513100,-001.54665900
11594669353280,,,,GBP,,,,,,NEW STREET BIRMINGHAM B2 4QA;BIRMINGHAM;BIRMINGHAM;B2 4QA,BIRMINGHAM,BIRMINGHAM,UK,B2 4QA,052.47763200,-001.89802200
11934670326076,,,,GBP,,,,,,134 NEW STREET BIRMINGHAM B2 4QZ;BIRMINGHAM;WEST MIDLANDS;B2 4QZ,BIRMINGHAM,WEST MIDLANDS,UK,B2 4QZ,052.47810000,-001.89866800
11594669353280750,,,,GBP,,,,,,NEW STREET BIRMINGHAM B2 4QA;BIRMINGHAM;WEST MIDLANDS;B2 4QA,BIRMINGHAM,WEST MIDLANDS,UK,B2 4QA,052.47763200,-001.89802200
11774695131899,,,,GBP,,,,,,75 HIGH STREET NEWCASTLE ST5 1PN;NEWCASTLE;STAFFORDSHIRE;ST5 1PN,NEWCASTLE,STAFFORDSHIRE,UK,ST5 1PN,053.01082100,-002.22654500
11774689824344,,,,GBP,,,,,,75 HIGH STREET NEWCASTLE ST5 1PN;NEWCASTLE;STAFFORDSHIRE;ST5 1PN,NEWCASTLE,STAFFORDSHIRE,UK,ST5 1PN,053.01425100,-001.35514700
11714694334329,,,,GBP,,,,,,1196 NEWCHESTER ROAD EASTHAM CH62 9AH;EASTHAM;MERSEYSIDE;CH62 9AH,EASTHAM,MERSEYSIDE,UK,CH62 9AH,053.31314000,-002.96516700
1144635781825,,,,GBP,,,,,,NEWGATE CENTRE GEORGE STREET DL14 7JG;GEORGE STREET;COUNTY DURHAM;DL14 7JG,GEORGE STREET,COUNTY DURHAM,UK,DL14 7JG,054.66415500,-001.67450400
11834635781825,,,,GBP,,,,,,29 NEWGATE STREET BISHOP AUKLAND DL14 7ET;BISHOP AUKLAND;COUNTY DURHAM;DL14 7ET,BISHOP AUKLAND,COUNTY DURHAM,UK,DL14 7ET,054.66415500,-001.67450400
11524676259617,,,,GBP,,,,,,18 HIGH STREET NEWMARKET CB8 8LH;NEWMARKET;SUFFOLK;CB8 8LH,NEWMARKET,SUFFOLK,UK,CB8 8LH,052.24536500,000.40849300
113462209120,,,,GBP,,,,,,HIGH STREET NEWPORT NP20 1GG;NEWPORT;GWENT;NP20 1GG,NEWPORT,GWENT,UK,NP20 1GG,051.58803200,-002.99724400
11684651465890,,,,GBP,,,,,,NEWQUAY ROAD WHITBY YO21 1DH;WHITBY;WHITBY;YO21 1DH,WHITBY,WHITBY,UK,YO21 1DH,054.48584400,-000.61420500
11124669878192,,,,GBP,,,,,,128 NEWTON ROAD TORQUAY TQ2 7AD;TORQUAY;DEVON;TQ2 7AD,TORQUAY,DEVON,UK,TQ2 7AD,050.48443100,-003.55470300
1149465315161,,,,GBP,,,,,,NEXT TO TIERACK SHOP ADJ PLATFORM 11 SW1V 1JU;ADJ PLATFORM 11;LONDON;SW1V 1JU,ADJ PLATFORM 11,LONDON,UK,SW1V 1JU,051.49568100,-000.14472200
1104685647223,,,,GBP,,,,,,NORFOLK SQUARE GLOSSOP SK13 8BR;GLOSSOP;DERBYSHIRE;SK13 8BR,GLOSSOP,DERBYSHIRE,UK,SK13 8BR,053.44358600,-001.94953100
11646257417,,,,GBP,,,,,,NORMANTON ROAD DERBY DE23 6US;DERBY;DERBYSHIRE;DE23 6US,DERBY,DERBYSHIRE,UK,DE23 6US,052.91302500,-001.47692900
11384658692870,,,,GBP,,,,,,2 NORTH PARADE ABERYSTWYTH SY23 2NB;ABERYSTWYTH;DYFED;SY23 2NB,ABERYSTWYTH,DYFED,UK,SY23 2NB,052.41526800,-004.08337400
11474686016235,,,,GBP,,,,,,NORTH ROAD DURHAM DH1 4RB;DURHAM;COUNTY DURHAM;DH1 4RB,DURHAM,COUNTY DURHAM,UK,DH1 4RB,054.77953900,-001.58150600
11454653389741,,,,GBP,,,,,,7 NORTH STREET BISHOPS STORTFORD CM23 2LE;BISHOPS STORTFORD;HERTFORDSHIRE;CM23 2LE,BISHOPS STORTFORD,HERTFORDSHIRE,UK,CM23 2LE,051.87164400,000.15847900
11864618769563,,,,GBP,,,,,,NORTH STREET BRISTOL BS3 1JA;BRISTOL;AVON;BS3 1JA,BRISTOL,AVON,UK,BS3 1JA,051.44180300,-002.61258900
11174617512251,,,,GBP,,,,,,63 NORTH STREET KEIGHLEY BD21 3SB;KEIGHLEY;WEST YORKSHIRE;BD21 3SB,KEIGHLEY,WEST YORKSHIRE,UK,BD21 3SB,053.86693300,-001.90997100
11954679476110,,,,GBP,,,,,,9 NORTH STREET RUGBY CV21 2AB;RUGBY;WARWICKSHIRE;CV21 2AB,RUGBY,WARWICKSHIRE,UK,CV21 2AB,052.37374800,-001.26232300
11554655913864,,,,GBP,,,,,,49 NORTH STREET TAUNTON TA1 1NB;TAUNTON;SOMERSET;TA1 1NB,TAUNTON,SOMERSET,UK,TA1 1NB,051.01502600,-003.10351400
11674625586210,,,,GBP,,,,,,5 NORTH WALK YATE BRISTOL BS37 4AG;BRISTOL;AVON;BS37 4AG,BRISTOL,AVON,UK,BS37 4AG,051.54033200,-002.41372800
11674625586210770,,,,GBP,,,,,,5 NORTH WALK YATE BRISTOL BS37 4AP;BRISTOL;AVON;BS37 4AP,BRISTOL,AVON,UK,BS37 4AP,051.54033200,-002.41372800
11554627613668,,,,GBP,,,,,,97 HIGH STREET NORTHALLERTON DL7 8PS;NORTHALLERTON;NORTH YORKSHIRE;DL7 8PS,NORTHALLERTON,NORTH YORKSHIRE,UK,DL7 8PS,054.34001800,-001.43404600
11304648674432,,,,GBP,,,,,,2 NORTHGATE DEWSBURY WF13 1EA;DEWSBURY;WEST YORKSHIRE;WF13 1EA,DEWSBURY,WEST YORKSHIRE,UK,WF13 1EA,053.69251700,-001.62919300
11554664567796,,,,GBP,,,,,,16 NORTHUMBERLAND STREET NEWCASTLE UPON TYNE NE1 7EL;NEWCASTLE UPON TYNE;TYNE & WEAR;NE1 7EL,NEWCASTLE UPON TYNE,TYNE & WEAR,UK,NE1 7EL,054.97477500,-001.61174000
1111466566750,,,,GBP,,,,,,46 NOTTING HILL GATE LONDON W11 3HZ;LONDON;LONDON;W11 3HZ,LONDON,LONDON,UK,W11 3HZ,051.50945400,-000.19519200
11674693215833,,,,GBP,,,,,,NR.EDINBURGH AIRPORT EDINBURGH QUAY EH12 1HQ;EDINBURGH QUAY;EDINBURGH;EH12 1HQ,EDINBURGH QUAY,EDINBURGH,UK,EH12 1HQ,055.92899000,-003.30224000
11974651894300,,,,GBP,,,,,,11 NURSERY PARADE MARSH ROAD LU3 2QP;MARSH ROAD;BEDFORDSHIRE;LU3 2QP,MARSH ROAD,BEDFORDSHIRE,UK,LU3 2QP,051.90502300,-000.45378000
11754644229006,,,,GBP,,,,,,OLD CHRISTCHURCH ROAD BORUNEMOUTH BH1 1DY;BORUNEMOUTH;DORSET;BH1 1DY,BORUNEMOUTH,DORSET,UK,BH1 1DY,050.72020600,-001.87870800
11204685032293,,,,GBP,,,,,,5 OLD CHRISTCHURCH ROAD BOURNEMOUTH BH1 1DU;BOURNEMOUTH;DORSET;BH1 1DU,BOURNEMOUTH,DORSET,UK,BH1 1DU,050.72025200,-001.87903300
1114683986689,,,,GBP,,,,,,14 OLD TOWN STREET PLYMOUTH PL1 1DG;PLYMOUTH;DEVON;PL1 1DG,PLYMOUTH,DEVON,UK,PL1 1DG,050.37137300,-004.13882100
11184683986689,,,,GBP,,,,,,42705 OLD TOWN STREET PLYMOUTH PL1 1DG;PLYMOUTH;DEVON;PL1 1DG,PLYMOUTH,DEVON,UK,PL1 1DG,050.37137300,-004.13882100
11754649091208,,,,GBP,,,,,,794 OLDHAM ROAD FAILSWORTH M35 9FE;FAILSWORTH;LANCASHIRE;M35 9FE,FAILSWORTH,LANCASHIRE,UK,M35 9FE,053.51765500,-002.14627500
11774696897734,,,,GBP,,,,,,ORACLE SHOPPING CENTRE READING RG1 2AG;READING;BERKSHIRE;RG1 2AG,READING,BERKSHIRE,UK,RG1 2AG,051.45281600,-000.97101500
1104663072727,,,,GBP,,,,,,5 ORMSKIRK STREET ST HELENS WA10 1DR;ST HELENS;MERSEYSIDE;WA10 1DR,ST HELENS,MERSEYSIDE,UK,WA10 1DR,053.45288600,-002.73804700
11554647812831,,,,GBP,,,,,,235 HIGH STREET ORPINGTON BR6 0NZ;ORPINGTON;KENT;BR6 0NZ,ORPINGTON,KENT,UK,BR6 0NZ,051.37540500,000.09960100
11974663276510,,,,GBP,,,,,,836 OSMASTON ROAD ALLENTON DE24 9ZT;ALLENTON;DERBYSHIRE;DE24 9ZT,ALLENTON,DERBYSHIRE,UK,DE24 9ZT,052.89040400,-001.45240900
11644633672527,,,,GBP,,,,,,OXFORD ROAD MANCHESTER M13 9WL;MANCHESTER;GREATER MANCHESTER;M13 9WL,MANCHESTER,GREATER MANCHESTER,UK,M13 9WL,053.46242700,-002.22772200
11154670038923,,,,GBP,,,,,,OXFORD STREET SWANSEA SA1 3AQ;SWANSEA;SWANSEA;SA1 3AQ,SWANSEA,SWANSEA,UK,SA1 3AQ,051.61925400,-003.94658100
11154670038923170,,,,GBP,,,,,,OXFORD STREET SWANSEA SA1 3AQ;SWANSEA;WEST GLAMORGAN;SA1 3AQ,SWANSEA,WEST GLAMORGAN,UK,SA1 3AQ,051.61925400,-003.94658100
1104626689220,,,,GBP,,,,,,44 PACKHORSE ROAD GERRARDS CROSS SL9 8EG;GERRARDS CROSS;BUCKINGHAMSHIRE;SL9 8EG,GERRARDS CROSS,BUCKINGHAMSHIRE,UK,SL9 8EG,051.58870000,-000.55234200
11584672372842,,,,GBP,,,,,,PADDINGTON LONDON W2 6AA;LONDON;LONDON;W2 6AA,LONDON,LONDON,UK,W2 6AA,051.51798800,-000.18065700
11484612684838,,,,GBP,,,,,,PALACE OF WESTMINSTER LONDON SW1A 0AA;LONDON;LONDON;SW1A 0AA,LONDON,LONDON,UK,SW1A 0AA,051.49978600,-000.12464300
11854697243923,,,,GBP,,,,,,68 PALMERSTON ROAD SOUTHSEA PO5 3PP;SOUTHSEA;HAMPSHIRE;PO5 3PP,SOUTHSEA,HAMPSHIRE,UK,PO5 3PP,050.78470800,-001.08910900
11394673525146,,,,GBP,,,,,,6 PARADE SUTTON COLDFIELD B72 1PD;SUTTON COLDFIELD;WEST MIDLANDS;B72 1PD,SUTTON COLDFIELD,WEST MIDLANDS,UK,B72 1PD,052.56133300,-001.82423200
11394673525146990,,,,GBP,,,,,,6 PARADE SUTTON COLDFIELD B72 1PL;SUTTON COLDFIELD;WEST MIDLANDS;B72 1PL,SUTTON COLDFIELD,WEST MIDLANDS,UK,B72 1PL,052.56133300,-001.82423200
11574617522983,,,,GBP,,,,,,2 PARK PARADE HAVANT PO9 5AF;HAVANT;HAMPSHIRE;PO9 5AF,HAVANT,HAMPSHIRE,UK,PO9 5AF,050.86683900,-000.98334400
115146607590,,,,GBP,,,,,,33 PARK PARADE HIGH WYCOMBE HP15 7AA;HIGH WYCOMBE;BUCKINGHAMSHIRE;HP15 7AA,HIGH WYCOMBE,BUCKINGHAMSHIRE,UK,HP15 7AA,051.65814600,-000.70971200
11684630804001,,,,GBP,,,,,,8 PARK ROW LEEDS LS1 5HD;LEEDS;WEST YORKSHIRE;LS1 5HD,LEEDS,WEST YORKSHIRE,UK,LS1 5HD,053.79798900,-001.54676500
1146469422357,,,,GBP,,,,,,45 PARK STREET CAMBERLEY GU15 3PA;CAMBERLEY;SURREY;GU15 3PA,CAMBERLEY,SURREY,UK,GU15 3PA,051.33730400,-000.74761100
11934643474265,,,,GBP,,,,,,33 PARK STREET WALSALL WS1 1ER;WALSALL;WEST MIDLANDS;WS1 1ER,WALSALL,WEST MIDLANDS,UK,WS1 1ER,052.58461200,-001.98360000
11344698523777,,,,GBP,,,,,,18 PARK VIEW WHITLEY BAY NE26 2TH;WHITLEY BAY;TYNE & WEAR;NE26 2TH,WHITLEY BAY,TYNE & WEAR,UK,NE26 2TH,055.04212500,-001.44810300
1187462786699,,,,GBP,,,,,,44873 PAVILION BUILDINGS BRIGHTON BN1 1EE;BRIGHTON;EAST SUSSEX;BN1 1EE,BRIGHTON,EAST SUSSEX,UK,BN1 1EE,050.82179200,-000.13831200
11144666512008,,,,GBP,,,,,,44812 PEAKS MOUNT CRYSTAL PEAKS S20 7JD;CRYSTAL PEAKS;SOUTH YORKSHIRE;S20 7JD,CRYSTAL PEAKS,SOUTH YORKSHIRE,UK,S20 7JD,053.34173800,-001.35355200
11554662774052,,,,GBP,,,,,,65 PECKHAM HIGH STREET LONDON SE15 5RY;LONDON;LONDON;SE15 5RY,LONDON,LONDON,UK,SE15 5RY,051.47354500,-000.07035200
11824622282938,,,,GBP,,,,,,PEGASUS ROAD PATCHWAY BS34 5DG;PATCHWAY;AVON;BS34 5DG,PATCHWAY,AVON,UK,BS34 5DG,051.52511000,-002.59538500
11524647854330,,,,GBP,,,,,,1 PENN ROAD BEACONSFIELD HP9 2PU;BEACONSFIELD;BUCKINGHAMSHIRE;HP9 2PU,BEACONSFIELD,BUCKINGHAMSHIRE,UK,HP9 2PU,051.61242500,-000.64764800
11294698979469,,,,GBP,,,,,,4 HIGH STREET PETERSFIELD GU32 3JE;PETERSFIELD;HAMPSHIRE;GU32 3JE,PETERSFIELD,HAMPSHIRE,UK,GU32 3JE,051.00409400,-000.93656200
1122466198119,,,,GBP,,,,,,21 PETTY CURRY CAMBRIDGE CB2 3NE;CAMBRIDGE;CAMBRIDGE;CB2 3NE,CAMBRIDGE,CAMBRIDGE,UK,CB2 3NE,052.20507400,000.12064300
11624680467279,,,,GBP,,,,,,PHOENIX WAY SWANSEA SA7 9FS;SWANSEA;DYFED;SA7 9FS,SWANSEA,DYFED,UK,SA7 9FS,051.65299500,-003.91201400
11224634114528,,,,GBP,,,,,,208 PICCADILLY LONDON W1J 9HE;LONDON;LONDON;W1J 9HE,LONDON,LONDON,UK,W1J 9HE,051.50924000,-000.13552400
11204624258748,,,,GBP,,,,,,33 PICCADILLY MANCHESTER M1 1LQ;MANCHESTER;LANCASHIRE;M1 1LQ,MANCHESTER,LANCASHIRE,UK,M1 1LQ,053.48146700,-002.23591500
1184465278454,,,,GBP,,,,,,PICCADILLY MANCHESTER M60 7RA;MANCHESTER;MANCHESTER;M60 7RA,MANCHESTER,MANCHESTER,UK,M60 7RA,053.47686800,-002.22981800
1173465278454,,,,GBP,,,,,,PICCADILLY SOUTH MANCHESTER M1 2QF;MANCHESTER;LANCASHIRE;M1 2QF,MANCHESTER,LANCASHIRE,UK,M1 2QF,053.47686800,-002.22981800
11764624682543,,,,GBP,,,,,,2 PLYMOUTH ROAD PENARTH CF64 3YN;PENARTH;SOUTH GLAMORGAN;CF64 3YN,PENARTH,SOUTH GLAMORGAN,UK,CF64 3YN,051.43632200,-003.17376000
1164469931161,,,,GBP,,,,,,POND SQUARE SHEFFIELD S1 2BD;SHEFFIELD;SOUTH YORKSHIRE;S1 2BD,SHEFFIELD,SOUTH YORKSHIRE,UK,S1 2BD,053.38073900,-001.46372800
11864616728567,,,,GBP,,,,,,151 HIGH STREET POOLE BH15 1AS;POOLE;DORSET;BH15 1AS,POOLE,DORSET,UK,BH15 1AS,050.71619500,-001.98339600
11484687739102,,,,GBP,,,,,,25 HIGH STREET PORTISHEAD BS20 6BL;PORTISHEAD;AVON;BS20 6BL,PORTISHEAD,AVON,UK,BS20 6BL,051.48361400,-002.76852700
11774612885099,,,,GBP,,,,,,PORTLAND SQUARE SUTTON IN ASHFIELD NG17 1BA;SUTTON IN ASHFIELD;NOTTINGHAMSHIRE;NG17 1BA,SUTTON IN ASHFIELD,NOTTINGHAMSHIRE,UK,NG17 1BA,053.12552100,-001.26073800
11774612885099510,,,,GBP,,,,,,PORTLAND SQUARE SUTTON IN ASHFIELD NG17 1BA;SUTTON IN ASHFIELD;NOTTS;NG17 1BA,SUTTON IN ASHFIELD,NOTTS,UK,NG17 1BA,053.12552100,-001.26073800
1151468526739,,,,GBP,,,,,,60 PORTLAND STREET MANCHESTER M1 4QT;MANCHESTER;LANCASHIRE;M1 4QT,MANCHESTER,LANCASHIRE,UK,M1 4QT,053.47823300,-002.23928800
1151468526739970,,,,GBP,,,,,,60 PORTLAND STREET MANCHESTER M1 4QT;MANCHESTER;MANCHESTER;M1 4QT,MANCHESTER,MANCHESTER,UK,M1 4QT,053.47823300,-002.23928800
1134623463387330,,,,GBP,,,,,,HIGH STREET PORTSMOUTH PO6 3DA;PORTSMOUTH;HANTS;PO6 3DA,PORTSMOUTH,HANTS,UK,PO6 3DA,050.84413700,-001.06684600
11254679459618,,,,GBP,,,,,,31 POW STREET WORKINGTON CA14 3WY;WORKINGTON;CUMBRIA;CA14 3WY,WORKINGTON,CUMBRIA,UK,CA14 3WY,054.64387500,-003.54490900
11674643128418,,,,GBP,,,,,,44743 POWIS STREET WOOLWICH SE18 6LE;WOOLWICH;LONDON;SE18 6LE,WOOLWICH,LONDON,UK,SE18 6LE,051.49064700,000.06800000
11434666441590,,,,GBP,,,,,,PRAED STREET LONDON W2 1RH;LONDON;LONDON;W2 1RH,LONDON,LONDON,UK,W2 1RH,051.51541000,-000.17560000
1122461792126,,,,GBP,,,,,,509 PRESCOT ROAD LIVERPOOL L13 3BZ;LIVERPOOL;MERSEYSIDE;L13 3BZ,LIVERPOOL,MERSEYSIDE,UK,L13 3BZ,053.41413300,-002.91491300
11404666031954,,,,GBP,,,,,,1 PRINCES STREET LONDON EC2R 8BP;LONDON;LONDON;EC2R 8BP,LONDON,LONDON,UK,EC2R 8BP,051.51357800,-000.08940000
11594617776273,,,,GBP,,,,,,31 PROMENADE CHELTENHAM GL50 1LE;CHELTENHAM;GLOUCESTERSHIRE;GL50 1LE,CHELTENHAM,GLOUCESTERSHIRE,UK,GL50 1LE,051.90023000,-002.07633000
11104624258748,,,,GBP,,,,,,PUTNEY HIGH ST LONDON SW15 2LL;LONDON;LONDON;SW15 2LL,LONDON,LONDON,UK,SW15 2LL,053.48146700,-002.23591500
11104665064378,,,,GBP,,,,,,PUTNEY HIGH ST LONDON SW15 2LL;LONDON;LONDON;SW15 2LL,LONDON,LONDON,UK,SW15 2LL,051.46197100,-000.21385200
11304624169293,,,,GBP,,,,,,34 HIGH STREET PWLLHELI LL53 5WY;PWLLHELI;GWYNEDD;LL53 5WY,PWLLHELI,GWYNEDD,UK,LL53 5WY,052.88982800,-004.41551500
1191466459142,,,,GBP,,,,,,QUEEN SQUARE WOLVERHAMPTON WV1 1TL;WOLVERHAMPTON;WEST MIDLANDS;WV1 1TL,WOLVERHAMPTON,WEST MIDLANDS,UK,WV1 1TL,052.58592700,-002.12889500
11764672172438,,,,GBP,,,,,,96 QUEEN STREET CARDIFF CF10 2GR;CARDIFF;SOUTH GLAMORGAN;CF10 2GR,CARDIFF,SOUTH GLAMORGAN,UK,CF10 2GR,051.48209100,-003.17391200
11374672384,,,,GBP,,,,,,QUEEN STREET MORLEY LS27 8DX;MORLEY;WEST YORKSHIRE;LS27 8DX,MORLEY,WEST YORKSHIRE,UK,LS27 8DX,053.74615100,-001.60157800
11444678155554,,,,GBP,,,,,,5 QUEEN STREET RHYL LL18 1RS;RHYL;DENBIGHSHIRE;LL18 1RS,RHYL,DENBIGHSHIRE,UK,LL18 1RS,053.32030700,-003.49141500
1137466459142,,,,GBP,,,,,,QUEEN STREET WOLVERHAMPTON WV1 1TL;WOLVERHAMPTON;WEST MIDLANDS;WV1 1TL,WOLVERHAMPTON,WEST MIDLANDS,UK,WV1 1TL,052.58592700,-002.12889500
11234691199996,,,,GBP,,,,,,40 QUEEN.S ROAD CLIFTON BS8 1BF;CLIFTON;AVON;BS8 1BF,CLIFTON,AVON,UK,BS8 1BF,051.45644800,-002.60613600
1165469335081,,,,GBP,,,,,,QUEENS MEDICAL CENTRE NOTTINGHAM NG7 2UH;NOTTINGHAM;NOTTINGHAMSHIRE;NG7 2UH,NOTTINGHAM,NOTTINGHAMSHIRE,UK,NG7 2UH,052.94377700,-001.18594900
11954648542839,,,,GBP,,,,,,QUEENS ROAD BRISTOL BS8 1LN;BRISTOL;AVON;BS8 1LN,BRISTOL,AVON,UK,BS8 1LN,051.45672700,-002.61304800
11194678969835,,,,GBP,,,,,,1 QUEENSMEAD FARNBOROUGH GU14 7RQ;FARNBOROUGH;HAMPSHIRE;GU14 7RQ,FARNBOROUGH,HAMPSHIRE,UK,GU14 7RQ,051.29377300,-000.75623900
11524658957795,,,,GBP,,,,,,215 QUEENSWAY BLETCHLEY MK2 2YY;BLETCHLEY;BUCKINGHAMSHIRE;MK2 2YY,BLETCHLEY,BUCKINGHAMSHIRE,UK,MK2 2YY,051.99597800,-000.72507500
11524658957795920,,,,GBP,,,,,,215 QUEENSWAY MILTON KEYNES MK2 2YY;MILTON KEYNES;BUCKINGHAMSHIRE;MK2 2YY,MILTON KEYNES,BUCKINGHAMSHIRE,UK,MK2 2YY,051.99597800,-000.72507500
1154461939373,,,,GBP,,,,,,QUEENSWAY STEVENAGE SG1 1BS;STEVENAGE;HERTFORDSHIRE;SG1 1BS,STEVENAGE,HERTFORDSHIRE,UK,SG1 1BS,051.90069700,-000.20126900
1104657105082,,,,GBP,,,,,,RADFORD ROAD BILLERICAY CM12 0BP;BILLERICAY;ESSEX;CM12 0BP,BILLERICAY,ESSEX,UK,CM12 0BP,051.62925900,000.41827900
11584680723342,,,,GBP,,,,,,70 HIGH STREET RAINHAM ME8 7JH;RAINHAM;KENT;ME8 7JH,RAINHAM,KENT,UK,ME8 7JH,051.36331900,000.60748300
11874619894105,,,,GBP,,,,,,53 HIGH STREET RAMSGATE CT11 9AG;RAMSGATE;KENT;CT11 9AG,RAMSGATE,KENT,UK,CT11 9AG,051.33433900,001.41876300
11574645777763,,,,GBP,,,,,,RANELAGH STREET LIVERPOOL L1 1JT;LIVERPOOL;MERSEYSIDE;L1 1JT,LIVERPOOL,MERSEYSIDE,UK,L1 1JT,053.40435300,-002.97958000
11954640456086,,,,GBP,,,,,,RAVEN WAY NUNEATON CV11 6SG;NUNEATON;WARWICKSHIRE;CV11 6SG,NUNEATON,WARWICKSHIRE,UK,CV11 6SG,052.51434900,-001.44502700
11124620161765,,,,GBP,,,,,,43 HIGH STREET RAYLEIGH SS6 7EH;RAYLEIGH;ESSEX;SS6 7EH,RAYLEIGH,ESSEX,UK,SS6 7EH,051.58705300,000.60724100
11794618682591,,,,GBP,,,,,,362 RAYNERS LANE PINNER HA5 5EB;PINNER;MIDDLESEX;HA5 5EB,PINNER,MIDDLESEX,UK,HA5 5EB,051.57630200,-000.37075200
1127467701509,,,,GBP,,,,,,52 RECTORY ROAD WEST BRIDGFORD NG2 6FF;WEST BRIDGFORD;NOTTINGHAMSHIRE;NG2 6FF,WEST BRIDGFORD,NOTTINGHAMSHIRE,UK,NG2 6FF,052.93076300,-001.12677300
11354640215280,,,,GBP,,,,,,90 REGENT STREET KINGSWOOD BS15 8HS;KINGSWOOD;AVON;BS15 8HS,KINGSWOOD,AVON,UK,BS15 8HS,051.46226700,-002.50730700
11574616344927,,,,GBP,,,,,,250 REGENT STREET LONDON W1B 3BN;LONDON;LONDON;W1B 3BN,LONDON,LONDON,UK,W1B 3BN,051.51455100,-000.14151900
11254651659029,,,,GBP,,,,,,207 RICHMOND ROAD CARDIFF CF24 3UX;CARDIFF;SOUTH GLAMORGAN;CF24 3UX,CARDIFF,SOUTH GLAMORGAN,UK,CF24 3UX,051.49254700,-003.17229400
11464694204521,,,,GBP,,,,,,159 HIGH STREET RICKMANSWORTH WD3 1AR;RICKMANSWORTH;HERTFORDSHIRE;WD3 1AR,RICKMANSWORTH,HERTFORDSHIRE,UK,WD3 1AR,051.63892600,-000.47117300
11954661152914,,,,GBP,,,,,,11 HIGH STREET RINGWOOD BH24 1AB;RINGWOOD;HAMPSHIRE;BH24 1AB,RINGWOOD,HAMPSHIRE,UK,BH24 1AB,050.84572200,-001.79180900
1138462752478,,,,GBP,,,,,,ROBIN HOOD CARAVN CP CHAPEL ST LEONARDS SKEGNESS PE24 5TR;CHAPEL ST LEONARDS SKEGNESS;LINCS;PE24 5TR,CHAPEL ST LEONARDS, SKEGNESS,LINCS,UK,PE24 5TR,053.21597600,000.33572400
11524616267499,,,,GBP,,,,,,ROCHDALE ROAD OLDHAM OL1 2JH;OLDHAM;LANCASHIRE;OL1 2JH,OLDHAM,LANCASHIRE,UK,OL1 2JH,053.55324100,-002.12183900
11844694852619,,,,GBP,,,,,,8 ROCHDALE ROAD ROYTON OL2 6WA;ROYTON;LANCASHIRE;OL2 6WA,ROYTON,LANCASHIRE,UK,OL2 6WA,053.56566300,-002.12179900
1131463049303,,,,GBP,,,,,,11 ROLLE STREET EXMOUTH EX8 1HH;EXMOUTH;DEVON;EX8 1HH,EXMOUTH,DEVON,UK,EX8 1HH,050.61959200,-003.41326500
11944638584751,,,,GBP,,,,,,300 ROMFORD ROAD LONDON E7 9HD;LONDON;LONDON;E7 9HD,LONDON,LONDON,UK,E7 9HD,051.54613600,000.02508300
11864695783753,,,,GBP,,,,,,1 ROMSEY ROAD SOUTHAMPTON SO16 9QQ;SOUTHAMPTON;HAMPSHIRE;SO16 9QQ,SOUTHAMPTON,HAMPSHIRE,UK,SO16 9QQ,050.92400100,-001.43540700
11304657419814,,,,GBP,,,,,,3 ROPERGATE PONTEFRACT WF8 1LL;PONTEFRACT;WEST YORKSHIRE;WF8 1LL,PONTEFRACT,WEST YORKSHIRE,UK,WF8 1LL,053.69072500,-001.31152400
11934679637051,,,,GBP,,,,,,31 ROTHER STREET STRATFORD UPON AVON CV37 6NE;STRATFORD UPON AVON;WARWICKSHIRE;CV37 6NE,STRATFORD UPON AVON,WARWICKSHIRE,UK,CV37 6NE,052.19297000,-001.70900400
11274658739979,,,,GBP,,,,,,ROYAL VICTORIA PLACE TUNBRIDGE WELLS TN1 2SS;TUNBRIDGE WELLS;KENT;TN1 2SS,TUNBRIDGE WELLS,KENT,UK,TN1 2SS,051.13472800,000.26523100
1129467144578,,,,GBP,,,,,,RUGBY ROAD TWICKENHAM TW1 1DZ;TWICKENHAM;MIDDLESEX;TW1 1DZ,TWICKENHAM,MIDDLESEX,UK,TW1 1DZ,051.45632300,-000.33924400
11874650603694,,,,GBP,,,,,,53 HIGH STREET RUNCORN WA7 1AQ;RUNCORN;CHESHIRE;WA7 1AQ,RUNCORN,CHESHIRE,UK,WA7 1AQ,053.34125600,-002.73299400
1198461898333,,,,GBP,,,,,,159 RUSHEY GREEN CATFORD SE6 4BJ;CATFORD;LONDON;SE6 4BJ,CATFORD,LONDON,UK,SE6 4BJ,051.44539100,-000.01928500
1198461898333110,,,,GBP,,,,,,159 RUSHEY GREEN LONDON SE6 4BJ;LONDON;LONDON;SE6 4BJ,LONDON,LONDON,UK,SE6 4BJ,051.44539100,-000.01928500
11344693936221,,,,GBP,,,,,,49 SANDGATE ROAD FOLKESTONE CT20 1RU;FOLKESTONE;KENT;CT20 1RU,FOLKESTONE,KENT,UK,CT20 1RU,051.07862400,001.17924700
11334639877389,,,,GBP,,,,,,23 SANKEY STREET WARRINGTON WA1 1XH;WARRINGTON;CHESHIRE;WA1 1XH,WARRINGTON,CHESHIRE,UK,WA1 1XH,053.38859300,-002.59547300
1197464894399,,,,GBP,,,,,,74 SCHOOL ROAD READING RG31 5ST;READING;BERKSHIRE;RG31 5ST,READING,BERKSHIRE,UK,RG31 5ST,051.45857400,-001.04030700
11844683405946,,,,GBP,,,,,,19 SCHOOL ROAD SALE M33 7ZA;SALE;CHESHIRE;M33 7ZA,SALE,CHESHIRE,UK,M33 7ZA,053.42471300,-002.32073200
11544684081639,,,,GBP,,,,,,119 HIGH STREET SCUNTHORPE DN15 6LT;SCUNTHORPE;NORTH LINCOLNSHIRE;DN15 6LT,SCUNTHORPE,NORTH LINCOLNSHIRE,UK,DN15 6LT,053.59119600,-000.64919600
11434684611414,,,,GBP,,,,,,SEA VIEW STREET CLEETHORPES DN35 8EZ;CLEETHORPES;LINCOLNSHIRE;DN35 8EZ,CLEETHORPES,LINCOLNSHIRE,UK,DN35 8EZ,053.55772100,-000.02539400
11414633756226,,,,GBP,,,,,,20 SEFTON ROAD LITHERLAND L21 7QU;LITHERLAND;MERSEYSIDE;L21 7QU,LITHERLAND,MERSEYSIDE,UK,L21 7QU,053.47056300,-003.00053900
1174641836009,,,,GBP,,,,,,SEVEN OAKS KENT TN15 8BX;KENT;ENGLAND;TN15 8BX,KENT,ENGLAND,UK,TN15 8BX,051.29248300,000.30628100
116546620523,,,,GBP,,,,,,298 SEVEN SISTERS ROAD FINSBURY PARK N4 2AA;FINSBURY PARK;LONDON;N4 2AA,FINSBURY PARK,LONDON,UK,N4 2AA,051.56477600,-000.10393400
11664617453956,,,,GBP,,,,,,67 HIGH STREET SEVENOAKS TN13 1LA;SEVENOAKS;KENT;TN13 1LA,SEVENOAKS,KENT,UK,TN13 1LA,051.26954500,000.19280400
11204646436588,,,,GBP,,,,,,29 HIGH STREET SHEERNESS ME12 1NU;SHEERNESS;KENT;ME12 1NU,SHEERNESS,KENT,UK,ME12 1NU,051.44062100,000.76020100
1119465814029,,,,GBP,,,,,,42 HIGH STREET SHEFFIELD S1 2GE;SHEFFIELD;SOUTH YORKSHIRE;S1 2GE,SHEFFIELD,SOUTH YORKSHIRE,UK,S1 2GE,053.38259900,-001.46758300
1104611233086,,,,GBP,,,,,,SHEPHERDS BUSH 54 UXBRIDGE RD SHEPHERDS BUSH W12 8LP;SHEPHERDS BUSH;LONDON;W12 8LP,SHEPHERDS BUSH,LONDON,UK,W12 8LP,051.50452300,-000.21968100
11424618439892,,,,GBP,,,,,,87 SIDCUP HIGH STREET SIDCUP DA14 6DL;SIDCUP;KENT;DA14 6DL,SIDCUP,KENT,UK,DA14 6DL,051.42656900,000.10152900
11724656396060,,,,GBP,,,,,,501 SILBURY BOULEVARD SAXON GATE EAST MK9 3ER;SAXON GATE EAST;BUCKINGHAMSHIRE;MK9 3ER,SAXON GATE EAST,BUCKINGHAMSHIRE,UK,MK9 3ER,052.04327300,-000.76043000
11164628494722,,,,GBP,,,,,,87 HIGH STREET SITTINGBOURNE ME10 4AU;SITTINGBOURNE;KENT;ME10 4AU,SITTINGBOURNE,KENT,UK,ME10 4AU,051.33982600,000.73597400
1134611943766,,,,GBP,,,,,,HIGH STREET SKIPTON BD23 1JA;SKIPTON;WEST YORKSHIRE;BD23 1JA,SKIPTON,WEST YORKSHIRE,UK,BD23 1JA,053.96069200,-002.01717400
11904655398503,,,,GBP,,,,,,2 SLOANE GARDENS LONDON SW1W 8DL;LONDON;LONDON;SW1W 8DL,LONDON,LONDON,UK,SW1W 8DL,051.49161900,-000.15688700
11484655398503,,,,GBP,,,,,,SLOANE GARDENS LONDON SW1W 8DL;LONDON;LONDON;SW1W 8DL,LONDON,LONDON,UK,SW1W 8DL,051.49161900,-000.15688700
11354690351635,,,,GBP,,,,,,118 HIGH STREET SLOUGH SL1 1JH;SLOUGH;BERKSHIRE;SL1 1JH,SLOUGH,BERKSHIRE,UK,SL1 1JH,051.50883600,-000.59411400
11304690916865,,,,GBP,,,,,,34 HIGH STREET SMETHWICK B66 1DU;SMETHWICK;WEST MIDLANDS;B66 1DU,SMETHWICK,WEST MIDLANDS,UK,B66 1DU,052.49786500,-001.97520600
112046988485,,,,GBP,,,,,,21 HIGH STREET SNODLAND ME6 5AE;SNODLAND;KENT;ME6 5AE,SNODLAND,KENT,UK,ME6 5AE,051.33002200,000.44326700
1129464536454,,,,GBP,,,,,,4 HIGH STREET SOLIHULL B91 3TB;SOLIHULL;WEST MIDLANDS;B91 3TB,SOLIHULL,WEST MIDLANDS,UK,B91 3TB,052.41372100,-001.77984500
1129464536454760,,,,GBP,,,,,,4 HIGH STREET SOLIHULL B91 3TF;SOLIHULL;WEST MIDLANDS;B91 3TF,SOLIHULL,WEST MIDLANDS,UK,B91 3TF,052.41372100,-001.77984500
11714697881647,,,,GBP,,,,,,111 SOUTH END CROYDON CR0 1BJ;CROYDON;SURREY;CR0 1BJ,CROYDON,SURREY,UK,CR0 1BJ,051.36379900,-000.09801200
11174661641224,,,,GBP,,,,,,SOUTH JOHN STREET NEW QUAY SA45 9NG;NEW QUAY;CEREDIGION;SA45 9NG,NEW QUAY,CEREDIGION,UK,SA45 9NG,052.21462000,-004.35861500
11274673465547,,,,GBP,,,,,,16 SOUTH PARADE NOTTINGHAM NG1 2JX;NOTTINGHAM;NOTTINGHAMSHIRE;NG1 2JX,NOTTINGHAM,NOTTINGHAMSHIRE,UK,NG1 2JX,052.95288000,-001.14939900
11754672503240,,,,GBP,,,,,,49 SOUTH STREET DORCHESTER DT1 1DW;DORCHESTER;DORSET;DT1 1DW,DORCHESTER,DORSET,UK,DT1 1DW,050.71408100,-002.43714800
11774627907137,,,,GBP,,,,,,10 SOUTH STREET ROMFORD RM1 1RD;ROMFORD;ESSEX;RM1 1RD,ROMFORD,ESSEX,UK,RM1 1RD,051.57798200,000.18047300
11534662507621,,,,GBP,,,,,,27 SOUTH STREET WORTHING BN11 3AW;WORTHING;WEST SUSSEX;BN11 3AW,WORTHING,WEST SUSSEX,UK,BN11 3AW,050.81099200,-000.37034400
11944634522256,,,,GBP,,,,,,15 SOUTH STREET WORTHING BN11 3AP;WORTHING;WEST SUSSEX;BN11 3AP,WORTHING,WEST SUSSEX,UK,BN11 3AP,050.81045000,-000.37023500
1124671979941,,,,GBP,,,,,,12 HIGH STREET SOUTHAMPTON SO14 2NX;SOUTHAMPTON;HAMPSHIRE;SO14 2NX,SOUTHAMPTON,HAMPSHIRE,UK,SO14 2NX,050.90443000,-001.40407100
11374615572694,,,,GBP,,,,,,34 SOUTHAMPTON ROAD EASTLEIGH SO50 9XN;EASTLEIGH;HAMPSHIRE;SO50 9XN,EASTLEIGH,HAMPSHIRE,UK,SO50 9XN,050.96910900,-001.35084800
11434672515434,,,,GBP,,,,,,132 HIGH STREET SOUTHEND ON SEA SS1 1JX;SOUTHEND ON SEA;ESSEX;SS1 1JX,SOUTHEND ON SEA,ESSEX,UK,SS1 1JX,051.53944700,000.71283100
11434672515434180,,,,GBP,,,,,,132 HIGH STREET SOUTHEND-ON-SEA SS1 1JX;SOUTHEND-ON-SEA;ESSEX;SS1 1JX,SOUTHEND-ON-SEA,ESSEX,UK,SS1 1JX,051.53944700,000.71283100
11384674035045,,,,GBP,,,,,,SOUTHMOOR ROAD WYTHENSHAWE MANCHESTER M23 9LT;MANCHESTER;LANCS;M23 9LT,MANCHESTER,LANCS,UK,M23 9LT,053.38791100,-002.29319600
11244687995464,,,,GBP,,,,,,10 SOUTHWARK STREET LONDON SE1 1TJ;LONDON;LONDON;SE1 1TJ,LONDON,LONDON,UK,SE1 1TJ,051.50494500,-000.09049600
11114647361150,,,,GBP,,,,,,41 SPLOTT ROAD CARDIFF CF24 2XX;CARDIFF;WALES;CF24 2XX,CARDIFF,WALES,UK,CF24 2XX,051.48363000,-003.15200300
11214640374644,,,,GBP,,,,,,2 SPRING GARDENS BUXTON SK17 6DJ;BUXTON;CHESHIRE;SK17 6DJ,BUXTON,CHESHIRE,UK,SK17 6DJ,053.25876400,-001.91275300
1185463708665,,,,GBP,,,,,,11 SPRING GARDENS MANCHESTER M2 1FB;MANCHESTER;LANCASHIRE;M2 1FB,MANCHESTER,LANCASHIRE,UK,M2 1FB,053.48273100,-002.24198000
11784661487046,,,,GBP,,,,,,26 SPRING STREET LONDON W2 1JA;LONDON;LONDON;W2 1JA,LONDON,LONDON,UK,W2 1JA,051.51476800,-000.17539500
11814664886341,,,,GBP,,,,,,ST ANDREW.S CROSS PLYMOUTH PL4 0AE;PLYMOUTH;DEVON;PL4 0AE,PLYMOUTH,DEVON,UK,PL4 0AE,050.37021200,-004.13791100
11294650509901,,,,GBP,,,,,,24 ST ANNES ROAD WEST LYTHAM ST ANNES FY8 1RH;LYTHAM ST ANNES;LANCASHIRE;FY8 1RH,LYTHAM ST ANNES,LANCASHIRE,UK,FY8 1RH,053.75096000,-003.03141000
11744673704462,,,,GBP,,,,,,ST DAVIDS EXETER EX4 4NT;EXETER;DEVON;EX4 4NT,EXETER,DEVON,UK,EX4 4NT,050.72912000,-003.54336200
111469879284,,,,GBP,,,,,,5 ST JAMES STREET ACCRINGTON BB5 1LY;ACCRINGTON;LANCASHIRE;BB5 1LY,ACCRINGTON,LANCASHIRE,UK,BB5 1LY,053.75215800,-002.36653400
11994633234371,,,,GBP,,,,,,3 ST JAMES STREET SOUTH PETHERTON TA13 5BS;SOUTH PETHERTON;SOMERSET;TA13 5BS,SOUTH PETHERTON,SOMERSET,UK,TA13 5BS,050.94913500,-002.80926300
11304678918274,,,,GBP,,,,,,107 ST JAMES. STREET NEWPORT PO30 1XH;NEWPORT;ISLE OF WIGHT;PO30 1XH,NEWPORT,ISLE OF WIGHT,UK,PO30 1XH,050.69941800,-001.29561600
11894613155083,,,,GBP,,,,,,ST JOHN.S ROAD LONDON SW11 1PT;LONDON;LONDON;SW11 1PT,LONDON,LONDON,UK,SW11 1PT,051.46164800,-000.16786900
11624613042361,,,,GBP,,,,,,ST JOHNS STREET WIRKSWORTH DE4 4DS;WIRKSWORTH;WIRKSWORTH;DE4 4DS,WIRKSWORTH,WIRKSWORTH,UK,DE4 4DS,053.08221400,-001.57350300
11704676995261,,,,GBP,,,,,,117 ST MARY STREET CARDIFF CF10 1DY;CARDIFF;SOUTH GLAMORGAN;CF10 1DY,CARDIFF,SOUTH GLAMORGAN,UK,CF10 1DY,051.47979400,-003.17965700
118646212519,,,,GBP,,,,,,21 ST MARY.S ROAD MARKET HARBOROUGH LE16 7DY;MARKET HARBOROUGH;LEICESTERSHIRE;LE16 7DY,MARKET HARBOROUGH,LEICESTERSHIRE,UK,LE16 7DY,052.47820100,-000.91878200
1194676843697,,,,GBP,,,,,,37 HIGH STREET ST NEOTS PE19 1BN;ST NEOTS;CAMBRIDGESHIRE;PE19 1BN,ST NEOTS,CAMBRIDGESHIRE,UK,PE19 1BN,052.22846000,-000.26745600
118346366841,,,,GBP,,,,,,44653 ST NICHOLAS STREET TRURO TR1 2RN;TRURO;CORNWALL;TR1 2RN,TRURO,CORNWALL,UK,TR1 2RN,050.26303100,-005.05227300
1157461908176,,,,GBP,,,,,,ST OSWALDS RETAIL PARK GLOUCESTER GL1 2SR;GLOUCESTER;GLOUCESTERSHIRE;GL1 2SR,GLOUCESTER,GLOUCESTERSHIRE,UK,GL1 2SR,051.87276100,-002.24737700
11164663693883,,,,GBP,,,,,,10 ST PETER.S STREET ST ALBANS AL1 3LY;ST ALBANS;HERTFORDSHIRE;AL1 3LY,ST ALBANS,HERTFORDSHIRE,UK,AL1 3LY,051.75247700,-000.33794900
1189468405977,,,,GBP,,,,,,ST PETERS HILL GRANTHAM NG31 6QG;GRANTHAM;LINCOLNSHIRE;NG31 6QG,GRANTHAM,LINCOLNSHIRE,UK,NG31 6QG,052.91014300,-000.64102300
11984623443208,,,,GBP,,,,,,58 ST PETERS STREET DERBY DE1 1XL;DERBY;DERBYSHIRE;DE1 1XL,DERBY,DERBYSHIRE,UK,DE1 1XL,052.92011300,-001.47590600
11154652597276,,,,GBP,,,,,,18 ST THOMAS CENTRE EXETER EX4 1DE;EXETER;DEVON;EX4 1DE,EXETER,DEVON,UK,EX4 1DE,050.71729600,-003.53980100
11684671472664,,,,GBP,,,,,,ST THOMAS STREET LONDON SE1 9RS;LONDON;LONDON;SE1 9RS,LONDON,LONDON,UK,SE1 9RS,051.50460000,-000.08862300
11534683619698,,,,GBP,,,,,,76 ST THOMAS STREET WEYMOUTH DT4 8HU;WEYMOUTH;DORSET;DT4 8HU,WEYMOUTH,DORSET,UK,DT4 8HU,050.60976600,-002.45494900
1154466792909,,,,GBP,,,,,,ST THOMAS. SQUARE RYDE PO33 2PL;RYDE;ISLE OF WIGHT;PO33 2PL,RYDE,ISLE OF WIGHT,UK,PO33 2PL,050.72988700,-001.16355600
1166467608947,,,,GBP,,,,,,67 HIGH STREET STAINES TW18 4PU;STAINES;MIDDLESEX;TW18 4PU,STAINES,MIDDLESEX,UK,TW18 4PU,051.43360400,-000.51095400
11314658583531,,,,GBP,,,,,,STALL STREET BATH BA1 1QH;BATH;BATH;BA1 1QH,BATH,BATH,UK,BA1 1QH,051.37991600,-002.36002100
11314684752383,,,,GBP,,,,,,STALL STREET BATH BA1 1QH;BATH;BATH;BA1 1QH,BATH,BATH,UK,BA1 1QH,052.45137700,-001.93005800
11534650499734,,,,GBP,,,,,,23 STAMFORD NEW ROAD ALTRINCHAM WA14 1DB;ALTRINCHAM;CHESHIRE;WA14 1DB,ALTRINCHAM,CHESHIRE,UK,WA14 1DB,053.38648500,-002.34913300
11714668142273,,,,GBP,,,,,,STANDING WAY EAGLESTONE MILTON KEYNES MK6 5LD;MILTON KEYNES;BUCKINGHAMSHIRE;MK6 5LD,MILTON KEYNES,BUCKINGHAMSHIRE,UK,MK6 5LD,052.02633200,-000.73577000
1134656921718,,,,GBP,,,,,,4 STANDISH GATE WIGAN WN1 1UE;WIGAN;LANCASHIRE;WN1 1UE,WIGAN,LANCASHIRE,UK,WN1 1UE,053.54753100,-002.63092000
11214656921718,,,,GBP,,,,,,4 STANDISHGATE WIGAN WN1 1UE;WIGAN;LANCASHIRE;WN1 1UE,WIGAN,LANCASHIRE,UK,WN1 1UE,053.54753100,-002.63092000
11444688155068,,,,GBP,,,,,,329 STANLEY ROAD BOOTLE L20 3EH;BOOTLE;MERSEYSIDE;L20 3EH,BOOTLE,MERSEYSIDE,UK,L20 3EH,053.45213300,-002.99110000
1132467674215,,,,GBP,,,,,,STATION APPROACH GUILDFORD GU1 4UT;GUILDFORD;SURREY;GU1 4UT,GUILDFORD,SURREY,UK,GU1 4UT,051.23684700,-000.58043200
11324678242548,,,,GBP,,,,,,STATION APPROACH HOCKLEY SS5 4BG;HOCKLEY;ESSEX;SS5 4BG,HOCKLEY,ESSEX,UK,SS5 4BG,051.60347200,000.65910700
11324661571022,,,,GBP,,,,,,STATION APPROACH LONDON SE1 9SP;LONDON;LONDON;SE1 9SP,LONDON,LONDON,UK,SE1 9SP,051.50462000,-000.08598500
11324663222329,,,,GBP,,,,,,STATION APPROACH READING RG1 1LZ;READING;BERKSHIRE;RG1 1LZ,READING,BERKSHIRE,UK,RG1 1LZ,051.45832500,-000.97163900
11294635829347,,,,GBP,,,,,,STATION COURT DONCASTER DN1 1PE;DONCASTER;SOUTH YORSHIRE;DN1 1PE,DONCASTER,SOUTH YORSHIRE,UK,DN1 1PE,053.52196500,-001.13956500
11844668457400,,,,GBP,,,,,,12 STATION PARADE LONDON NW2 4NN;LONDON;LONDON;NW2 4NN,LONDON,LONDON,UK,NW2 4NN,051.54946000,-000.22097100
11134637397227,,,,GBP,,,,,,4 STATION PARADE SUNNINGDALE SL5 0EP;SUNNINGDALE;ASCOT;SL5 0EP,SUNNINGDALE,ASCOT,UK,SL5 0EP,051.39100600,-000.63412100
11294616151523,,,,GBP,,,,,,STATION PLACE LETCHWORTH SG6 3AL;LETCHWORTH;HERTFORDSHIRE;SG6 3AL,LETCHWORTH,HERTFORDSHIRE,UK,SG6 3AL,051.97926600,-000.22894900
11804627568650,,,,GBP,,,,,,STATION ROAD BAMBER BRIDGE PR5 6LE;BAMBER BRIDGE;LANCASHIRE;PR5 6LE,BAMBER BRIDGE,LANCASHIRE,UK,PR5 6LE,052.59705900,-001.18025500
1173469295399,,,,GBP,,,,,,10 STATION ROAD CLACTON ON SEA CO15 1TA;CLACTON ON SEA;ESSEX;CO15 1TA,CLACTON ON SEA,ESSEX,UK,CO15 1TA,051.78843900,001.15336200
1180467475409,,,,GBP,,,,,,STATION ROAD COCKERMOUTH CA13 9QJ;COCKERMOUTH;CUMBRIA;CA13 9QJ,COCKERMOUTH,CUMBRIA,UK,CA13 9QJ,054.66280900,-003.36410100
11974666038293,,,,GBP,,,,,,69 STATION ROAD CROSS GATES LS15 8DJ;CROSS GATES;WEST YORKSHIRE;LS15 8DJ,CROSS GATES,WEST YORKSHIRE,UK,LS15 8DJ,053.80737300,-001.45192000
11804641858551,,,,GBP,,,,,,STATION ROAD GILLINGHAM SP8 4PP;GILLINGHAM;DORSET;SP8 4PP,GILLINGHAM,DORSET,UK,SP8 4PP,051.03672600,-002.27225100
11804677244870,,,,GBP,,,,,,STATION ROAD GRANTHAM NG31 6BT;GRANTHAM;LINCOLNSHIRE;NG31 6BT,GRANTHAM,LINCOLNSHIRE,UK,NG31 6BT,052.90635900,-000.64262800
113462492853,,,,GBP,,,,,,315 STATION ROAD HARROW HA1 2AD;HARROW;MIDDLESEX;HA1 2AD,HARROW,MIDDLESEX,UK,HA1 2AD,051.58111200,-000.33416400
11834664762547,,,,GBP,,,,,,50 STATION ROAD LLANISHEN CF14 5LU;LLANISHEN;SOUTH GLAMORGAN;CF14 5LU,LLANISHEN,SOUTH GLAMORGAN,UK,CF14 5LU,051.52895300,-003.18771700
11564635962894,,,,GBP,,,,,,88 STATION ROAD LONDON E4 7BB;LONDON;LONDON;E4 7BB,LONDON,LONDON,UK,E4 7BB,051.63287400,000.00764400
11804656876904,,,,GBP,,,,,,STATION ROAD PADDOCK WOOD TN12 6EP;PADDOCK WOOD;KENT;TN12 6EP,PADDOCK WOOD,KENT,UK,TN12 6EP,051.18156700,000.38948700
11804684991055,,,,GBP,,,,,,STATION ROAD PETERBOROUGH PE1 1QL;PETERBOROUGH;CAMBRIDGESHIRE;PE1 1QL,PETERBOROUGH,CAMBRIDGESHIRE,UK,PE1 1QL,052.57449300,-000.24987500
11664676539266,,,,GBP,,,,,,35 STATION ROAD PORT TALBOT SA13 1NN;PORT TALBOT;WEST GLAMORGAN;SA13 1NN,PORT TALBOT,WEST GLAMORGAN,UK,SA13 1NN,051.59311400,-003.78113400
11804680943609,,,,GBP,,,,,,STATION ROAD RAYLEIGH SS6 7HJ;RAYLEIGH;ESSEX;SS6 7HJ,RAYLEIGH,ESSEX,UK,SS6 7HJ,051.58928900,000.60012200
11344661751258,,,,GBP,,,,,,39 STATION ROAD REDHILL RH1 1QN;REDHILL;SURREY;RH1 1QN,REDHILL,SURREY,UK,RH1 1QN,051.24051600,-000.16924900
11804648474850,,,,GBP,,,,,,STATION ROAD RETFORD DN22 7DE;RETFORD;NOTTINGHAMSHIRE;DN22 7DE,RETFORD,NOTTINGHAMSHIRE,UK,DN22 7DE,053.31653900,-000.94876600
11804657478530,,,,GBP,,,,,,STATION ROAD SWINDON SN1 1DQ;SWINDON;WILTSHIRE;SN1 1DQ,SWINDON,WILTSHIRE,UK,SN1 1DQ,051.56568200,-001.78565200
11184647174566,,,,GBP,,,,,,12 STATION ROAD EAST LIMPSFIELD RH8 0PR;LIMPSFIELD;SURREY;RH8 0PR,LIMPSFIELD,SURREY,UK,RH8 0PR,051.25720800,-000.00111400
11964698912241,,,,GBP,,,,,,STEPHENSON WAY LIVERPOOL L13 1NW;LIVERPOOL;MERSEYSIDE;L13 1NW,LIVERPOOL,MERSEYSIDE,UK,L13 1NW,053.39599000,-002.92933700
11114681986165,,,,GBP,,,,,,33 STEPNEY STREET LLANELLI SA15 3YB;LLANELLI;CARMARTHENSHIRE;SA15 3YB,LLANELLI,CARMARTHENSHIRE,UK,SA15 3YB,051.68182300,-004.16154100
11254624703470,,,,GBP,,,,,,123 HIGH STREET STOCKTON ON TEES TS18 1AY;STOCKTON ON TEES;CLEVELAND;TS18 1AY,STOCKTON ON TEES,CLEVELAND,UK,TS18 1AY,054.56404100,-001.31345500
1184628985294,,,,GBP,,,,,,196 STOKE NEWINGTON HIGH STREET LONDON N16 7GA;LONDON;LONDON;N16 7GA,LONDON,LONDON,UK,N16 7GA,051.56225400,-000.07333600
1187468394271,,,,GBP,,,,,,13 STONEHILLS WELWYN GARDEN CITY AL8 6ND;WELWYN GARDEN CITY;HERTFORDSHIRE;AL8 6ND,WELWYN GARDEN CITY,HERTFORDSHIRE,UK,AL8 6ND,051.80241200,-000.20477800
11334680799044,,,,GBP,,,,,,80 HIGH STREET STONY STRATFORD MK11 1AJ;STONY STRATFORD;BUCKINGHAMSHIRE;MK11 1AJ,STONY STRATFORD,BUCKINGHAMSHIRE,UK,MK11 1AJ,052.05771700,-000.85416800
1161465487818,,,,GBP,,,,,,141 HIGH STREET STOURBRIDGE DY8 1DW;STOURBRIDGE;WEST MIDLANDS;DY8 1DW,STOURBRIDGE,WEST MIDLANDS,UK,DY8 1DW,052.45720400,-002.14706200
11234668035165,,,,GBP,,,,,,38 STRAND LONDON WC2N 5JB;LONDON;LONDON;WC2N 5JB,LONDON,LONDON,UK,WC2N 5JB,051.50886900,-000.12408300
11934638863478,,,,GBP,,,,,,231 STRATFORD ROAD SHIRLEY. SOLIHULL B90 3AJ;SHIRLEY. SOLIHULL;WEST MIDLANDS;B90 3AJ,SHIRLEY. SOLIHULL,WEST MIDLANDS,UK,B90 3AJ,052.41156000,-001.82632700
11264680014350,,,,GBP,,,,,,54 STREATHAM HIGH ROAD LONDON SW16 1BZ;LONDON;LONDON;SW16 1BZ,LONDON,LONDON,UK,SW16 1BZ,051.43680200,-000.12811600
11444613685029,,,,GBP,,,,,,72 HIGH STREET STREET BA16 0EJ;STREET;SOMERSET;BA16 0EJ,STREET,SOMERSET,UK,BA16 0EJ,051.12680900,-002.74015500
1134462234791,,,,GBP,,,,,,56 HIGH STREET STROOD ME2 4AG;STROOD;KENT;ME2 4AG,STROOD,KENT,UK,ME2 4AG,051.39502000,000.49655900
1134622572672,,,,GBP,,,,,,HIGH STREET SUTTON SM1 1EX;SUTTON;SUTTON;SM1 1EX,SUTTON,SUTTON,UK,SM1 1EX,051.36239700,-000.19234600
11504697575036,,,,GBP,,,,,,197 SUTTON ROAD MAIDSTONE ME15 9BT;MAIDSTONE;KENT;ME15 9BT,MAIDSTONE,KENT,UK,ME15 9BT,051.25140500,000.54092200
11934614236505,,,,GBP,,,,,,2 SWAN BANK CONGLETON CW12 1BE;CONGLETON;CHESHIRE;CW12 1BE,CONGLETON,CHESHIRE,UK,CW12 1BE,053.16272100,-002.21229700
11264674133670,,,,GBP,,,,,,SWAN CENTRE LEATHERHEAD KT22 8AH;LEATHERHEAD;SURREY;KT22 8AH,LEATHERHEAD,SURREY,UK,KT22 8AH,051.29569400,-000.32773500
11144670853062,,,,GBP,,,,,,61 SYDENHAM ROAD LONDON SE26 5HA;LONDON;LONDON;SE26 5HA,LONDON,LONDON,UK,SE26 5HA,051.42623400,-000.05135800
11414693966611,,,,GBP,,,,,,1 TAFF STREET PONTYPRIDD CF37 4UU;PONTYPRIDD;MID GLAMORGAN;CF37 4UU,PONTYPRIDD,MID GLAMORGAN,UK,CF37 4UU,051.60112500,-003.34115300
117463381826,,,,GBP,,,,,,2 TAVERN STREET IPSWICH IP1 3BD;IPSWICH;SUFFOLK;IP1 3BD,IPSWICH,SUFFOLK,UK,IP1 3BD,052.05768100,001.15340800
11454695212084,,,,GBP,,,,,,TEMPLE MEADS BRISTOL BS1 6QF;BRISTOL;BRISTOL;BS1 6QF,BRISTOL,BRISTOL,UK,BS1 6QF,051.44966200,-002.58064600
1148466326616,,,,GBP,,,,,,58 HIGH STREET TENTERDEN TN30 6AX;TENTERDEN;KENT;TN30 6AX,TENTERDEN,KENT,UK,TN30 6AX,051.06813400,000.68643700
11384684081428,,,,GBP,,,,,,96 TERMINUS ROAD EASTBOURNE BN21 3LX;EASTBOURNE;EAST SUSSEX;BN21 3LX,EASTBOURNE,EAST SUSSEX,UK,BN21 3LX,050.76852700,000.28245200
11714626304078,,,,GBP,,,,,,38 TERRACE ROAD ABERYSTWYTH SY23 2AB;ABERYSTWYTH;CEREDIGION;SY23 2AB,ABERYSTWYTH,CEREDIGION,UK,SY23 2AB,052.41570400,-004.08363000
1124628297676,,,,GBP,,,,,,THANET GRANGE SOUTHEND ON SEA SS0 0EJ;SOUTHEND ON SEA;ESSEX;SS0 0EJ,SOUTHEND ON SEA,ESSEX,UK,SS0 0EJ,051.56230200,000.68344200
11454664426289,,,,GBP,,,,,,THE AVENUE HIGHAMS PARK E4 9LD;HIGHAMS PARK;LONDON;E4 9LD,HIGHAMS PARK,LONDON,UK,E4 9LD,051.60856300,000.00049100
11714677173139,,,,GBP,,,,,,39 THE BOROUGH FARNHAM GU9 7NW;FARNHAM;SURREY;GU9 7NW,FARNHAM,SURREY,UK,GU9 7NW,051.21472400,-000.79879000
11334675329006,,,,GBP,,,,,,13 THE BOROUGH HINCKLEY LE10 1NL;HINCKLEY;LEICESTERSHIRE;LE10 1NL,HINCKLEY,LEICESTERSHIRE,UK,LE10 1NL,052.54182600,-001.37357900
11764661036167,,,,GBP,,,,,,16 THE BOULEVARD CRAWLEY RH10 1XU;CRAWLEY;WEST SUSSEX;RH10 1XU,CRAWLEY,WEST SUSSEX,UK,RH10 1XU,051.11629500,-000.18836600
11234619367718,,,,GBP,,,,,,12 THE BROADWAY LONDON N14 6PL;LONDON;LONDON;N14 6PL,LONDON,LONDON,UK,N14 6PL,051.63249000,-000.12690500
1123462234791,,,,GBP,,,,,,12 THE BROADWAY LONDON N14 6PL;LONDON;LONDON;N14 6PL,LONDON,LONDON,UK,N14 6PL,051.39502000,000.49655900
11974688329658,,,,GBP,,,,,,69 THE BROADWAY SOUTHALL UB1 1LD;SOUTHALL;MIDDLESEX;UB1 1LD,SOUTHALL,MIDDLESEX,UK,UB1 1LD,051.51116000,-000.37910100
11354659392042,,,,GBP,,,,,,9 THE BROADWAY STANMORE HA7 4DA;STANMORE;MIDDLESEX;HA7 4DA,STANMORE,MIDDLESEX,UK,HA7 4DA,051.61741700,-000.31110900
11274625288769,,,,GBP,,,,,,14 THE BROADWAY WOOD GREEN N22 6DS;WOOD GREEN;LONDON;N22 6DS,WOOD GREEN,LONDON,UK,N22 6DS,051.59607900,-000.10951800
11904677616550,,,,GBP,,,,,,THE BULL RING NORTHWICH CW9 5BN;NORTHWICH;CHESHIRE;CW9 5BN,NORTHWICH,CHESHIRE,UK,CW9 5BN,053.26229900,-002.50151700
11664640959043,,,,GBP,,,,,,48 THE CENTRE FELTHAM TW13 4BS;FELTHAM;MIDDLESEX;TW13 4BS,FELTHAM,MIDDLESEX,UK,TW13 4BS,051.44567700,-000.41069100
11824640959043,,,,GBP,,,,,,THE CENTRE FELTHAM TW13 4BS;FELTHAM;MIDDLESEX;TW13 4BS,FELTHAM,MIDDLESEX,UK,TW13 4BS,051.44567700,-000.41069100
11294675304393,,,,GBP,,,,,,THE COMMONS SHAFTESBURY SP7 8JY;SHAFTESBURY;DORSET;SP7 8JY,SHAFTESBURY,DORSET,UK,SP7 8JY,051.00631900,-002.19798600
11174629217281,,,,GBP,,,,,,100 THE CRESCENT COLCHESTER CO4 9GN;COLCHESTER;ESSEX;CO4 9GN,COLCHESTER,ESSEX,UK,CO4 9GN,051.92195100,000.92718800
11174629217281840,,,,GBP,,,,,,100 THE CRESCENT BUSINESS PARK COLCHESTER CO4 9GN;COLCHESTER;COLCHESTER;CO4 9GN,COLCHESTER,COLCHESTER,UK,CO4 9GN,051.92195100,000.92718800
11304610667478,,,,GBP,,,,,,1 THE CROSS WORCESTER WR1 3PR;WORCESTER;HEREFORDSHIRE;WR1 3PR,WORCESTER,HEREFORDSHIRE,UK,WR1 3PR,052.19296000,-002.22097400
1137469751629,,,,GBP,,,,,,41 THE DRAPERY NORTHAMPTON NN1 2EU;NORTHAMPTON;NORTHAMPTONSHIRE;NN1 2EU,NORTHAMPTON,NORTHAMPTONSHIRE,UK,NN1 2EU,052.24523200,-000.89823600
1186463719251,,,,GBP,,,,,,THE ELEPHANT & CASTLE NEWINGTON CAUSEWAY SE1 6BB;NEWINGTON CAUSEWAY;LONDON;SE1 6BB,NEWINGTON CAUSEWAY,LONDON,UK,SE1 6BB,051.49599500,-000.09922600
11284637816377,,,,GBP,,,,,,THE ESPLANADE POULTON LE FYLDE FY6 0TZ;POULTON LE FYLDE;LANCASHIRE;FY6 0TZ,POULTON LE FYLDE,LANCASHIRE,UK,FY6 0TZ,053.92860500,-002.98908900
11234650301912,,,,GBP,,,,,,289 THE GREEN ECCLESTON PR7 5DZ;ECCLESTON;CHORLEY;PR7 5DZ,ECCLESTON,CHORLEY,UK,PR7 5DZ,053.64303800,-002.72251500
11164686629483,,,,GBP,,,,,,19 THE GROVE ILKLEY LS29 9LW;ILKLEY;WEST YORKSHIRE;LS29 9LW,ILKLEY,WEST YORKSHIRE,UK,LS29 9LW,053.92433400,-001.82406900
11964645321628,,,,GBP,,,,,,THE HARPUR CENTRE BEDFORD MK40 1TG;BEDFORD;BEDS;MK40 1TG,BEDFORD,BEDS,UK,MK40 1TG,052.13644500,-000.46923100
11754631613518,,,,GBP,,,,,,THE HEADROW LEEDS LS1 8HZ;LEEDS;WEST YORKSHIRE;LS1 8HZ,LEEDS,WEST YORKSHIRE,UK,LS1 8HZ,053.79961700,-001.54453100
1124696848964,,,,GBP,,,,,,THE HOLLOW EARL SHILTON LE9 7NA;EARL SHILTON;LEICESTERSHIRE;LE9 7NA,EARL SHILTON,LEICESTERSHIRE,UK,LE9 7NA,052.57585500,-001.31535100
11524648732574,,,,GBP,,,,,,THE LANES CARLISLE CA3 8NX;CARLISLE;CUMBRIA;CA3 8NX,CARLISLE,CUMBRIA,UK,CA3 8NX,054.89546800,-002.93473800
11464657629621,,,,GBP,,,,,,1 THE MALL EALING W5 2PL;EALING;LONDON;W5 2PL,EALING,LONDON,UK,W5 2PL,051.51417900,-000.30141200
11144664192419,,,,GBP,,,,,,17 THE NOOK ANSTEY LE7 7AZ;ANSTEY;LEICESTERSHIRE;LE7 7AZ,ANSTEY,LEICESTERSHIRE,UK,LE7 7AZ,052.68069100,-001.17719600
11724666007759,,,,GBP,,,,,,11 THE PARADE CANTERBURY CT1 2SG;CANTERBURY;KENT;CT1 2SG,CANTERBURY,KENT,UK,CT1 2SG,051.27829900,001.08071500
1144626677578,,,,GBP,,,,,,59 THE PARADE LEAMINGTON SPA CV32 4BA;LEAMINGTON SPA;WARWICKSHIRE;CV32 4BA,LEAMINGTON SPA,WARWICKSHIRE,UK,CV32 4BA,052.29100500,-001.53536800
114462667757820,,,,GBP,,,,,,59 THE PARADE LEAMINGTON SPA CV32 4ZX;LEAMINGTON SPA;WARWICKSHIRE;CV32 4ZX,LEAMINGTON SPA,WARWICKSHIRE,UK,CV32 4ZX,052.29100500,-001.53536800
1117468194516,,,,GBP,,,,,,9 THE PARADE MINEHEAD TA24 5NL;MINEHEAD;SOMERSET;TA24 5NL,MINEHEAD,SOMERSET,UK,TA24 5NL,051.20599800,-003.47798000
1134654878733,,,,GBP,,,,,,5 THE PARADE OADBY LE2 5BB;OADBY;LEICESTERSHIRE;LE2 5BB,OADBY,LEICESTERSHIRE,UK,LE2 5BB,052.59989200,-001.08355000
1132463186880,,,,GBP,,,,,,THE PARADE SWINDON SN1 1BB;SWINDON;SWINDON;SN1 1BB,SWINDON,SWINDON,UK,SN1 1BB,051.56213000,-001.78515000
11654619306722,,,,GBP,,,,,,47 THE PARADE SWINDON SN1 1BB;SWINDON;WILTSHIRE;SN1 1BB,SWINDON,WILTSHIRE,UK,SN1 1BB,051.56185900,-001.78437200
11404654832741,,,,GBP,,,,,,16 THE PLAIN THORNBURY BS35 2BF;THORNBURY;AVON;BS35 2BF,THORNBURY,AVON,UK,BS35 2BF,051.60926100,-002.52625800
11394614546110,,,,GBP,,,,,,36 THE ROCK BURY BL9 0NU;BURY;LANCASHIRE;BL9 0NU,BURY,LANCASHIRE,UK,BL9 0NU,053.59359200,-002.29593200
1169461673208,,,,GBP,,,,,,12 THE ROWS HARLOW CM20 1BZ;HARLOW;ESSEX;CM20 1BZ,HARLOW,ESSEX,UK,CM20 1BZ,051.77090600,000.09296400
1184468563429,,,,GBP,,,,,,2 THE SANDLINGS RAMSOMES EUROPARK IP3 9SL;RAMSOMES EUROPARK;SUFFOLK;IP3 9SL,RAMSOMES EUROPARK,SUFFOLK,UK,IP3 9SL,052.03251400,001.20506600
11284657217376,,,,GBP,,,,,,THE SQUARE CHAGFORD TQ13 8BS;CHAGFORD;DEVON;TQ13 8BS,CHAGFORD,DEVON,UK,TQ13 8BS,050.67353700,-003.83973200
11284612285174,,,,GBP,,,,,,THE SQUARE WILLERBY HU10 7UA;WILLERBY;HUMBERSIDE;HU10 7UA,WILLERBY,HUMBERSIDE,UK,HU10 7UA,053.75693200,-000.44629500
11944623601776,,,,GBP,,,,,,154 THE STREET RUSTINGTON BN16 3DA;RUSTINGTON;WEST SUSSEX;BN16 3DA,RUSTINGTON,WEST SUSSEX,UK,BN16 3DA,050.81083700,-000.50586400
11444654912239,,,,GBP,,,,,,9 THE TOWN ENFIELD EN2 6LE;ENFIELD;MIDDLESEX;EN2 6LE,ENFIELD,MIDDLESEX,UK,EN2 6LE,051.65179300,-000.08151100
11294626369927,,,,GBP,,,,,,130 HIGH STREET TONBRIDGE TN9 1DE;TONBRIDGE;KENT;TN9 1DE,TONBRIDGE,KENT,UK,TN9 1DE,051.19658600,000.27494900
11564698731046,,,,GBP,,,,,,30 TOOTING HIGH STREET LONDON SW17 0RG;LONDON;LONDON;SW17 0RG,LONDON,LONDON,UK,SW17 0RG,051.42880000,-000.16747200
11764673997145,,,,GBP,,,,,,45 TOTTENHAM COURT ROAD LONDON W1T 2EA;LONDON;LONDON;W1T 2EA,LONDON,LONDON,UK,W1T 2EA,051.51882400,-000.13310100
1162461074834,,,,GBP,,,,,,TOWN HALL SQUARE ROCHDALE OL16 1LL;ROCHDALE;LANCASHIRE;OL16 1LL,ROCHDALE,LANCASHIRE,UK,OL16 1LL,053.61643300,-002.15775700
11114684552936,,,,GBP,,,,,,1 TOWNLEY ROAD BEXLEYHEATH DA6 7JG;BEXLEYHEATH;KENT;DA6 7JG,BEXLEYHEATH,KENT,UK,DA6 7JG,051.45627700,000.14448000
11564660957005,,,,GBP,,,,,,TRAFFORD PARK BARTON DOCK ROAD M41 7BQ;BARTON DOCK ROAD;MANCHESTER;M41 7BQ,BARTON DOCK ROAD,MANCHESTER,UK,M41 7BQ,053.46359400,-002.33825700
11564691041744,,,,GBP,,,,,,TRAFFORD PARK MANCHESTER M17 1NW;MANCHESTER;LANCASHIRE;M17 1NW,MANCHESTER,LANCASHIRE,UK,M17 1NW,053.46701400,-002.31049100
11474656432662,,,,GBP,,,,,,9 TRIANGLE CLEVEDON BS21 6NQ;CLEVEDON;AVON;BS21 6NQ,CLEVEDON,AVON,UK,BS21 6NQ,051.43612300,-002.85246800
11234666316663,,,,GBP,,,,,,TRIUMPH ROAD NOTTINGHAM NG8 1BB;NOTTINGHAM;NOTTINGHAM;NG8 1BB,NOTTINGHAM,NOTTINGHAM,UK,NG8 1BB,052.93807200,-001.19428500
11234697135057,,,,GBP,,,,,,TRIUMPH ROAD NOTTINGHAM NG8 1BB;NOTTINGHAM;NOTTINGHAMSHIRE;NG8 1BB,NOTTINGHAM,NOTTINGHAMSHIRE,UK,NG8 1BB,052.95300000,-001.18711600
1130469041479,,,,GBP,,,,,,4 TUESDAY MARKET PLACE KING.S LYNN PE30 1YY;KING.S LYNN;NORFOLK;PE30 1YY,KING.S LYNN,NORFOLK,UK,PE30 1YY,052.75597600,000.39516700
11304698764833,,,,GBP,,,,,,49 HIGH STREET UCKFIELD TN22 1AN;UCKFIELD;EAST SUSSEX;TN22 1AN,UCKFIELD,EAST SUSSEX,UK,TN22 1AN,050.97074600,000.09606700
1115461610963,,,,GBP,,,,,,108 UNION STREET TORQUAY TQ2 5PH;TORQUAY;DEVON;TQ2 5PH,TORQUAY,DEVON,UK,TQ2 5PH,050.46724200,-003.53111400
1195465268184,,,,GBP,,,,,,UNIT 27 CORSHAM SN13 0HL;CORSHAM;WILTSHIRE;SN13 0HL,CORSHAM,WILTSHIRE,UK,SN13 0HL,051.43148400,-002.18690000
11394679967063,,,,GBP,,,,,,UPPER FORE STREET UPPER EDMONTON N18 2XA;UPPER EDMONTON;LONDON;N18 2XA,UPPER EDMONTON,LONDON,UK,N18 2XA,051.61248600,-000.06450800
1188464174143,,,,GBP,,,,,,1 UPPER MARKET SQUARE HANLEY ST1 1NS;HANLEY;STAFFORDSHIRE;ST1 1NS,HANLEY,STAFFORDSHIRE,UK,ST1 1NS,053.02634400,-002.17465000
113468870899,,,,GBP,,,,,,HIGH STREET UPPERMILL OL3 6AP;UPPERMILL;LANCASHIRE;OL3 6AP,UPPERMILL,LANCASHIRE,UK,OL3 6AP,053.54800800,-002.00612500
11234633056782,,,,GBP,,,,,,48 HIGH STREET UXBRIDGE UB8 1UT;UXBRIDGE;MIDDLESEX;UB8 1UT,UXBRIDGE,MIDDLESEX,UK,UB8 1UT,051.54541300,-000.47782800
11414623529590,,,,GBP,,,,,,536 VALLEY ROAD BASFORD NG5 1FL;BASFORD;NOTTINGHAMSHIRE;NG5 1FL,BASFORD,NOTTINGHAMSHIRE,UK,NG5 1FL,052.98090300,-001.17399100
1184645371534,,,,GBP,,,,,,10 VICTORIA ROAD SURBITON KT6 4JY;SURBITON;SURREY;KT6 4JY,SURBITON,SURREY,UK,KT6 4JY,051.39288500,-000.30562100
1154466136026,,,,GBP,,,,,,VICTORIA SQUARE THORNTON CLEVELEYS FY5 3LZ;THORNTON CLEVELEYS;LANCASHIRE;FY5 3LZ,THORNTON CLEVELEYS,LANCASHIRE,UK,FY5 3LZ,053.87719600,-003.03961000
1177465315161,,,,GBP,,,,,,VICTORIA STATION LONDON SW1V 1JU;LONDON;LONDON;SW1V 1JU,LONDON,LONDON,UK,SW1V 1JU,051.49568100,-000.14472200
1144683709168,,,,GBP,,,,,,66 VICTORIA STREET GRIMSBY DN31 1GA;GRIMSBY;LINCOLNSHIRE;DN31 1GA,GRIMSBY,LINCOLNSHIRE,UK,DN31 1GA,053.56542900,-000.08476000
1184667587855,,,,GBP,,,,,,VICTORIA STREET LONDON SW1E 5ND;LONDON;LONDON;SW1E 5ND,LONDON,LONDON,UK,SW1E 5ND,051.49635900,-000.14383000
11164649874366,,,,GBP,,,,,,169 VICTORIA STREET LONDON SW1E 5NA;LONDON;LONDON;SW1E 5NA,LONDON,LONDON,UK,SW1E 5NA,051.49638700,-000.14104800
11764684681748,,,,GBP,,,,,,15 VICTORIA STREET PAIGNTON TQ4 5DE;PAIGNTON;DEVON;TQ4 5DE,PAIGNTON,DEVON,UK,TQ4 5DE,050.43595000,-003.56705500
1184676148837,,,,GBP,,,,,,VICTORIA STREET SHIREBROOK MANSFIELD NG20 8AQ;SHIREBROOK MANSFIELD;NOTTS;NG20 8AQ,SHIREBROOK MANSFIELD,NOTTS,UK,NG20 8AQ,053.20329100,-001.21340800
1156465696893,,,,GBP,,,,,,VIRGINIA WOLFE BUILDING CANTERBURY CT2 7UG;CANTERBURY;KENT;CT2 7UG,CANTERBURY,KENT,UK,CT2 7UG,051.29620800,001.06768200
11784624018603,,,,GBP,,,,,,31 WALLASEY ROAD WALLASEY CH45 4NS;WALLASEY;MERSEYSIDE;CH45 4NS,WALLASEY,MERSEYSIDE,UK,CH45 4NS,053.41948400,-003.04702500
11414661285952,,,,GBP,,,,,,200 HIGH STREET WALLSALL WS3 3LA;WALLSALL;WEST MIDLANDS;WS3 3LA,WALLSALL,WEST MIDLANDS,UK,WS3 3LA,052.61587100,-002.00414800
11904673385880,,,,GBP,,,,,,2 WALSALL ROAD PERRY BARR B42 1AA;PERRY BARR;BIRMINGHAM;B42 1AA,PERRY BARR,BIRMINGHAM,UK,B42 1AA,052.51767800,-001.90308700
11904673385880740,,,,GBP,,,,,,2 WALSALL ROAD PERRY BARR B42 1AA;PERRY BARR;WEST MIDLANDS;B42 1AA,PERRY BARR,WEST MIDLANDS,UK,B42 1AA,052.51767800,-001.90308700
11554655992411,,,,GBP,,,,,,97 HIGH STREET WALTHAM CROSS EN8 7AH;WALTHAM CROSS;HERTFORDSHIRE;EN8 7AH,WALTHAM CROSS,HERTFORDSHIRE,UK,EN8 7AH,051.68526900,-000.03348300
11274628645080,,,,GBP,,,,,,204 HIGH STREET WALTHAMSTOW E17 7JH;WALTHAMSTOW;LONDON;E17 7JH,WALTHAMSTOW,LONDON,UK,E17 7JH,051.58442300,-000.02103900
1163468509149,,,,GBP,,,,,,73 HIGH STREET WALTON ON THAMES KT12 1DW;WALTON ON THAMES;SURREY;KT12 1DW,WALTON ON THAMES,SURREY,UK,KT12 1DW,051.38415500,-000.41700600
1134686233108,,,,GBP,,,,,,HIGH STREET WANSTEAD E11 2AB;WANSTEAD;LONDON;E11 2AB,WANSTEAD,LONDON,UK,E11 2AB,051.57891300,000.02570300
118646336693,,,,GBP,,,,,,28 WARRINGTON STREET ASHTON-UNDER-LYNE OL6 6JL;ASHTON-UNDER-LYNE;LANCASHIRE;OL6 6JL,ASHTON-UNDER-LYNE,LANCASHIRE,UK,OL6 6JL,053.48814400,-002.09331800
11414658926112,,,,GBP,,,,,,26 HIGH STREET WARWICK CV34 4FA;WARWICK;WARWICKSHIRE;CV34 4FA,WARWICK,WARWICKSHIRE,UK,CV34 4FA,052.28076500,-001.58880200
1156463744550,,,,GBP,,,,,,1160 WARWICK ROAD ACOCKS GREEN B27 6DF;ACOCKS GREEN;WEST MIDLANDS;B27 6DF,ACOCKS GREEN,WEST MIDLANDS,UK,B27 6DF,052.44645800,-001.81887800
1130467648306,,,,GBP,,,,,,WARWICK ROAD WARWICKSHIRE CV8 1ZL;WARWICKSHIRE;ENGLAND;CV8 1ZL,WARWICKSHIRE,ENGLAND,UK,CV8 1ZL,052.34143100,-001.57830300
1175467684178,,,,GBP,,,,,,WASHINGTON CENTRE WASHINGTON NE38 7SG;WASHINGTON;TYNE & WEAR;NE38 7SG,WASHINGTON,TYNE & WEAR,UK,NE38 7SG,054.89960200,-001.53249800
1175467684178130,,,,GBP,,,,,,WASHINGTON CENTRE WASHINGTON NE38 7SG;WASHINGTON;WASHINGTON;NE38 7SG,WASHINGTON,WASHINGTON,UK,NE38 7SG,054.89960200,-001.53249800
11364630048261,,,,GBP,,,,,,1 WATER LANE BAKEWELL DE45 1YY;BAKEWELL;DERBYSHIRE;DE45 1YY,BAKEWELL,DERBYSHIRE,UK,DE45 1YY,053.21338000,-001.67461300
11514629893145,,,,GBP,,,,,,1 WATERHOUSE STREET HALIFAX HX1 1JA;HALIFAX;WEST YORKSHIRE;HX1 1JA,HALIFAX,WEST YORKSHIRE,UK,HX1 1JA,053.72352600,-001.86205400
11794697689123,,,,GBP,,,,,,WATERLOO ROAD LONDON SE1 8SW;LONDON;LONDON;SE1 8SW,LONDON,LONDON,UK,SE1 8SW,051.50265200,-000.11325800
1134616958246,,,,GBP,,,,,,HIGH STREET WATFORD WD17 2GZ;WATFORD;HERTFORDSHIRE;WD17 2GZ,WATFORD,HERTFORDSHIRE,UK,WD17 2GZ,051.65535900,-000.39661500
11884659881801,,,,GBP,,,,,,10 HIGH STREET WEDNESFIELD WV11 1BF;WEDNESFIELD;WEST MIDLANDS;WV11 1BF,WEDNESFIELD,WEST MIDLANDS,UK,WV11 1BF,052.59981300,-002.08223600
1134692641168,,,,GBP,,,,,,HIGH STREET WELLINGTON TA21 8QT;WELLINGTON;WELLINGTON;TA21 8QT,WELLINGTON,WELLINGTON,UK,TA21 8QT,050.97941400,-003.22701800
1117465718836,,,,GBP,,,,,,30 WELLINGTON STREET ALDERSHOT GU11 1EA;ALDERSHOT;HAMPSHIRE;GU11 1EA,ALDERSHOT,HAMPSHIRE,UK,GU11 1EA,051.24852800,-000.76349300
118461130396,,,,GBP,,,,,,7 HIGH STREET WELLS BA5 2AA;WELLS;SOMERSET;BA5 2AA,WELLS,SOMERSET,UK,BA5 2AA,051.20884700,-002.64595500
11224610683568,,,,GBP,,,,,,290 WELLS ROAD KNOWLE BS4 2QA;KNOWLE;AVON;BS4 2QA,KNOWLE,AVON,UK,BS4 2QA,051.43527900,-002.56711300
1114670375902,,,,GBP,,,,,,309 HIGH STREET WEST BROMWICH B70 8LX;WEST BROMWICH;WEST MIDLANDS;B70 8LX,WEST BROMWICH,WEST MIDLANDS,UK,B70 8LX,052.52015400,-001.99651900
11464633839630,,,,GBP,,,,,,WEST DENTON WAY NEWCASTLE NE5 2QZ;NEWCASTLE;TYNE & WEAR;NE5 2QZ,NEWCASTLE,TYNE & WEAR,UK,NE5 2QZ,054.99313000,-001.69912200
11114640683231,,,,GBP,,,,,,WEST MALL ENTRANCE MIDDLESBROUGH TS1 1SU;MIDDLESBROUGH;TEESIDE;TS1 1SU,MIDDLESBROUGH,TEESIDE,UK,TS1 1SU,054.57724300,-001.23973200
11314652445741,,,,GBP,,,,,,52 WEST STREET FAREHAM PO16 0JX;FAREHAM;HAMPSHIRE;PO16 0JX,FAREHAM,HAMPSHIRE,UK,PO16 0JX,050.85224300,-001.17729400
11114627864812,,,,GBP,,,,,,3 WEST STREET HASELMERE GU27 2AB;HASELMERE;SURREY;GU27 2AB,HASELMERE,SURREY,UK,GU27 2AB,051.51171000,-000.07908700
11374632656907,,,,GBP,,,,,,23 WEST STREET HAVANT PO9 1EU;HAVANT;HAMPSHIRE;PO9 1EU,HAVANT,HAMPSHIRE,UK,PO9 1EU,050.85145900,-000.98411900
11374634197108,,,,GBP,,,,,,33 HIGH STREET WEST WICKHAM BR4 0LR;WEST WICKHAM;KENT;BR4 0LR,WEST WICKHAM,KENT,UK,BR4 0LR,051.37588100,-000.01697100
11804689736245,,,,GBP,,,,,,3 WESTBOROUGH SCARBOROUGH YO11 1UH;SCARBOROUGH;NORTH YORKSHIRE;YO11 1UH,SCARBOROUGH,NORTH YORKSHIRE,UK,YO11 1UH,054.28179500,-000.40133800
119466123988,,,,GBP,,,,,,13 HIGH STREET WESTBURY ON TRYM BS9 3BY;WESTBURY ON TRYM;AVON;BS9 3BY,WESTBURY ON TRYM,AVON,UK,BS9 3BY,051.49333700,-002.61891200
11544626061940,,,,GBP,,,,,,WESTERN AVE WATERSIDE CHATHAM ME4 4UH;CHATHAM;KENT;ME4 4UH,CHATHAM,KENT,UK,ME4 4UH,051.39712500,000.53462900
1151468444184,,,,GBP,,,,,,56 WESTGATE WAKEFIELD WF1 1XF;WAKEFIELD;WEST YORKSHIRE;WF1 1XF,WAKEFIELD,WEST YORKSHIRE,UK,WF1 1XF,053.68257600,-001.50075100
11164651052786,,,,GBP,,,,,,14 WESTGATE STREET LAUNCESTON PL15 7AB;LAUNCESTON;CORNWELL;PL15 7AB,LAUNCESTON,CORNWELL,UK,PL15 7AB,050.63600800,-004.36128700
116469933161,,,,GBP,,,,,,41 WESTON FAVELL CENTRE NORTHAMPTON NN3 8JZ;NORTHAMPTON;NORTHAMPTONSHIRE;NN3 8JZ,NORTHAMPTON,NORTHAMPTONSHIRE,UK,NN3 8JZ,052.25699200,-000.83547200
11664639418960,,,,GBP,,,,,,89 HIGH STREET WESTON-SUPER-MARE BS23 1HJ;WESTON-SUPER-MARE;AVON;BS23 1HJ,WESTON-SUPER-MARE,AVON,UK,BS23 1HJ,051.34913900,-002.97942700
11304660735093,,,,GBP,,,,,,49 HIGH STREET WETHERBY LS22 6LS;WETHERBY;WEST YORKSHIRE;LS22 6LS,WETHERBY,WEST YORKSHIRE,UK,LS22 6LS,053.92849200,-001.38576100
1146461482320,,,,GBP,,,,,,1 HIGH STREET WEYBRIDGE KT13 8UA;WEYBRIDGE;SURREY;KT13 8UA,WEYBRIDGE,SURREY,UK,KT13 8UA,051.37238800,-000.45847400
1174689879044,,,,GBP,,,,,,86 WHITBY ROAD ELLESMERE PORT CH65 0AT;ELLESMERE PORT;MERSEYSIDE;CH65 0AT,ELLESMERE PORT,MERSEYSIDE,UK,CH65 0AT,053.27884600,-002.90195700
11894639281688,,,,GBP,,,,,,45 WHITECHAPEL ROAD EAST LONDON E1 1DU;EAST LONDON;LONDON;E1 1DU,EAST LONDON,LONDON,UK,E1 1DU,051.51693900,-000.06836000
11454614632570,,,,GBP,,,,,,WHITELADIES ROAD BRISTOL BS8 2PB;BRISTOL;AVON;BS8 2PB,BRISTOL,AVON,UK,BS8 2PB,051.46401300,-002.60912900
11534687497478,,,,GBP,,,,,,40 WHITGIFT CENTRE CROYDON CR0 1UQ;CROYDON;SURREY;CR0 1UQ,CROYDON,SURREY,UK,CR0 1UQ,051.37595200,-000.09936100
11624670392653,,,,GBP,,,,,,63 HIGH STREET WICKFORD SS12 9AQ;WICKFORD;ESSEX;SS12 9AQ,WICKFORD,ESSEX,UK,SS12 9AQ,051.61199900,000.52009300
11434690637750,,,,GBP,,,,,,146 WIDNES ROAD WIDNES WA8 6BB;WIDNES;CHESHIRE;WA8 6BB,WIDNES,CHESHIRE,UK,WA8 6BB,053.36668600,-002.72710300
11104614777573,,,,GBP,,,,,,699 WILMSLOW ROAD DIDSBURY M20 6NW;DIDSBURY;MANCHESTER;M20 6NW,DIDSBURY,MANCHESTER,UK,M20 6NW,053.41728800,-002.23130200
11554685826427,,,,GBP,,,,,,16 WIMBLEDON HILL ROAD LONDON SW19 7NN;LONDON;LONDON;SW19 7NN,LONDON,LONDON,UK,SW19 7NN,051.42136100,-000.20802800
11504681731628,,,,GBP,,,,,,250 WIMBLEDON PARK ROAD LONDON SW19 6NL;LONDON;LONDON;SW19 6NL,LONDON,LONDON,UK,SW19 6NL,051.44439600,-000.20719900
11894694009188,,,,GBP,,,,,,105 HIGH STREET WINCHESTER SO23 9AW;WINCHESTER;HAMPSHIRE;SO23 9AW,WINCHESTER,HAMPSHIRE,UK,SO23 9AW,051.06277000,-001.31517500
11434687199474,,,,GBP,,,,,,2 HIGH STREET WINDERMERE LA23 1AF;WINDERMERE;CUMBRIA;LA23 1AF,WINDERMERE,CUMBRIA,UK,LA23 1AF,054.38055100,-002.90532500
11344638354178,,,,GBP,,,,,,23 HIGH STREET WITNEY OX28 6HW;WITNEY;OXFORDSHIRE;OX28 6HW,WITNEY,OXFORDSHIRE,UK,OX28 6HW,051.78622700,-001.48520600
11344611088608,,,,GBP,,,,,,23 HIGH STREET WITNEY OX28 6HW;WITNEY;OXFORDSHIRE;OX28 6HW,WITNEY,OXFORDSHIRE,UK,OX28 6HW,051.48681700,-000.09556100
11464690816094,,,,GBP,,,,,,1 HIGH STREET WOKING GU21 6BG;WOKING;SURREY;GU21 6BG,WOKING,SURREY,UK,GU21 6BG,051.31867800,-000.55750100
11904615891741,,,,GBP,,,,,,WOOD STREET KINGSTON UPON THAMES KT1 1TP;KINGSTON UPON THAMES;SURREY;KT1 1TP,KINGSTON UPON THAMES,SURREY,UK,KT1 1TP,051.41164000,-000.30475600
11814665369096,,,,GBP,,,,,,27 WOODCOTE ROAD WALLINGTON SM6 0LN;WALLINGTON;SURREY;SM6 0LN,WALLINGTON,SURREY,UK,SM6 0LN,051.35920000,-000.14948100
11824671692777,,,,GBP,,,,,,WOODFIELD STREET SWANSEA SA6 8AL;SWANSEA;WEST GLAMORGAN;SA6 8AL,SWANSEA,WEST GLAMORGAN,UK,SA6 8AL,051.66523100,-003.92541400
1144641945483,,,,GBP,,,,,,5 WOODTHORPE ROAD ASHFORD TW15 2RN;ASHFORD;MIDDLESEX;TW15 2RN,ASHFORD,MIDDLESEX,UK,TW15 2RN,051.43593000,-000.46742900
116946243467,,,,GBP,,,,,,9 YORK BUILDINGS BRIDGWATER TA6 3BU;BRIDGWATER;SOMERSET;TA6 3BU,BRIDGWATER,SOMERSET,UK,TA6 3BU,051.12883500,-003.00388500
11294677727695,,,,GBP,,,,,,150 YORK ROAD HARTLEPOOL TS26 9DZ;HARTLEPOOL;CLEVELAND;TS26 9DZ,HARTLEPOOL,CLEVELAND,UK,TS26 9DZ,054.68237800,-001.21633300
11324641709567,,,,GBP,,,,,,YORK STREET CLITHEROE BB7 2DN;CLITHEROE;LANCASHIRE;BB7 2DN,CLITHEROE,LANCASHIRE,UK,BB7 2DN,053.87292000,-002.39034300
11494638245832,,,,GBP,,,,,,27 YORKERSGATE MALTON YO17 7AZ;MALTON;NORTH YORKSHIRE;YO17 7AZ,MALTON,NORTH YORKSHIRE,UK,YO17 7AZ,054.13427400,-000.79862000
11884648936877,,,,GBP,,,,,,10 YORKSHIRE STREET OLDHAM OL1 1QT;OLDHAM;LANCASHIRE;OL1 1QT,OLDHAM,LANCASHIRE,UK,OL1 1QT,053.54177300,-002.11074500
